station,valid,tmpf,dwpf,relh,drct,sknt,p01i,alti,mslp,vsby,gust,skyc1,skyc2,skyc3,skyc4,skyl1,skyl2,skyl3,skyl4,presentwx,metar
LGA,2013-05-31T00:51:00Z,87.98,59,37.69,240.00,7,0,30.05,1017.70,10,M,FEW,M,M,M,25000.00,M,M,M,M,KLGA 310051Z 24007KT 10SM FEW250 31/15 A3005 RMK AO2 SLP177 T03110150
LGA,2013-05-31T01:51:00Z,87.08,59,38.78,220.00,5,0,30.07,1018.10,10,M,FEW,M,M,M,25000.00,M,M,M,M,KLGA 310151Z 22005KT 10SM FEW250 31/15 A3007 RMK AO2 SLP181 T03060150
LGA,2013-05-31T02:51:00Z,86,59,40.14,210.00,5,0,30.07,1018.40,10,M,FEW,M,M,M,25000.00,M,M,M,M,KLGA 310251Z 21005KT 10SM FEW250 30/15 A3007 RMK AO2 SLP184 T03000150 53009
LGA,2013-05-31T03:51:00Z,84.92,62.06,46.32,250.00,8,0,30.08,1018.60,10,M,FEW,M,M,M,25000.00,M,M,M,M,KLGA 310351Z 25008KT 10SM FEW250 29/17 A3008 RMK AO2 SLP186 T02940167
LGA,2013-05-31T04:51:00Z,82.94,62.96,50.97,230.00,8,0,30.09,1018.80,10,M,CLR,M,M,M,M,M,M,M,M,KLGA 310451Z 23008KT 10SM CLR 28/17 A3009 RMK AO2 SLP188 T02830172 403390233
LGA,2013-05-31T05:51:00Z,82.04,62.96,52.47,240.00,8,0,30.09,1018.80,10,M,CLR,M,M,M,M,M,M,M,M,KLGA 310551Z 24008KT 10SM CLR 28/17 A3009 RMK AO2 SLP188 T02780172 10311 20278 51004
LGA,2013-05-31T06:51:00Z,80.06,62.96,55.97,230.00,6,0,30.09,1018.70,10,M,CLR,M,M,M,M,M,M,M,M,KLGA 310651Z 23006KT 10SM CLR 27/17 A3009 RMK AO2 SLP187 T02670172
LGA,2013-05-31T07:51:00Z,78.98,62.96,57.99,220.00,5,0,30.08,1018.70,10,M,CLR,M,M,M,M,M,M,M,M,KLGA 310751Z 22005KT 10SM CLR 26/17 A3008 RMK AO2 SLP187 T02610172
LGA,2013-05-31T08:51:00Z,77,62.96,61.91,0.00,0,0,30.08,1018.70,10,M,CLR,M,M,M,M,M,M,M,M,KLGA 310851Z 00000KT 10SM CLR 25/17 A3008 RMK AO2 SLP187 T02500172 56001
LGA,2013-05-31T09:51:00Z,77,64.04,64.3,0.00,0,0,30.1,1019.10,10,M,FEW,M,M,M,25000.00,M,M,M,M,KLGA 310951Z 00000KT 10SM FEW250 25/18 A3010 RMK AO2 SLP191 T02500178
LGA,2013-05-31T10:51:00Z,78.08,64.04,62.05,220.00,6,0,30.11,1019.60,10,M,CLR,M,M,M,M,M,M,M,M,KLGA 311051Z 22006KT 10SM CLR 26/18 A3011 RMK AO2 SLP196 T02560178
LGA,2013-05-31T11:51:00Z,80.96,64.04,56.45,0.00,0,0,30.12,1019.80,10,M,CLR,M,M,M,M,M,M,M,M,KLGA 311151Z 00000KT 10SM CLR 27/18 A3012 RMK AO2 SLP198 T02720178 10278 20244 51011
LGA,2013-05-31T12:51:00Z,82.04,64.04,54.5,320.00,3,0,30.12,1019.80,10,M,CLR,M,M,M,M,M,M,M,M,KLGA 311251Z 32003KT 10SM CLR 28/18 A3012 RMK AO2 SLP198 T02780178
LGA,2013-05-31T13:51:00Z,86,64.94,49.51,0.00,0,0,30.1,1019.30,10,M,CLR,M,M,M,M,M,M,M,M,KLGA 311351Z 00000KT 10SM CLR 30/18 A3010 RMK AO2 SLP193 T03000183
LGA,2013-05-31T14:51:00Z,89.06,64.04,43.53,M,3,0,30.09,1019.10,10,M,FEW,M,M,M,25000.00,M,M,M,M,KLGA 311451Z VRB03KT 10SM FEW250 32/18 A3009 RMK AO2 SLP191 T03170178 58007
LGA,2013-05-31T15:51:00Z,89.96,62.06,39.47,50.00,4,0,30.08,1018.60,10,M,FEW,SCT,M,M,7000.00,25000.00,M,M,M,KLGA 311551Z 05004KT 10SM FEW070 SCT250 32/17 A3008 RMK AO2 SLP186 T03220167
LGA,2013-05-31T16:51:00Z,91.04,62.96,39.38,180.00,11,0,30.07,1018.20,10,16.00,FEW,BKN,M,M,7000.00,25000.00,M,M,M,KLGA 311651Z 18011G16KT 10SM FEW070TCU BKN250 33/17 A3007 RMK AO2 SLP182 TCU N-NE T03280172
LGA,2013-05-31T17:51:00Z,91.94,60.98,35.7,180.00,12,0,30.05,1017.70,10,18.00,FEW,BKN,M,M,7000.00,25000.00,M,M,M,KLGA 311751Z 18012G18KT 10SM FEW070TCU BKN250 33/16 A3005 RMK AO2 SLP177 TCU NE T03330161 10339 20272 58014
LGA,2013-05-31T18:51:00Z,87.08,64.04,46.35,150.00,12,0,30.05,1017.40,10,M,FEW,BKN,M,M,7000.00,25000.00,M,M,M,KLGA 311851Z 15012KT 10SM FEW070TCU BKN250 31/18 A3005 RMK AO2 SLP174 TCU NE T03060178
LGA,2013-05-31T19:51:00Z,87.98,62.96,43.37,170.00,11,0,30.03,1017.00,10,M,BKN,M,M,M,25000.00,M,M,M,M,KLGA 311951Z 17011KT 10SM BKN250 31/17 A3003 RMK AO2 SLP170 T03110172
LGA,2013-05-31T20:51:00Z,87.98,60.98,40.44,150.00,10,0,30.01,1016.30,10,16.00,FEW,BKN,M,M,6000.00,22000.00,M,M,M,KLGA 312051Z 15010G16KT 10SM FEW060 BKN220 31/16 A3001 RMK AO2 SLP163 T03110161 58013
LGA,2013-05-31T21:51:00Z,87.08,60.98,41.61,150.00,9,0,29.99,1015.70,10,M,FEW,BKN,M,M,6000.00,23000.00,M,M,M,KLGA 312151Z 15009KT 10SM FEW060 BKN230 31/16 A2999 RMK AO2 SLP157 T03060161
LGA,2013-05-31T22:51:00Z,84.92,62.06,46.32,170.00,8,0,29.99,1015.50,10,M,FEW,SCT,M,M,6000.00,25000.00,M,M,M,KLGA 312251Z 17008KT 10SM FEW060 SCT250 29/17 A2999 RMK AO2 SLP155 T02940167
LGA,2013-05-31T23:51:00Z,84.92,57.92,39.97,180.00,8,0,29.98,1015.20,10,M,SCT,M,M,M,25000.00,M,M,M,M,KLGA 312351Z 18008KT 10SM SCT250 29/14 A2998 RMK AO2 SLP152 T02940144 10333 20289 56012
LGA,2013-06-01T00:51:00Z,84.02,59,42.77,180.00,7,0,29.98,1015.30,10,M,SCT,M,M,M,25000.00,M,M,M,M,KLGA 010051Z 18007KT 10SM SCT250 29/15 A2998 RMK AO2 SLP153 T02890150
LGA,2013-06-01T01:51:00Z,82.94,60.98,47.52,200.00,7,0,30.01,1016.10,10,M,SCT,M,M,M,25000.00,M,M,M,M,KLGA 010151Z 20007KT 10SM SCT250 28/16 A3001 RMK AO2 SLP161 T02830161
LGA,2013-06-01T02:51:00Z,84.02,60.08,44.45,230.00,7,0,30.02,1016.50,10,M,SCT,M,M,M,25000.00,M,M,M,M,KLGA 010251Z 23007KT 10SM SCT250 29/16 A3002 RMK AO2 SLP165 T02890156 53013
LGA,2013-06-01T03:51:00Z,82.94,60.08,46.03,220.00,8,0,30.01,1016.30,10,M,SCT,M,M,M,25000.00,M,M,M,M,KLGA 010351Z 22008KT 10SM SCT250 28/16 A3001 RMK AO2 SLP163 T02830156
LGA,2013-06-01T04:51:00Z,80.96,62.06,52.66,220.00,8,0,30.01,1016.20,10,M,SCT,M,M,M,25000.00,M,M,M,M,KLGA 010451Z 22008KT 10SM SCT250 27/17 A3001 RMK AO2 SLP162 T02720167 403390244
LGA,2013-06-01T05:51:00Z,78.98,64.04,60.23,220.00,9,0,30,1015.90,10,M,FEW,M,M,M,25000.00,M,M,M,M,KLGA 010551Z 22009KT 10SM FEW250 26/18 A3000 RMK AO2 SLP159 T02610178 10294 20261 58005
LGA,2013-06-01T06:51:00Z,78.08,64.04,62.05,230.00,9,0,30,1015.70,10,M,CLR,M,M,M,M,M,M,M,M,KLGA 010651Z 23009KT 10SM CLR 26/18 A3000 RMK AO2 SLP157 T02560178
LGA,2013-06-01T07:51:00Z,77,64.94,66.36,220.00,7,0,29.99,1015.60,10,M,CLR,M,M,M,M,M,M,M,M,KLGA 010751Z 22007KT 10SM CLR 25/18 A2999 RMK AO2 SLP156 T02500183
LGA,2013-06-01T08:51:00Z,75.92,64.94,68.78,220.00,7,0,30,1015.90,10,M,CLR,M,M,M,M,M,M,M,M,KLGA 010851Z 22007KT 10SM CLR 24/18 A3000 RMK AO2 SLP159 T02440183 55000
LGA,2013-06-01T09:51:00Z,75.92,64.04,66.65,220.00,9,0,30,1015.80,10,M,FEW,M,M,M,25000.00,M,M,M,M,KLGA 010951Z 22009KT 10SM FEW250 24/18 A3000 RMK AO2 SLP158 T02440178
LGA,2013-06-01T10:51:00Z,75.92,64.04,66.65,220.00,8,0,30.01,1016.20,10,M,FEW,M,M,M,25000.00,M,M,M,M,KLGA 011051Z 22008KT 10SM FEW250 24/18 A3001 RMK AO2 SLP162 T02440178
LGA,2013-06-01T11:51:00Z,78.08,64.04,62.05,220.00,10,0,30.01,1016.20,10,M,FEW,M,M,M,25000.00,M,M,M,M,KLGA 011151Z 22010KT 10SM FEW250 26/18 A3001 RMK AO2 SLP162 T02560178 10261 20239 53003
LGA,2013-06-01T12:51:00Z,78.98,64.04,60.23,230.00,10,0,30.01,1016.40,10,M,FEW,M,M,M,25000.00,M,M,M,M,KLGA 011251Z 23010KT 10SM FEW250 26/18 A3001 RMK AO2 SLP164 T02610178
LGA,2013-06-01T13:51:00Z,80.96,64.04,56.45,230.00,8,0,29.99,1015.60,10,M,FEW,M,M,M,25000.00,M,M,M,M,KLGA 011351Z 23008KT 10SM FEW250 27/18 A2999 RMK AO2 SLP156 T02720178
LGA,2013-06-01T14:51:00Z,84.02,64.04,51.12,220.00,9,0,29.99,1015.50,10,M,FEW,M,M,M,25000.00,M,M,M,M,KLGA 011451Z 22009KT 10SM FEW250 29/18 A2999 RMK AO2 SLP155 T02890178 58007
LGA,2013-06-01T15:51:00Z,86,64.04,47.97,240.00,10,0,29.98,1015.30,10,M,FEW,M,M,M,25000.00,M,M,M,M,KLGA 011551Z 24010KT 10SM FEW250 30/18 A2998 RMK AO2 SLP153 T03000178
LGA,2013-06-01T16:51:00Z,87.98,64.94,46.48,170.00,12,0,29.97,1014.80,10,16.00,FEW,SCT,M,M,5000.00,25000.00,M,M,M,KLGA 011651Z 17012G16KT 10SM FEW050 SCT250 31/18 A2997 RMK AO2 SLP148 T03110183
LGA,2013-06-01T17:51:00Z,87.98,64.94,46.48,160.00,12,0,29.95,1014.20,10,M,FEW,SCT,M,M,5000.00,25000.00,M,M,M,KLGA 011751Z 16012KT 10SM FEW050 SCT250 31/18 A2995 RMK AO2 SLP142 T03110183 10317 20256 58012
LGA,2013-06-01T18:51:00Z,87.98,64.04,45.04,150.00,10,0,29.93,1013.60,10,M,FEW,SCT,M,M,5000.00,25000.00,M,M,M,KLGA 011851Z 15010KT 10SM FEW050 SCT250 31/18 A2993 RMK AO2 SLP136 T03110178
LGA,2013-06-01T19:51:00Z,89.06,62.96,41.91,170.00,12,0,29.92,1013.10,10,M,FEW,SCT,SCT,M,5500.00,20000.00,25000.00,M,M,KLGA 011951Z 17012KT 10SM FEW055 SCT200 SCT250 32/17 A2992 RMK AO2 SLP131 T03170172
LGA,2013-06-01T20:51:00Z,87.98,62.96,43.37,160.00,11,0,29.91,1012.90,10,M,FEW,SCT,SCT,M,5500.00,20000.00,25000.00,M,M,KLGA 012051Z 16011KT 10SM FEW055 SCT200 SCT250 31/17 A2991 RMK AO2 SLP129 T03110172 56014
LGA,2013-06-01T21:51:00Z,87.98,62.96,43.37,170.00,12,0,29.9,1012.40,10,M,FEW,SCT,SCT,M,5500.00,20000.00,25000.00,M,M,KLGA 012151Z 17012KT 10SM FEW055 SCT200 SCT250 31/17 A2990 RMK AO2 SLP124 T03110172
LGA,2013-06-01T22:51:00Z,82.94,64.04,52.93,180.00,10,0,29.89,1012.20,10,M,SCT,BKN,M,M,20000.00,25000.00,M,M,M,KLGA 012251Z 18010KT 10SM SCT200 BKN250 28/18 A2989 RMK AO2 SLP122 T02830178
LGA,2013-06-01T23:51:00Z,82.04,64.04,54.5,190.00,9,0,29.9,1012.60,10,M,FEW,BKN,M,M,20000.00,25000.00,M,M,M,KLGA 012351Z 19009KT 10SM FEW200 BKN250 28/18 A2990 RMK AO2 SLP126 T02780178 10317 20272 55003
LGA,2013-06-02T00:51:00Z,80.06,64.04,58.14,180.00,9,0,29.91,1012.80,10,M,FEW,SCT,M,M,6000.00,25000.00,M,M,M,KLGA 020051Z 18009KT 10SM FEW060 SCT250 27/18 A2991 RMK AO2 SLP128 T02670178
LGA,2013-06-02T01:51:00Z,78.08,64.04,62.05,190.00,9,0,29.91,1012.90,10,M,FEW,SCT,M,M,6000.00,25000.00,M,M,M,KLGA 020151Z 19009KT 10SM FEW060 SCT250 26/18 A2991 RMK AO2 SLP129 T02560178
LGA,2013-06-02T02:51:00Z,75.02,64.04,68.69,180.00,9,0,29.92,1013.10,10,M,FEW,M,M,M,25000.00,M,M,M,M,KLGA 020251Z 18009KT 10SM FEW250 24/18 A2992 RMK AO2 SLP131 T02390178 53005
LGA,2013-06-02T03:51:00Z,75.02,64.04,68.69,190.00,11,0,29.92,1013.00,10,M,FEW,M,M,M,25000.00,M,M,M,M,KLGA 020351Z 19011KT 10SM FEW250 24/18 A2992 RMK AO2 SLP130 T02390178
LGA,2013-06-02T04:51:00Z,75.92,64.94,68.78,170.00,8,0,29.9,1012.50,10,M,FEW,M,M,M,25000.00,M,M,M,M,KLGA 020451Z 17008KT 10SM FEW250 24/18 A2990 RMK AO2 SLP125 T02440183 403170239
LGA,2013-06-02T05:51:00Z,73.94,64.04,71.22,170.00,7,0,29.89,1012.20,10,M,FEW,M,M,M,25000.00,M,M,M,M,KLGA 020551Z 17007KT 10SM FEW250 23/18 A2989 RMK AO2 SLP122 T02330178 10278 20233 58009
LGA,2013-06-02T06:51:00Z,75.02,64.04,68.69,190.00,8,0,29.87,1011.50,10,M,CLR,M,M,M,M,M,M,M,M,KLGA 020651Z 19008KT 10SM CLR 24/18 A2987 RMK AO2 SLP115 T02390178
LGA,2013-06-02T07:51:00Z,73.04,62.96,70.68,190.00,10,0,29.87,1011.50,10,M,CLR,M,M,M,M,M,M,M,M,KLGA 020751Z 19010KT 10SM CLR 23/17 A2987 RMK AO2 SLP115 T02280172
LGA,2013-06-02T08:51:00Z,71.96,62.96,73.3,180.00,8,0,29.87,1011.50,10,M,FEW,M,M,M,25000.00,M,M,M,M,KLGA 020851Z 18008KT 10SM FEW250 22/17 A2987 RMK AO2 SLP115 T02220172 56007
LGA,2013-06-02T09:51:00Z,69.98,62.06,75.96,170.00,7,0,29.86,1011.30,10,M,FEW,M,M,M,25000.00,M,M,M,M,KLGA 020951Z 17007KT 10SM FEW250 21/17 A2986 RMK AO2 SLP113 T02110167
LGA,2013-06-02T10:51:00Z,73.94,64.04,71.22,180.00,8,0,29.86,1011.20,10,M,FEW,SCT,SCT,M,2300.00,8000.00,25000.00,M,M,KLGA 021051Z 18008KT 10SM FEW023 SCT080 SCT250 23/18 A2986 RMK AO2 SLP112 T02330178
LGA,2013-06-02T11:51:00Z,75.92,64.04,66.65,190.00,9,0,29.86,1011.30,10,M,FEW,SCT,SCT,M,2600.00,8000.00,25000.00,M,M,KLGA 021151Z 19009KT 10SM FEW026 SCT080 SCT250 24/18 A2986 RMK AO2 SLP113 T02440178 10244 20211 55002
LGA,2013-06-02T12:51:00Z,80.06,64.04,58.14,200.00,12,0,29.85,1010.80,10,M,FEW,SCT,M,M,3300.00,8000.00,M,M,M,KLGA 021251Z 20012KT 10SM FEW033 SCT080 27/18 A2985 RMK AO2 SLP108 T02670178
LGA,2013-06-02T13:51:00Z,82.04,64.04,54.5,200.00,13,0,29.83,1010.20,10,18.00,FEW,SCT,M,M,4000.00,8000.00,M,M,M,KLGA 021351Z 20013G18KT 10SM FEW040 SCT080 28/18 A2983 RMK AO2 SLP102 T02780178
LGA,2013-06-02T14:51:00Z,84.92,64.94,51.25,200.00,13,0,29.83,1010.10,10,16.00,FEW,SCT,M,M,4200.00,8000.00,M,M,M,KLGA 021451Z 20013G16KT 10SM FEW042 SCT080 29/18 A2983 RMK AO2 SLP101 T02940183 56012
LGA,2013-06-02T15:51:00Z,86,64.04,47.97,180.00,12,0,29.83,1010.10,10,20.00,FEW,SCT,SCT,M,4000.00,5000.00,15000.00,M,M,KLGA 021551Z 18012G20KT 10SM FEW040 SCT050 SCT150 30/18 A2983 RMK AO2 SLP101 T03000178
LGA,2013-06-02T16:51:00Z,87.08,64.04,46.35,210.00,7,0,29.82,1009.80,10,17.00,FEW,SCT,SCT,SCT,4400.00,5500.00,19000.00,25000.00,M,KLGA 021651Z 21007G17KT 10SM FEW044 SCT055 SCT190 SCT250 31/18 A2982 RMK AO2 SLP098 T03060178
LGA,2013-06-02T17:51:00Z,87.08,64.04,46.35,170.00,12,0,29.81,1009.40,10,17.00,FEW,SCT,SCT,M,4800.00,20000.00,25000.00,M,M,KLGA 021751Z 17012G17KT 10SM FEW048 SCT200 SCT250 31/18 A2981 RMK AO2 SLP094 T03060178 10311 20244 58007
LGA,2013-06-02T18:51:00Z,86,64.04,47.97,170.00,14,0,29.79,1008.80,10,M,SCT,SCT,M,M,4800.00,25000.00,M,M,M,KLGA 021851Z 17014KT 10SM SCT048 SCT250 30/18 A2979 RMK AO2 SLP088 T03000178
LGA,2013-06-02T19:51:00Z,84.02,62.96,49.22,160.00,11,0,29.78,1008.50,10,M,SCT,BKN,BKN,M,9500.00,15000.00,25000.00,M,M,KLGA 021951Z 16011KT 10SM SCT095 BKN150 BKN250 29/17 A2978 RMK AO2 SLP085 T02890172
LGA,2013-06-02T20:51:00Z,84.02,62.96,49.22,170.00,11,0,29.77,1008.10,10,M,SCT,BKN,BKN,M,9500.00,15000.00,25000.00,M,M,KLGA 022051Z 17011KT 10SM SCT095 BKN150 BKN250 29/17 A2977 RMK AO2 SLP081 T02890172 56013
LGA,2013-06-02T21:51:00Z,82.04,62.96,52.47,180.00,10,0,29.77,1008.10,10,M,FEW,SCT,BKN,M,5500.00,15000.00,25000.00,M,M,KLGA 022151Z 18010KT 10SM FEW055 SCT150 BKN250 28/17 A2977 RMK AO2 SLP081 T02780172
LGA,2013-06-02T22:51:00Z,86,60.08,41.71,230.00,16,0,29.78,1008.30,10,21.00,FEW,SCT,OVC,M,5500.00,15000.00,25000.00,M,M,KLGA 022251Z 23016G21KT 10SM FEW055 SCT150 OVC250 30/16 A2978 RMK AO2 SLP083 T03000156
LGA,2013-06-02T23:51:00Z,84.02,64.04,51.12,200.00,9,0,29.79,1008.70,10,16.00,SCT,SCT,OVC,M,7500.00,15000.00,25000.00,M,M,KLGA 022351Z 20009G16KT 10SM SCT075 SCT150 OVC250 29/18 A2979 RMK AO2 SLP087 T02890178 10317 20272 53006
LGA,2013-06-03T00:51:00Z,78.98,64.94,62.16,160.00,8,0,29.81,1009.30,10,M,SCT,OVC,M,M,12000.00,25000.00,M,M,M,KLGA 030051Z 16008KT 10SM SCT120 OVC250 26/18 A2981 RMK AO2 SLP093 T02610183
LGA,2013-06-03T01:51:00Z,78.08,62.96,59.74,200.00,8,0,29.81,1009.50,10,M,SCT,SCT,BKN,BKN,7500.00,8500.00,10000.00,25000.00,M,KLGA 030151Z 20008KT 10SM SCT075 SCT085 BKN100 BKN250 26/17 A2981 RMK AO2 SLP095 T02560172
LGA,2013-06-03T02:47:00Z,78.8,64.4,61.36,190.00,10,0,29.82,M,8,M,SCT,BKN,BKN,M,4000.00,7500.00,12000.00,M,-TSRA,KLGA 030247Z 19010KT 8SM -TSRA SCT040CB BKN075 BKN120 26/18 A2982 RMK AO2 TSB47RAB39 OCNL LTGICCC SW-W TS SW-W MOV NE P0000
LGA,2013-06-03T02:51:00Z,78.08,66.02,66.48,190.00,11,0,29.82,1009.80,8,M,SCT,BKN,BKN,M,4000.00,7500.00,12000.00,M,-TSRA,KLGA 030251Z 19011KT 8SM -TSRA SCT040CB BKN075 BKN120 26/19 A2982 RMK AO2 TSB47RAB39 SLP098 OCNL LTGICCC SW-W-OHD TS SW-W-OHD MOV NE P0000 60000 T02560189 51010
LGA,2013-06-03T03:51:00Z,73.04,66.02,78.65,240.00,13,0.04,29.83,1010.00,5,23.00,SCT,BKN,OVC,M,2800.00,6500.00,11000.00,M,+TSRA,KLGA 030351Z 24013G23KT 5SM +TSRA SCT028CB BKN065 OVC110 23/19 A2983 RMK AO2 SLP100 CONS LTGICCCCG OHD TS OHD MOV NE P0004 T02280189
LGA,2013-06-03T04:44:00Z,73.4,66.2,78.19,210.00,9,0,29.81,M,10,M,FEW,SCT,BKN,OVC,2500.00,6500.00,11000.00,25000.00,-RA,KLGA 030444Z 21009KT 10SM -RA FEW025 SCT065 BKN110 OVC250 23/19 A2981
LGA,2013-06-03T04:51:00Z,73.04,66.02,78.65,210.00,8,0.07,29.81,1009.40,10,M,FEW,SCT,BKN,OVC,2500.00,6500.00,11000.00,25000.00,-RA,KLGA 030451Z 21008KT 10SM -RA FEW025 SCT065 BKN110 OVC250 23/19 A2981 RMK AO2 TSE43 SLP094 OCNL LTGICCCCG DSNT NE CB DSNT NE MOV NE P0007 T02280189 403170211
LGA,2013-06-03T05:51:00Z,73.94,66.02,76.31,220.00,9,0,29.82,1009.80,10,M,FEW,SCT,BKN,M,2500.00,12000.00,20000.00,M,-RA,KLGA 030551Z 22009KT 10SM -RA FEW025 SCT120 BKN200 23/19 A2982 RMK AO2 RAE0452B49 SLP098 P0000 60011 T02330189 10289 20222 53001
LGA,2013-06-03T06:51:00Z,71.96,66.02,81.57,220.00,11,0,29.83,1010.00,10,18.00,BKN,M,M,M,11000.00,M,M,M,-RA,KLGA 030651Z 22011G18KT 10SM -RA BKN110 22/19 A2983 RMK AO2 SLP100 P0000 T02220189
LGA,2013-06-03T07:51:00Z,71.96,66.92,84.16,230.00,8,0.02,29.82,1009.60,10,M,BKN,BKN,M,M,9000.00,11000.00,M,M,-RA,KLGA 030751Z 23008KT 10SM -RA BKN090 BKN110 22/19 A2982 RMK AO2 SLP096 P0002 T02220194
LGA,2013-06-03T08:51:00Z,71.96,66.92,84.16,240.00,5,0.01,29.8,1009.00,10,M,FEW,BKN,M,M,3500.00,12000.00,M,M,-RA,KLGA 030851Z 24005KT 10SM -RA FEW035 BKN120 22/19 A2980 RMK AO2 SLP090 P0001 60003 T02220194 58008
LGA,2013-06-03T09:51:00Z,71.96,66.92,84.16,200.00,7,0,29.81,1009.60,10,M,FEW,BKN,M,M,2500.00,12000.00,M,M,-RA,KLGA 030951Z 20007KT 10SM -RA FEW025 BKN120 22/19 A2981 RMK AO2 RAE00B28 SLP096 P0000 T02220194
LGA,2013-06-03T10:14:00Z,71.6,66.2,83.09,200.00,9,0,29.83,M,10,M,SCT,BKN,OVC,M,800.00,1000.00,5000.00,M,M,KLGA 031014Z 20009KT 10SM SCT008 BKN010 OVC050 22/19 A2983
LGA,2013-06-03T10:51:00Z,69.98,66.02,87.26,200.00,8,0,29.83,1010.10,10,M,FEW,BKN,BKN,OVC,800.00,1800.00,4700.00,14000.00,-RA,KLGA 031051Z 20008KT 10SM -RA FEW008 BKN018 BKN047 OVC140 21/19 A2983 RMK AO2 SLP101 P0000 T02110189
LGA,2013-06-03T11:51:00Z,71.06,66.02,84.1,210.00,9,0,29.83,1010.00,9,M,BKN,BKN,OVC,M,1300.00,2000.00,5000.00,M,-RA,KLGA 031151Z 21009KT 9SM -RA BKN013 BKN020 OVC050 22/19 A2983 RMK AO2 RAE1053B30 SLP100 P0000 60003 70014 T02170189 10233 20211 50010
LGA,2013-06-03T11:55:00Z,71.6,66.2,83.09,200.00,9,0,29.83,M,2.5,M,BKN,BKN,OVC,M,1200.00,2200.00,5000.00,M,-RA,KLGA 031155Z 20009KT 2 1/2SM -RA BKN012 BKN022 OVC050 22/19 A2983 RMK AO2 SFC VIS 4 P0000
LGA,2013-06-03T12:03:00Z,69.8,66.2,88.34,200.00,7,0.03,29.83,M,1.25,M,FEW,BKN,OVC,M,700.00,1200.00,5000.00,M,+RA BR,KLGA 031203Z 20007KT 1 1/4SM R04/4500VP6000FT +RA BR FEW007 BKN012 OVC050 21/19 A2983 RMK AO2 SFC VIS 2 P0003
LGA,2013-06-03T12:15:00Z,69.8,66.2,88.34,210.00,8,0.05,29.83,M,7,M,BKN,BKN,OVC,M,1200.00,2700.00,3800.00,M,-RA,KLGA 031215Z 21008KT 7SM -RA BKN012 BKN027 OVC038 21/19 A2983 RMK AO2 P0005
LGA,2013-06-03T12:51:00Z,71.06,66.92,86.77,200.00,10,0.06,29.84,1010.50,8,M,BKN,BKN,OVC,M,1200.00,2700.00,3800.00,M,-RA,KLGA 031251Z 20010KT 8SM -RA BKN012 BKN027 OVC038 22/19 A2984 RMK AO2 SLP105 P0006 T02170194
LGA,2013-06-03T13:06:00Z,71.6,66.2,83.09,220.00,9,0.05,29.84,M,2,M,BKN,BKN,OVC,M,1200.00,2100.00,2700.00,M,+RA BR,KLGA 031306Z 22009KT 2SM R04/6000VP6000FT +RA BR BKN012 BKN021 OVC027 22/19 A2984 RMK AO2 P0005
LGA,2013-06-03T13:07:00Z,71.6,66.2,83.09,220.00,10,0.06,29.84,M,1.5,M,BKN,BKN,OVC,M,1200.00,2100.00,2900.00,M,+RA BR,KLGA 031307Z 22010KT 1 1/2SM R04/6000VP6000FT +RA BR BKN012 BKN021 OVC029 22/19 A2984 RMK AO2 SFC VIS 2 1/2 P0006
LGA,2013-06-03T13:37:00Z,69.8,66.2,88.34,240.00,6,0.18,29.83,M,4,M,FEW,SCT,OVC,M,1200.00,2500.00,4800.00,M,RA BR,KLGA 031337Z 24006KT 4SM RA BR FEW012 SCT025 OVC048 21/19 A2983 RMK AO2 P0018
LGA,2013-06-03T13:48:00Z,69.8,66.2,88.34,220.00,8,0.2,29.84,M,4,M,SCT,BKN,OVC,M,1300.00,2400.00,9500.00,M,RA BR,KLGA 031348Z 22008KT 4SM RA BR SCT013 BKN024 OVC095 21/19 A2984 RMK AO2 P0020
LGA,2013-06-03T13:51:00Z,69.98,66.92,90.02,240.00,8,0.21,29.84,1010.50,4,M,SCT,BKN,OVC,M,1300.00,2400.00,9500.00,M,RA BR,KLGA 031351Z 24008KT 4SM RA BR SCT013 BKN024 OVC095 21/19 A2984 RMK AO2 SLP105 P0021 T02110194
LGA,2013-06-03T14:07:00Z,69.8,66.2,88.34,220.00,4,0,29.84,M,7,M,FEW,BKN,BKN,OVC,900.00,1600.00,7500.00,14000.00,-RA,KLGA 031407Z 22004KT 7SM -RA FEW009 BKN016 BKN075 OVC140 21/19 A2984
LGA,2013-06-03T14:29:00Z,71.6,66.2,83.09,0.00,0,0.02,29.83,M,10,M,FEW,BKN,BKN,BKN,1200.00,3300.00,7500.00,14000.00,M,KLGA 031429Z 00000KT 10SM FEW012 BKN033 BKN075 BKN140 22/19 A2983 RMK AO2 RAE24 P0002
LGA,2013-06-03T14:48:00Z,71.6,66.2,83.09,360.00,6,0.02,29.84,M,10,M,FEW,BKN,OVC,M,800.00,1000.00,7000.00,M,M,KLGA 031448Z 36006KT 10SM FEW008 BKN010 OVC070 22/19 A2984 RMK AO2 RAE24 P0002
LGA,2013-06-03T14:51:00Z,71.06,66.02,84.1,360.00,5,0.02,29.84,1010.50,10,M,FEW,BKN,OVC,M,800.00,1000.00,7000.00,M,M,KLGA 031451Z 36005KT 10SM FEW008 BKN010 OVC070 22/19 A2984 RMK AO2 RAE24 SLP105 P0002 60029 T02170189 55000
LGA,2013-06-03T15:27:00Z,73.4,66.2,78.19,40.00,7,0,29.84,M,10,M,SCT,BKN,OVC,M,1000.00,1500.00,7000.00,M,M,KLGA 031527Z 04007KT 10SM SCT010 BKN015 OVC070 23/19 A2984 RMK AO2
LGA,2013-06-03T15:51:00Z,73.04,66.02,78.65,50.00,7,0,29.85,1010.70,10,M,FEW,BKN,BKN,BKN,1700.00,2600.00,4500.00,13000.00,M,KLGA 031551Z 05007KT 10SM FEW017 BKN026 BKN045 BKN130 23/19 A2985 RMK AO2 SLP107 T02280189
LGA,2013-06-03T16:33:00Z,73.4,64.4,73.44,60.00,8,0,29.84,M,10,M,FEW,SCT,BKN,M,1700.00,2900.00,4500.00,M,M,KLGA 031633Z 06008KT 10SM FEW017 SCT029 BKN045 23/18 A2984 RMK AO2
LGA,2013-06-03T16:51:00Z,73.94,64.94,73.49,60.00,8,0,29.83,1010.20,10,M,FEW,SCT,BKN,M,2700.00,4500.00,16000.00,M,M,KLGA 031651Z 06008KT 10SM FEW027 SCT045 BKN160 23/18 A2983 RMK AO2 SLP102 T02330183
LGA,2013-06-03T17:51:00Z,75.92,62.96,64.17,70.00,8,0,29.82,1009.90,10,M,FEW,SCT,BKN,BKN,3000.00,4500.00,16000.00,25000.00,M,KLGA 031751Z 07008KT 10SM FEW030 SCT045 BKN160 BKN250 24/17 A2982 RMK AO2 SLP099 60029 T02440172 10244 20211 58006
LGA,2013-06-03T18:51:00Z,77,62.06,59.98,M,5,0,29.82,1009.70,10,M,FEW,SCT,BKN,BKN,3000.00,4500.00,16000.00,25000.00,M,KLGA 031851Z VRB05KT 10SM FEW030 SCT045 BKN160 BKN250 25/17 A2982 RMK AO2 SLP097 T02500167
LGA,2013-06-03T19:51:00Z,77,64.04,64.3,M,6,0,29.81,1009.50,10,M,SCT,BKN,BKN,M,4500.00,10000.00,25000.00,M,M,KLGA 031951Z VRB06KT 10SM SCT045 BKN100 BKN250 25/18 A2981 RMK AO2 SLP095 T02500178
LGA,2013-06-03T20:51:00Z,77,64.94,66.36,M,5,0,29.8,1009.10,10,M,BKN,BKN,BKN,M,5500.00,13000.00,25000.00,M,M,KLGA 032051Z VRB05KT 10SM BKN055 BKN130 BKN250 25/18 A2980 RMK AO2 SLP091 T02500183 58008
LGA,2013-06-03T21:39:00Z,73.4,64.4,73.44,M,3,0.03,29.81,M,2,M,SCT,BKN,OVC,M,2000.00,4200.00,5000.00,M,+RA,KLGA 032139Z VRB03KT 2SM R04/5000VP6000FT +RA SCT020 BKN042 OVC050 23/18 A2981 RMK AO2 RAB32 P0003
LGA,2013-06-03T21:41:00Z,71.6,66.2,83.09,M,5,0.05,29.81,M,1,M,SCT,BKN,OVC,M,1800.00,3100.00,5000.00,M,+RA,KLGA 032141Z VRB05KT 1SM R04/3500VP6000FT +RA SCT018 BKN031 OVC050 22/19 A2981 RMK AO2 RAB32 P0005
LGA,2013-06-03T21:43:00Z,71.6,66.2,83.09,260.00,7,0.09,29.82,M,0.75,M,SCT,BKN,OVC,M,1400.00,2100.00,4500.00,M,+RA,KLGA 032143Z 26007KT 190V310 3/4SM R04/2400VP6000FT +RA SCT014 BKN021 OVC045 22/19 A2982 RMK AO2 RAB32 P0009
LGA,2013-06-03T21:46:00Z,71.6,66.2,83.09,210.00,8,0.21,29.81,M,0.5,M,BKN,BKN,OVC,M,1400.00,2100.00,4800.00,M,+RA FG,KLGA 032146Z 21008KT 1/2SM R04/2000VP6000FT +RA FG BKN014 BKN021 OVC048 22/19 A2981 RMK AO2 RAB32 P0021
LGA,2013-06-03T21:51:00Z,69.98,66.02,87.26,200.00,5,0.45,29.81,1009.30,0.25,M,BKN,BKN,OVC,M,1600.00,2100.00,4200.00,M,+RA FG,KLGA 032151Z 20005KT 1/4SM R04/1800V4000FT +RA FG BKN016 BKN021 OVC042 21/19 A2981 RMK AO2 RAB32 SLP093 P0045 T02110189
LGA,2013-06-03T21:56:00Z,69.8,64.4,82.98,150.00,4,0.13,29.8,M,0.75,M,FEW,BKN,OVC,M,1600.00,2100.00,6000.00,M,+RA,KLGA 032156Z 15004KT 3/4SM R04/1800VP6000FT +RA FEW016 BKN021 OVC060 21/18 A2980 RMK AO2 P0013
LGA,2013-06-03T21:59:00Z,69.8,64.4,82.98,150.00,4,0.14,29.8,M,1.25,M,FEW,BKN,OVC,M,1600.00,4200.00,6500.00,M,+RA,KLGA 032159Z 15004KT 1 1/4SM R04/2800VP6000FT +RA FEW016 BKN042 OVC065 21/18 A2980 RMK AO2 CIG 033 R22 SW P0014
LGA,2013-06-03T22:01:00Z,71.6,64.4,78.04,160.00,4,0.15,29.8,M,2.5,M,FEW,BKN,OVC,M,1600.00,4200.00,6500.00,M,+RA,KLGA 032201Z 16004KT 2 1/2SM R04/6000VP6000FT +RA FEW016 BKN042 OVC065 22/18 A2980 RMK AO2 P0015
LGA,2013-06-03T22:08:00Z,71.6,66.2,83.09,170.00,6,0.16,29.8,M,4,M,FEW,SCT,OVC,M,1400.00,2600.00,6000.00,M,RA,KLGA 032208Z 17006KT 4SM RA FEW014 SCT026 OVC060 22/19 A2980 RMK AO2 CIG 045 R22 SW P0016
LGA,2013-06-03T22:51:00Z,71.96,66.02,81.57,180.00,6,0.19,29.81,1009.40,10,M,FEW,SCT,OVC,M,4100.00,6000.00,7500.00,M,M,KLGA 032251Z 18006KT 10SM FEW041 SCT060 OVC075 22/19 A2981 RMK AO2 RAE32 SLP094 P0019 T02220189
LGA,2013-06-03T23:51:00Z,71.96,64.94,78.57,230.00,3,0,29.82,1009.70,10,M,SCT,BKN,BKN,M,4000.00,10000.00,25000.00,M,M,KLGA 032351Z 23003KT 10SM SCT040 BKN100 BKN250 22/18 A2982 RMK AO2 SLP097 60064 T02220183 10256 20211 53006
LGA,2013-06-04T00:51:00Z,71.96,62.96,73.3,0.00,0,0,29.82,1009.90,10,M,FEW,BKN,BKN,M,4000.00,10000.00,25000.00,M,M,KLGA 040051Z 00000KT 10SM FEW040 BKN100 BKN250 22/17 A2982 RMK AO2 SLP099 T02220172
LGA,2013-06-04T01:51:00Z,73.04,57.02,57.2,340.00,8,0,29.84,1010.50,10,M,FEW,BKN,M,M,3900.00,10000.00,M,M,M,KLGA 040151Z 34008KT 10SM FEW039 BKN100 23/14 A2984 RMK AO2 SLP105 T02280139
LGA,2013-06-04T02:51:00Z,71.06,53.06,52.95,340.00,7,0,29.86,1011.00,10,M,SCT,BKN,BKN,M,4400.00,7500.00,10000.00,M,M,KLGA 040251Z 34007KT 10SM SCT044 BKN075 BKN100 22/12 A2986 RMK AO2 SLP110 T02170117 53013
LGA,2013-06-04T03:51:00Z,69.98,46.94,43.75,330.00,10,0,29.87,1011.60,10,M,BKN,BKN,M,M,5500.00,10000.00,M,M,M,KLGA 040351Z 33010KT 10SM BKN055 BKN100 21/08 A2987 RMK AO2 SLP116 T02110083
LGA,2013-06-04T04:51:00Z,68,46.04,45.26,350.00,9,0,29.9,1012.50,10,M,BKN,BKN,M,M,5500.00,7000.00,M,M,M,KLGA 040451Z 35009KT 10SM BKN055 BKN070 20/08 A2990 RMK AO2 SLP125 T02000078 402560200
LGA,2013-06-04T05:51:00Z,66.02,42.08,41.67,350.00,10,0,29.91,1012.80,10,M,SCT,BKN,BKN,M,5500.00,7000.00,9000.00,M,M,KLGA 040551Z 35010KT 10SM SCT055 BKN070 BKN090 19/06 A2991 RMK AO2 SLP128 T01890056 10228 20189 51018
LGA,2013-06-04T06:51:00Z,64.04,42.98,46.22,340.00,11,0,29.92,1013.10,10,20.00,SCT,M,M,M,5000.00,M,M,M,M,KLGA 040651Z 34011G20KT 10SM SCT050 18/06 A2992 RMK AO2 SLP131 T01780061
LGA,2013-06-04T07:51:00Z,62.06,39.92,44.02,340.00,10,0,29.92,1013.30,10,M,SCT,M,M,M,7500.00,M,M,M,M,KLGA 040751Z 34010KT 10SM SCT075 17/04 A2992 RMK AO2 SLP133 T01670044
LGA,2013-06-04T08:51:00Z,60.98,41,47.7,330.00,9,0,29.94,1013.90,10,M,SCT,M,M,M,6000.00,M,M,M,M,KLGA 040851Z 33009KT 10SM SCT060 16/05 A2994 RMK AO2 SLP139 T01610050 53010
LGA,2013-06-04T09:51:00Z,59,41,51.18,340.00,14,0,29.96,1014.60,10,21.00,FEW,M,M,M,6000.00,M,M,M,M,KLGA 040951Z 34014G21KT 10SM FEW060 15/05 A2996 RMK AO2 SLP146 T01500050
LGA,2013-06-04T10:51:00Z,59,41,51.18,340.00,9,0,29.98,1015.30,10,16.00,CLR,M,M,M,M,M,M,M,M,KLGA 041051Z 34009G16KT 10SM CLR 15/05 A2998 RMK AO2 SLP153 T01500050
LGA,2013-06-04T11:51:00Z,60.08,39.92,47.22,320.00,14,0,30,1015.80,10,21.00,CLR,M,M,M,M,M,M,M,M,KLGA 041151Z 32014G21KT 10SM CLR 16/04 A3000 RMK AO2 SLP158 70093 T01560044 10189 20150 51019
LGA,2013-06-04T12:51:00Z,60.98,41,47.7,320.00,13,0,30.01,1016.10,10,M,CLR,M,M,M,M,M,M,M,M,KLGA 041251Z 32013KT 10SM CLR 16/05 A3001 RMK AO2 SLP161 T01610050
LGA,2013-06-04T13:51:00Z,62.96,41,44.47,330.00,9,0,30.03,1016.80,10,M,CLR,M,M,M,M,M,M,M,M,KLGA 041351Z 33009KT 10SM CLR 17/05 A3003 RMK AO2 SLP168 T01720050
LGA,2013-06-04T14:51:00Z,64.04,41,42.82,310.00,8,0,30.03,1016.90,10,M,FEW,M,M,M,5500.00,M,M,M,M,KLGA 041451Z 31008KT 10SM FEW055 18/05 A3003 RMK AO2 SLP169 T01780050 51012
LGA,2013-06-04T15:51:00Z,66.92,42.08,40.39,310.00,9,0,30.03,1016.90,10,M,FEW,M,M,M,5500.00,M,M,M,M,KLGA 041551Z 31009KT 10SM FEW055 19/06 A3003 RMK AO2 SLP169 T01940056
LGA,2013-06-04T16:51:00Z,69.08,41,35.96,310.00,12,0,30.03,1016.80,10,M,FEW,M,M,M,6000.00,M,M,M,M,KLGA 041651Z 31012KT 10SM FEW060 21/05 A3003 RMK AO2 SLP168 T02060050
LGA,2013-06-04T17:51:00Z,69.98,39.92,33.44,340.00,10,0,30.01,1016.20,10,19.00,FEW,M,M,M,6000.00,M,M,M,M,KLGA 041751Z 34010G19KT 10SM FEW060 21/04 A3001 RMK AO2 SLP162 T02110044 10217 20156 58007
LGA,2013-06-04T18:51:00Z,73.04,41,31.43,320.00,15,0,30,1015.80,10,21.00,FEW,M,M,M,6000.00,M,M,M,M,KLGA 041851Z 32015G21KT 10SM FEW060 23/05 A3000 RMK AO2 SLP158 T02280050
LGA,2013-06-04T19:51:00Z,73.94,39.02,28.24,320.00,9,0,29.99,1015.70,10,20.00,FEW,M,M,M,7000.00,M,M,M,M,KLGA 041951Z 32009G20KT 10SM FEW070 23/04 A2999 RMK AO2 SLP157 T02330039
LGA,2013-06-04T20:51:00Z,75.02,39.92,28.2,320.00,8,0,29.99,1015.60,10,M,FEW,M,M,M,7000.00,M,M,M,M,KLGA 042051Z 32008KT 10SM FEW070 24/04 A2999 RMK AO2 SLP156 T02390044 56006
LGA,2013-06-04T21:51:00Z,75.02,37.04,25.2,300.00,12,0,29.99,1015.50,10,18.00,FEW,M,M,M,25000.00,M,M,M,M,KLGA 042151Z 30012G18KT 10SM FEW250 24/03 A2999 RMK AO2 SLP155 T02390028
LGA,2013-06-04T22:51:00Z,75.02,37.94,26.1,330.00,8,0,30,1015.90,10,M,FEW,M,M,M,25000.00,M,M,M,M,KLGA 042251Z 33008KT 10SM FEW250 24/03 A3000 RMK AO2 SLP159 T02390033
LGA,2013-06-04T23:51:00Z,73.04,39.92,30.14,330.00,10,0,30.03,1016.70,10,M,BKN,M,M,M,25000.00,M,M,M,M,KLGA 042351Z 33010KT 10SM BKN250 23/04 A3003 RMK AO2 SLP167 T02280044 10244 20211 53012
LGA,2013-06-05T00:51:00Z,71.96,39.92,31.26,320.00,11,0,30.05,1017.40,10,M,BKN,M,M,M,25000.00,M,M,M,M,KLGA 050051Z 32011KT 10SM BKN250 22/04 A3005 RMK AO2 SLP174 T02220044
LGA,2013-06-05T01:51:00Z,71.06,41,33.61,320.00,10,0,30.08,1018.70,10,M,FEW,M,M,M,25000.00,M,M,M,M,KLGA 050151Z 32010KT 10SM FEW250 22/05 A3008 RMK AO2 SLP187 T02170050
LGA,2013-06-05T02:51:00Z,69.08,39.02,33.3,320.00,10,0,30.09,1019.00,10,M,FEW,M,M,M,25000.00,M,M,M,M,KLGA 050251Z 32010KT 10SM FEW250 21/04 A3009 RMK AO2 SLP190 T02060039 51022
LGA,2013-06-05T03:51:00Z,66.92,37.04,33.19,320.00,12,0,30.1,1019.30,10,M,SCT,M,M,M,25000.00,M,M,M,M,KLGA 050351Z 32012KT 10SM SCT250 19/03 A3010 RMK AO2 SLP193 T01940028
LGA,2013-06-05T04:51:00Z,66.02,39.02,37,320.00,10,0,30.11,1019.50,10,M,BKN,M,M,M,25000.00,M,M,M,M,KLGA 050451Z 32010KT 10SM BKN250 19/04 A3011 RMK AO2 SLP195 T01890039 402440150
LGA,2013-06-05T05:51:00Z,64.04,37.04,36.68,350.00,3,0,30.11,1019.50,10,M,BKN,M,M,M,25000.00,M,M,M,M,KLGA 050551Z 35003KT 10SM BKN250 18/03 A3011 RMK AO2 SLP195 T01780028 10228 20178 51005
LGA,2013-06-05T06:51:00Z,62.06,42.98,49.55,20.00,5,0,30.11,1019.60,10,M,SCT,M,M,M,25000.00,M,M,M,M,KLGA 050651Z 02005KT 10SM SCT250 17/06 A3011 RMK AO2 SLP196 T01670061
LGA,2013-06-05T07:51:00Z,62.06,37.04,39.33,40.00,3,0,30.13,1020.10,10,M,FEW,M,M,M,25000.00,M,M,M,M,KLGA 050751Z 04003KT 10SM FEW250 17/03 A3013 RMK AO2 SLP201 T01670028
LGA,2013-06-05T08:51:00Z,60.08,39.92,47.22,50.00,5,0,30.13,1020.30,10,M,SCT,M,M,M,25000.00,M,M,M,M,KLGA 050851Z 05005KT 10SM SCT250 16/04 A3013 RMK AO2 SLP203 T01560044 53008
LGA,2013-06-05T09:51:00Z,59,41,51.18,0.00,0,0,30.15,1021.00,10,M,BKN,M,M,M,25000.00,M,M,M,M,KLGA 050951Z 00000KT 10SM BKN250 15/05 A3015 RMK AO2 SLP210 T01500050
LGA,2013-06-05T10:51:00Z,60.98,39.92,45.74,40.00,6,0,30.18,1021.90,10,M,BKN,M,M,M,25000.00,M,M,M,M,KLGA 051051Z 04006KT 10SM BKN250 16/04 A3018 RMK AO2 SLP219 T01610044
LGA,2013-06-05T11:51:00Z,62.06,42.08,47.86,40.00,5,0,30.2,1022.60,10,M,BKN,M,M,M,25000.00,M,M,M,M,KLGA 051151Z 04005KT 10SM BKN250 17/06 A3020 RMK AO2 SLP226 T01670056 10183 20150 52023
LGA,2013-06-05T12:51:00Z,62.96,42.98,48,40.00,6,0,30.2,1022.80,10,M,BKN,M,M,M,25000.00,M,M,M,M,KLGA 051251Z 04006KT 10SM BKN250 17/06 A3020 RMK AO2 SLP228 T01720061
LGA,2013-06-05T13:51:00Z,64.94,46.04,50.32,40.00,4,0,30.21,1022.90,10,M,BKN,M,M,M,25000.00,M,M,M,M,KLGA 051351Z 04004KT 10SM BKN250 18/08 A3021 RMK AO2 SLP229 T01830078
LGA,2013-06-05T14:51:00Z,68,46.94,46.83,40.00,6,0,30.2,1022.70,10,M,FEW,BKN,M,M,5500.00,25000.00,M,M,M,KLGA 051451Z 04006KT 10SM FEW055 BKN250 20/08 A3020 RMK AO2 SLP227 T02000083 50001
LGA,2013-06-05T15:51:00Z,68,48.02,48.77,50.00,8,0,30.18,1022.00,10,M,FEW,BKN,M,M,6000.00,25000.00,M,M,M,KLGA 051551Z 05008KT 10SM FEW060 BKN250 20/09 A3018 RMK AO2 SLP220 T02000089
LGA,2013-06-05T16:51:00Z,71.06,48.02,43.92,40.00,8,0,30.17,1021.50,10,M,FEW,BKN,M,M,6000.00,25000.00,M,M,M,KLGA 051651Z 04008KT 10SM FEW060 BKN250 22/09 A3017 RMK AO2 SLP215 T02170089
LGA,2013-06-05T17:51:00Z,71.96,42.98,35.19,80.00,9,0,30.15,1021.00,10,15.00,FEW,BKN,M,M,6000.00,25000.00,M,M,M,KLGA 051751Z 08009G15KT 10SM FEW060 BKN250 22/06 A3015 RMK AO2 SLP210 T02220061 10228 20167 56017
LGA,2013-06-05T18:51:00Z,71.96,41,32.6,140.00,7,0,30.13,1020.40,10,14.00,FEW,BKN,M,M,6000.00,25000.00,M,M,M,KLGA 051851Z 14007G14KT 10SM FEW060 BKN250 22/05 A3013 RMK AO2 SLP204 T02220050
LGA,2013-06-05T19:51:00Z,71.96,41,32.6,140.00,8,0,30.13,1020.20,10,17.00,FEW,SCT,M,M,6000.00,25000.00,M,M,M,KLGA 051951Z 14008G17KT 10SM FEW060 SCT250 22/05 A3013 RMK AO2 SLP202 T02220050
LGA,2013-06-05T20:51:00Z,71.96,39.92,31.26,150.00,10,0,30.14,1020.60,10,M,FEW,SCT,BKN,M,6000.00,16000.00,25000.00,M,M,KLGA 052051Z 15010KT 10SM FEW060 SCT160 BKN250 22/04 A3014 RMK AO2 SLP206 T02220044 55004
LGA,2013-06-05T21:51:00Z,71.06,39.92,32.23,150.00,10,0,30.14,1020.50,10,M,FEW,SCT,BKN,M,6000.00,16000.00,25000.00,M,M,KLGA 052151Z 15010KT 10SM FEW060 SCT160 BKN250 22/04 A3014 RMK AO2 SLP205 T02170044
LGA,2013-06-05T22:51:00Z,69.08,41,35.96,170.00,7,0,30.14,1020.50,10,M,FEW,SCT,BKN,M,6000.00,16000.00,25000.00,M,M,KLGA 052251Z 17007KT 10SM FEW060 SCT160 BKN250 21/05 A3014 RMK AO2 SLP205 T02060050
LGA,2013-06-05T23:51:00Z,68,42.08,38.91,150.00,6,0,30.13,1020.30,10,M,FEW,BKN,M,M,15000.00,25000.00,M,M,M,KLGA 052351Z 15006KT 10SM FEW150 BKN250 20/06 A3013 RMK AO2 SLP203 T02000056 10233 20200 58003
LGA,2013-06-06T00:51:00Z,66.02,46.04,48.47,130.00,5,0,30.13,1020.30,10,M,FEW,BKN,M,M,15000.00,25000.00,M,M,M,KLGA 060051Z 13005KT 10SM FEW150 BKN250 19/08 A3013 RMK AO2 SLP203 T01890078
LGA,2013-06-06T01:51:00Z,62.96,51.08,65.14,150.00,7,0,30.14,1020.70,10,M,SCT,M,M,M,25000.00,M,M,M,M,KLGA 060151Z 15007KT 10SM SCT250 17/11 A3014 RMK AO2 SLP207 T01720106
LGA,2013-06-06T02:51:00Z,62.96,51.98,67.34,170.00,5,0,30.15,1020.90,10,M,FEW,M,M,M,25000.00,M,M,M,M,KLGA 060251Z 17005KT 10SM FEW250 17/11 A3015 RMK AO2 SLP209 T01720111 53006
LGA,2013-06-06T03:51:00Z,62.06,53.96,74.75,140.00,4,0,30.14,1020.60,10,M,FEW,M,M,M,25000.00,M,M,M,M,KLGA 060351Z 14004KT 10SM FEW250 17/12 A3014 RMK AO2 SLP206 T01670122
LGA,2013-06-06T04:51:00Z,62.06,55.04,77.75,170.00,4,0,30.14,1020.60,10,M,FEW,SCT,M,M,1000.00,25000.00,M,M,M,KLGA 060451Z 17004KT 10SM FEW010 SCT250 17/13 A3014 RMK AO2 SLP206 T01670128 402330150
LGA,2013-06-06T05:48:00Z,60.8,55.4,82.37,130.00,4,0,30.13,M,10,M,FEW,SCT,M,M,800.00,25000.00,M,M,M,KLGA 060548Z 13004KT 10SM FEW008 SCT250 16/13 A3013
LGA,2013-06-06T05:51:00Z,60.98,55.94,83.47,140.00,4,0,30.13,1020.20,10,M,FEW,SCT,M,M,800.00,25000.00,M,M,M,KLGA 060551Z 14004KT 10SM FEW008 SCT250 16/13 A3013 RMK AO2 SLP202 T01610133 10200 20161 58007
LGA,2013-06-06T06:51:00Z,60.98,55.94,83.47,110.00,4,0,30.14,1020.60,10,M,SCT,SCT,M,M,800.00,25000.00,M,M,M,KLGA 060651Z 11004KT 10SM SCT008 SCT250 16/13 A3014 RMK AO2 SLP206 T01610133
LGA,2013-06-06T07:32:00Z,60.8,55.4,82.37,140.00,3,0,30.13,M,10,M,SCT,BKN,M,M,900.00,1200.00,M,M,M,KLGA 060732Z 14003KT 10SM SCT009 BKN012 16/13 A3013 RMK AO2
LGA,2013-06-06T07:41:00Z,60.8,55.4,82.37,120.00,3,0,30.13,M,10,M,BKN,BKN,M,M,900.00,1200.00,M,M,M,KLGA 060741Z 12003KT 10SM BKN009 BKN012 16/13 A3013 RMK AO2
LGA,2013-06-06T07:51:00Z,60.98,55.94,83.47,100.00,3,0,30.13,1020.30,10,M,BKN,M,M,M,900.00,M,M,M,M,KLGA 060751Z 10003KT 10SM BKN009 16/13 A3013 RMK AO2 SLP203 T01610133
LGA,2013-06-06T08:17:00Z,60.8,55.4,82.37,100.00,3,0,30.14,M,10,M,BKN,M,M,M,1100.00,M,M,M,M,KLGA 060817Z 10003KT 10SM BKN011 16/13 A3014 RMK AO2
LGA,2013-06-06T08:34:00Z,60.8,55.4,82.37,110.00,3,0,30.14,M,10,M,SCT,M,M,M,1100.00,M,M,M,M,KLGA 060834Z 11003KT 10SM SCT011 16/13 A3014 RMK AO2
LGA,2013-06-06T08:51:00Z,60.98,55.04,80.78,90.00,4,0,30.14,1020.50,10,M,SCT,M,M,M,1300.00,M,M,M,M,KLGA 060851Z 09004KT 10SM SCT013 16/13 A3014 RMK AO2 SLP205 T01610128 51002
LGA,2013-06-06T09:51:00Z,60.08,55.04,83.41,90.00,5,0,30.13,1020.10,9,M,FEW,BKN,M,M,1300.00,22000.00,M,M,M,KLGA 060951Z 09005KT 9SM FEW013 BKN220 16/13 A3013 RMK AO2 SLP201 T01560128
LGA,2013-06-06T10:15:00Z,60.8,55.4,82.37,60.00,6,0,30.13,M,10,M,BKN,BKN,M,M,1100.00,22000.00,M,M,M,KLGA 061015Z 06006KT 10SM BKN011 BKN220 16/13 A3013 RMK AO2
LGA,2013-06-06T10:51:00Z,60.98,55.04,80.78,110.00,5,0,30.14,1020.40,10,M,BKN,BKN,M,M,1100.00,22000.00,M,M,M,KLGA 061051Z 11005KT 10SM BKN011 BKN220 16/13 A3014 RMK AO2 SLP204 T01610128
LGA,2013-06-06T11:20:00Z,60.8,55.4,82.37,130.00,6,0,30.14,M,9,M,SCT,BKN,M,M,1100.00,24000.00,M,M,M,KLGA 061120Z 13006KT 9SM SCT011 BKN240 16/13 A3014 RMK AO2
LGA,2013-06-06T11:51:00Z,62.06,53.96,74.75,130.00,6,0,30.14,1020.50,9,M,SCT,BKN,M,M,1100.00,20000.00,M,M,M,KLGA 061151Z 13006KT 9SM SCT011 BKN200 17/12 A3014 RMK AO2 SLP205 T01670122 10172 20156 53001
LGA,2013-06-06T12:51:00Z,64.94,53.06,65.37,150.00,4,0,30.13,1020.30,10,M,BKN,M,M,M,20000.00,M,M,M,M,KLGA 061251Z 15004KT 10SM BKN200 18/12 A3013 RMK AO2 SLP203 T01830117
LGA,2013-06-06T13:51:00Z,69.08,51.98,54.45,170.00,9,0,30.12,1019.90,10,15.00,FEW,BKN,M,M,4300.00,22000.00,M,M,M,KLGA 061351Z 17009G15KT 10SM FEW043 BKN220 21/11 A3012 RMK AO2 SLP199 T02060111
LGA,2013-06-06T14:51:00Z,71.06,50,47.29,130.00,12,0,30.12,1019.80,10,16.00,FEW,SCT,BKN,M,4500.00,17000.00,25000.00,M,M,KLGA 061451Z 13012G16KT 10SM FEW045 SCT170 BKN250 22/10 A3012 RMK AO2 SLP198 T02170100 56007
LGA,2013-06-06T15:51:00Z,69.98,46.04,42.29,140.00,13,0,30.11,1019.60,10,18.00,FEW,BKN,M,M,4500.00,19000.00,M,M,M,KLGA 061551Z 14013G18KT 10SM FEW045 BKN190 21/08 A3011 RMK AO2 SLP196 T02110078
LGA,2013-06-06T16:51:00Z,71.06,44.06,37.81,120.00,12,0,30.1,1019.10,10,M,FEW,BKN,M,M,4500.00,16000.00,M,M,M,KLGA 061651Z 12012KT 10SM FEW045 BKN160 22/07 A3010 RMK AO2 SLP191 T02170067
LGA,2013-06-06T17:51:00Z,71.06,42.98,36.28,150.00,11,0,30.09,1018.90,10,18.00,FEW,OVC,M,M,4800.00,16000.00,M,M,M,KLGA 061751Z 15011G18KT 10SM FEW048 OVC160 22/06 A3009 RMK AO2 SLP189 T02170061 10228 20167 56009
LGA,2013-06-06T18:51:00Z,69.98,48.02,45.57,150.00,10,0,30.09,1018.80,10,18.00,SCT,OVC,M,M,4500.00,16000.00,M,M,M,KLGA 061851Z 15010G18KT 10SM SCT045 OVC160 21/09 A3009 RMK AO2 SLP188 T02110089
LGA,2013-06-06T19:51:00Z,69.08,51.08,52.67,160.00,13,0,30.07,1018.30,10,20.00,SCT,BKN,BKN,OVC,3500.00,6500.00,15000.00,25000.00,M,KLGA 061951Z 16013G20KT 10SM SCT035 BKN065 BKN150 OVC250 21/11 A3007 RMK AO2 SLP183 T02060106
LGA,2013-06-06T20:51:00Z,68,55.04,63.21,130.00,12,0,30.06,1018.00,10,16.00,SCT,BKN,OVC,M,4000.00,6000.00,25000.00,M,M,KLGA 062051Z 13012G16KT 10SM SCT040 BKN060 OVC250 20/13 A3006 RMK AO2 SLP180 T02000128 58009
LGA,2013-06-06T21:51:00Z,68,55.04,63.21,140.00,9,0,30.05,1017.60,10,16.00,FEW,SCT,BKN,M,4000.00,6500.00,25000.00,M,M,KLGA 062151Z 14009G16KT 10SM FEW040 SCT065 BKN250 20/13 A3005 RMK AO2 RAB18E40 SLP176 P0000 T02000128
LGA,2013-06-06T22:51:00Z,66.92,57.02,70.49,130.00,10,0,30.05,1017.50,10,M,SCT,BKN,OVC,M,4000.00,11000.00,13000.00,M,-RA,KLGA 062251Z 13010KT 10SM -RA SCT040 BKN110 OVC130 19/14 A3005 RMK AO2 RAB23 SLP175 P0000 T01940139
LGA,2013-06-06T23:51:00Z,66.02,57.02,72.72,130.00,12,0,30.04,1017.30,10,15.00,BKN,OVC,M,M,3800.00,10000.00,M,M,-RA,KLGA 062351Z 13012G15KT 10SM -RA BKN038 OVC100 19/14 A3004 RMK AO2 SLP173 P0000 60000 T01890139 10222 20183 56007
LGA,2013-06-07T00:51:00Z,64.94,57.02,75.51,120.00,11,0.01,30.04,1017.20,10,M,FEW,SCT,OVC,M,4000.00,6000.00,10000.00,M,-RA,KLGA 070051Z 12011KT 10SM -RA FEW040 SCT060 OVC100 18/14 A3004 RMK AO2 SLP172 P0001 T01830139
LGA,2013-06-07T01:51:00Z,64.04,57.02,77.92,140.00,9,0.01,30.04,1017.10,10,M,BKN,BKN,OVC,M,3500.00,6000.00,8500.00,M,-RA,KLGA 070151Z 14009KT 10SM -RA BKN035 BKN060 OVC085 18/14 A3004 RMK AO2 SLP171 P0001 T01780139
LGA,2013-06-07T02:51:00Z,62.96,57.92,83.6,140.00,6,0.02,30.05,1017.40,10,M,FEW,OVC,M,M,1100.00,3700.00,M,M,-RA,KLGA 070251Z 14006KT 10SM -RA FEW011 OVC037 17/14 A3005 RMK AO2 SLP174 P0002 60004 T01720144 53000
LGA,2013-06-07T03:51:00Z,62.06,57.92,86.29,100.00,9,0.03,30.02,1016.50,10,M,FEW,SCT,OVC,M,1000.00,4100.00,5500.00,M,-RA,KLGA 070351Z 10009KT 10SM -RA FEW010 SCT041 OVC055 17/14 A3002 RMK AO2 SLP165 P0003 T01670144
LGA,2013-06-07T04:51:00Z,62.06,57.92,86.29,100.00,8,0.03,30,1015.70,10,M,FEW,OVC,M,M,1000.00,4100.00,M,M,-RA,KLGA 070451Z 10008KT 10SM -RA FEW010 OVC041 17/14 A3000 RMK AO2 SLP157 P0003 T01670144 402280156
LGA,2013-06-07T05:51:00Z,62.06,57.92,86.29,60.00,4,0.01,29.98,1015.10,10,M,BKN,BKN,BKN,M,3500.00,4400.00,9500.00,M,-RA,KLGA 070551Z 06004KT 10SM -RA BKN035 BKN044 BKN095 17/14 A2998 RMK AO2 SLP151 P0001 60011 T01670144 10200 20167 56023
LGA,2013-06-07T06:19:00Z,60.8,57.2,87.92,60.00,7,0.01,29.97,M,10,M,SCT,BKN,OVC,M,1400.00,2000.00,3500.00,M,-RA,KLGA 070619Z 06007KT 10SM -RA SCT014 BKN020 OVC035 16/14 A2997 RMK AO2 P0001
LGA,2013-06-07T06:41:00Z,60.8,57.2,87.92,60.00,6,0.01,29.97,M,10,M,BKN,OVC,M,M,1100.00,1800.00,M,M,-RA,KLGA 070641Z 06006KT 10SM -RA BKN011 OVC018 16/14 A2997 RMK AO2 P0001
LGA,2013-06-07T06:51:00Z,60.98,57.92,89.65,60.00,6,0.01,29.96,1014.70,10,M,OVC,M,M,M,1100.00,M,M,M,-RA,KLGA 070651Z 06006KT 10SM -RA OVC011 16/14 A2996 RMK AO2 SLP147 P0001 T01610144
LGA,2013-06-07T07:05:00Z,60.8,57.2,87.92,60.00,5,0,29.96,M,10,M,OVC,M,M,M,900.00,M,M,M,-RA,KLGA 070705Z 06005KT 10SM -RA OVC009 16/14 A2996 RMK AO2 P0000
LGA,2013-06-07T07:34:00Z,60.8,57.2,87.92,60.00,6,0.01,29.95,M,6,M,OVC,M,M,M,700.00,M,M,M,-RA BR,KLGA 070734Z 06006KT 6SM -RA BR OVC007 16/14 A2995 RMK AO2 P0001
LGA,2013-06-07T07:51:00Z,60.98,59,93.19,70.00,5,0.04,29.95,1014.00,5,M,OVC,M,M,M,700.00,M,M,M,RA BR,KLGA 070751Z 07005KT 5SM RA BR OVC007 16/15 A2995 RMK AO2 SLP140 P0004 T01610150
LGA,2013-06-07T08:51:00Z,62.06,59,89.7,110.00,8,0.19,29.93,1013.60,3,M,OVC,M,M,M,700.00,M,M,M,+RA BR,KLGA 070851Z 11008KT 3SM +RA BR OVC007 17/15 A2993 RMK AO2 SLP136 P0019 60024 T01670150 57015
LGA,2013-06-07T09:49:00Z,62.6,59,88,110.00,11,0.16,29.93,M,1.5,M,OVC,M,M,M,700.00,M,M,M,RA BR,KLGA 070949Z 11011KT 1 1/2SM RA BR OVC007 17/15 A2993 RMK AO2 SFC VIS 4 P0016
LGA,2013-06-07T09:51:00Z,62.06,59,89.7,110.00,10,0.17,29.93,1013.50,1.5,M,OVC,M,M,M,700.00,M,M,M,RA BR,KLGA 070951Z 11010KT 1 1/2SM RA BR OVC007 17/15 A2993 RMK AO2 SFC VIS 3 SLP135 P0017 T01670150
LGA,2013-06-07T10:51:00Z,60.98,59,93.19,60.00,8,0.05,29.92,1013.20,2.5,M,OVC,M,M,M,700.00,M,M,M,-RA BR,KLGA 071051Z 06008KT 2 1/2SM -RA BR OVC007 16/15 A2992 RMK AO2 SFC VIS 5 SLP132 P0005 T01610150
LGA,2013-06-07T10:59:00Z,60.8,59,93.79,60.00,7,0.01,29.93,M,2.5,M,OVC,M,M,M,500.00,M,M,M,-RA BR,KLGA 071059Z 06007KT 2 1/2SM -RA BR OVC005 16/15 A2993 RMK AO2 SFC VIS 5 P0001
LGA,2013-06-07T11:40:00Z,62.6,59,88,90.00,9,0,29.91,M,2,M,OVC,M,M,M,400.00,M,M,M,-RA BR,KLGA 071140Z 09009KT 2SM -RA BR OVC004 17/15 A2991
LGA,2013-06-07T11:51:00Z,62.06,60.08,93.22,80.00,10,0.09,29.91,1012.70,2,M,BKN,OVC,M,M,400.00,800.00,M,M,RA BR,KLGA 071151Z 08010KT 2SM RA BR BKN004 OVC008 17/16 A2991 RMK AO2 SLP127 P0009 60055 70066 T01670156 10172 20161 58008
LGA,2013-06-07T12:17:00Z,62.6,60.8,93.83,60.00,9,0.03,29.9,M,2.5,M,OVC,M,M,M,600.00,M,M,M,RA BR,KLGA 071217Z 06009KT 2 1/2SM RA BR OVC006 17/16 A2990 RMK AO2 SFC VIS 4 P0003
LGA,2013-06-07T12:18:00Z,62.6,60.8,93.83,60.00,9,0.03,29.9,M,3,M,OVC,M,M,M,600.00,M,M,M,RA BR,KLGA 071218Z 06009KT 3SM RA BR OVC006 17/16 A2990 RMK AO2 SFC VIS 4 P0003
LGA,2013-06-07T12:51:00Z,62.06,59,89.7,50.00,9,0.07,29.91,1012.70,3,M,OVC,M,M,M,600.00,M,M,M,RA BR,KLGA 071251Z 05009KT 3SM RA BR OVC006 17/15 A2991 RMK AO2 SFC VIS 4 SLP127 P0007 T01670150
LGA,2013-06-07T13:13:00Z,62.6,60.8,93.83,40.00,7,0.04,29.9,M,2.5,M,OVC,M,M,M,400.00,M,M,M,RA BR,KLGA 071313Z 04007KT 2 1/2SM R04/6000VP6000FT RA BR OVC004 17/16 A2990 RMK AO2 SFC VIS 3 P0004
LGA,2013-06-07T13:51:00Z,62.96,60.08,90.31,40.00,8,0.17,29.9,1012.40,2.5,M,BKN,OVC,M,M,400.00,800.00,M,M,RA BR,KLGA 071351Z 04008KT 2 1/2SM RA BR BKN004 OVC008 17/16 A2990 RMK AO2 SFC VIS 3 SLP124 P0017 T01720156
LGA,2013-06-07T14:31:00Z,62.6,60.8,93.83,50.00,11,0.07,29.89,M,4,M,SCT,BKN,OVC,M,500.00,800.00,1400.00,M,-RA BR,KLGA 071431Z 05011KT 4SM -RA BR SCT005 BKN008 OVC014 17/16 A2989 RMK AO2 P0007
LGA,2013-06-07T14:51:00Z,64.04,60.08,86.95,80.00,9,0.08,29.88,1011.90,5,18.00,FEW,BKN,OVC,M,500.00,800.00,1400.00,M,RA BR,KLGA 071451Z 08009G18KT 5SM RA BR FEW005 BKN008 OVC014 18/16 A2988 RMK AO2 SLP119 P0008 60032 T01780156 58008
LGA,2013-06-07T15:51:00Z,64.94,60.08,84.26,80.00,14,0.07,29.88,1011.70,6,18.00,FEW,BKN,OVC,M,500.00,800.00,1300.00,M,-RA,KLGA 071551Z 08014G18KT 6SM -RA FEW005 BKN008 OVC013 18/16 A2988 RMK AO2 SLP117 P0007 T01830156
LGA,2013-06-07T16:23:00Z,64.4,60.8,88.09,80.00,10,0.11,29.87,M,1.5,M,FEW,BKN,OVC,M,600.00,800.00,1300.00,M,+RA BR,KLGA 071623Z 08010KT 1 1/2SM R04/4000VP6000FT +RA BR FEW006 BKN008 OVC013 18/16 A2987 RMK AO2 SFC VIS 2 P0011
LGA,2013-06-07T16:43:00Z,64.4,60.8,88.09,80.00,9,0.19,29.87,M,2.5,M,FEW,BKN,OVC,M,600.00,800.00,1200.00,M,RA BR,KLGA 071643Z 08009KT 2 1/2SM RA BR FEW006 BKN008 OVC012 18/16 A2987 RMK AO2 P0019
LGA,2013-06-07T16:51:00Z,64.04,60.08,86.95,80.00,11,0.21,29.87,1011.30,2.5,M,FEW,BKN,OVC,M,600.00,800.00,1200.00,M,RA BR,KLGA 071651Z 08011KT 2 1/2SM RA BR FEW006 BKN008 OVC012 18/16 A2987 RMK AO2 SLP113 P0021 T01780156
LGA,2013-06-07T17:35:00Z,62.6,60.8,93.83,60.00,8,0.18,29.86,M,2.5,M,BKN,OVC,M,M,600.00,1200.00,M,M,+RA BR,KLGA 071735Z 06008KT 2 1/2SM +RA BR BKN006 OVC012 17/16 A2986 RMK AO2 SFC VIS 3 P0018
LGA,2013-06-07T17:51:00Z,62.96,60.08,90.31,50.00,10,0.22,29.85,1010.70,2.5,M,BKN,OVC,M,M,600.00,1000.00,M,M,RA BR,KLGA 071751Z 05010KT 2 1/2SM RA BR BKN006 OVC010 17/16 A2985 RMK AO2 SFC VIS 4 SLP107 P0022 60082 T01720156 10183 20161 58012
LGA,2013-06-07T18:51:00Z,60.98,59,93.19,50.00,14,0.12,29.83,1010.20,2.5,M,BKN,OVC,M,M,600.00,1000.00,M,M,RA BR,KLGA 071851Z 05014KT 2 1/2SM RA BR BKN006 OVC010 16/15 A2983 RMK AO2 SFC VIS 4 SLP102 P0012 T01610150
LGA,2013-06-07T19:09:00Z,60.8,57.2,87.92,40.00,14,0.03,29.82,M,2.5,M,SCT,OVC,M,M,600.00,1300.00,M,M,RA BR,KLGA 071909Z 04014KT 2 1/2SM RA BR SCT006 OVC013 16/14 A2982 RMK AO2 SFC VIS 4 P0003
LGA,2013-06-07T19:16:00Z,60.8,57.2,87.92,50.00,11,0.03,29.82,M,2.5,M,BKN,OVC,M,M,600.00,1300.00,M,M,-RA BR,KLGA 071916Z 05011KT 2 1/2SM -RA BR BKN006 OVC013 16/14 A2982 RMK AO2 SFC VIS 5 P0003
LGA,2013-06-07T19:51:00Z,60.08,57.92,92.56,50.00,14,0.07,29.8,1009.20,2.5,M,OVC,M,M,M,600.00,M,M,M,RA BR,KLGA 071951Z 05014KT 2 1/2SM RA BR OVC006 16/14 A2980 RMK AO2 SFC VIS 5 SLP092 P0007 T01560144
LGA,2013-06-07T20:26:00Z,60.8,57.2,87.92,50.00,20,0.06,29.78,M,2,M,SCT,BKN,OVC,M,600.00,1200.00,2700.00,M,+RA BR,KLGA 072026Z 05020KT 2SM R04/6000VP6000FT +RA BR SCT006 BKN012 OVC027 16/14 A2978 RMK AO2 TWR VIS 2 1/2 P0006
LGA,2013-06-07T20:32:00Z,60.8,57.2,87.92,50.00,20,0.09,29.77,M,2,26.00,SCT,SCT,OVC,M,400.00,1000.00,3100.00,M,+RA BR,KLGA 072032Z 05020G26KT 2SM +RA BR SCT004 SCT010 OVC031 16/14 A2977 RMK AO2 PK WND 05026/2030 TWR VIS 2 1/2 CIG 014 R22 SW PRESFR P0009
LGA,2013-06-07T20:41:00Z,60.8,57.2,87.92,50.00,19,0.11,29.77,M,2,26.00,FEW,SCT,OVC,M,400.00,1600.00,2900.00,M,+RA BR,KLGA 072041Z 05019G26KT 2SM R04/6000VP6000FT +RA BR FEW004 SCT016 OVC029 16/14 A2977 RMK AO2 PK WND 05026/2035 TWR VIS 2 1/2 CIG 017 R22 SW P0011
LGA,2013-06-07T20:51:00Z,60.08,57.92,92.56,50.00,22,0.14,29.76,1007.80,2.5,29.00,SCT,BKN,OVC,M,400.00,1600.00,3300.00,M,RA BR,KLGA 072051Z 05022G29KT 2 1/2SM RA BR SCT004 BKN016 OVC033 16/14 A2976 RMK AO2 PK WND 06029/2046 SLP078 P0014 60033 T01560144 58029
LGA,2013-06-07T21:03:00Z,60.8,57.2,87.92,50.00,22,0.04,29.76,M,2,29.00,SCT,OVC,M,M,400.00,1600.00,M,M,+RA BR,KLGA 072103Z 05022G29KT 2SM +RA BR SCT004 OVC016 16/14 A2976 RMK AO2 PK WND 06029/2058 TWR VIS 2 1/2 P0004
LGA,2013-06-07T21:09:00Z,60.8,57.2,87.92,60.00,19,0.06,29.77,M,2.5,28.00,BKN,OVC,M,M,600.00,1600.00,M,M,RA BR,KLGA 072109Z 06019G28KT 2 1/2SM RA BR BKN006 OVC016 16/14 A2977 RMK AO2 PK WND 06029/2058 P0006
LGA,2013-06-07T21:22:00Z,60.8,57.2,87.92,50.00,22,0.09,29.74,M,1.75,31.00,BKN,OVC,M,M,600.00,1600.00,M,M,+RA BR,KLGA 072122Z 05022G31KT 1 3/4SM R04/6000VP6000FT +RA BR BKN006 OVC016 16/14 A2974 RMK AO2 PK WND 06031/2119 TWR VIS 2 1/2 P0009
LGA,2013-06-07T21:32:00Z,60.8,57.2,87.92,50.00,20,0.13,29.74,M,2.5,29.00,BKN,OVC,M,M,600.00,1400.00,M,M,RA BR,KLGA 072132Z 05020G29KT 2 1/2SM RA BR BKN006 OVC014 16/14 A2974 RMK AO2 PK WND 06031/2119 P0013
LGA,2013-06-07T21:51:00Z,60.08,57.02,89.61,50.00,24,0.13,29.75,1007.20,2.5,32.00,BKN,OVC,M,M,600.00,1200.00,M,M,-RA BR,KLGA 072151Z 05024G32KT 2 1/2SM -RA BR BKN006 OVC012 16/14 A2975 RMK AO2 PK WND 05032/2151 SFC VIS 6 SLP072 P0013 T01560139
LGA,2013-06-07T22:51:00Z,60.08,57.02,89.61,50.00,19,0.06,29.74,1006.90,2.5,33.00,BKN,BKN,OVC,M,600.00,1400.00,2100.00,M,+RA BR,KLGA 072251Z 05019G33KT 2 1/2SM R04/6000VP6000FT +RA BR BKN006 BKN014 OVC021 16/14 A2974 RMK AO2 PK WND 05035/2240 SLP069 P0006 T01560139
LGA,2013-06-07T22:57:00Z,60.8,57.2,87.92,50.00,24,0.01,29.74,M,1.75,30.00,BKN,OVC,M,M,600.00,2100.00,M,M,+RA BR,KLGA 072257Z 05024G30KT 1 3/4SM R04/6000VP6000FT +RA BR BKN006 OVC021 16/14 A2974 RMK AO2 PK WND 05030/2257 TWR VIS 2 1/2 P0001
LGA,2013-06-07T23:03:00Z,60.8,57.2,87.92,50.00,21,0.04,29.72,M,1,30.00,BKN,OVC,M,M,600.00,1700.00,M,M,+RA BR,KLGA 072303Z 05021G30KT 1SM R04/2800VP6000FT +RA BR BKN006 OVC017 16/14 A2972 RMK AO2 PK WND 05030/2257 TWR VIS 2 1/2 P0004
LGA,2013-06-07T23:40:00Z,59,57.2,93.74,50.00,21,0.33,29.72,M,0.75,30.00,SCT,OVC,M,M,600.00,1200.00,M,M,+RA BR,KLGA 072340Z 05021G30KT 3/4SM R04/2800VP6000FT +RA BR SCT006 OVC012 15/14 A2972 RMK AO2 PK WND 05032/2320 TWR VIS 1 P0033
LGA,2013-06-07T23:49:00Z,60.8,57.2,87.92,60.00,23,0.36,29.72,M,1,31.00,SCT,OVC,M,M,800.00,1600.00,M,M,+RA BR,KLGA 072349Z 06023G31KT 1SM +RA BR SCT008 OVC016 16/14 A2972 RMK AO2 PK WND 05032/2320 SFC VIS 1 1/2 P0036
LGA,2013-06-07T23:51:00Z,60.08,57.02,89.61,60.00,22,0.37,29.72,1006.30,1,29.00,SCT,OVC,M,M,800.00,1600.00,M,M,+RA BR,KLGA 072351Z 06022G29KT 1SM +RA BR SCT008 OVC016 16/14 A2972 RMK AO2 PK WND 05032/2320 SFC VIS 1 3/4 SLP063 P0037 60089 T01560139 10172 20150 56009
LGA,2013-06-08T00:03:00Z,60.8,57.2,87.92,60.00,19,0.03,29.72,M,1,M,FEW,OVC,M,M,800.00,1400.00,M,M,+RA BR,KLGA 080003Z 06019KT 1SM R04/5000VP6000FT +RA BR FEW008 OVC014 16/14 A2972 RMK AO2 PK WND 06026/2356 SFC VIS 1 1/2 VIS 3/4V2 1/2 P0003
LGA,2013-06-08T00:12:00Z,60.8,57.2,87.92,60.00,19,0.1,29.71,M,1,25.00,FEW,OVC,M,M,800.00,1600.00,M,M,+RA BR,KLGA 080012Z 06019G25KT 1SM R04/5500VP6000FT +RA BR FEW008 OVC016 16/14 A2971 RMK AO2 PK WND 06026/2356 SFC VIS 1 1/4 P0010
LGA,2013-06-08T00:35:00Z,60.8,57.2,87.92,50.00,17,0.17,29.71,M,1,24.00,SCT,SCT,OVC,M,600.00,1000.00,1400.00,M,+RA BR,KLGA 080035Z 05017G24KT 1SM +RA BR SCT006 SCT010 OVC014 16/14 A2971 RMK AO2 PK WND 06026/2356 SFC VIS 2 VIS 1 1/2V4 P0017
LGA,2013-06-08T00:51:00Z,60.98,57.92,89.65,50.00,18,0.28,29.7,1005.80,1,M,SCT,BKN,OVC,M,600.00,1200.00,2200.00,M,+RA BR,KLGA 080051Z 05018KT 1SM +RA BR SCT006 BKN012 OVC022 16/14 A2970 RMK AO2 PK WND 06026/2356 SFC VIS 2 1/2 SLP058 P0028 T01610144
LGA,2013-06-08T01:16:00Z,62.6,57.2,82.5,50.00,20,0.18,29.69,M,1,27.00,FEW,BKN,OVC,M,600.00,1600.00,2200.00,M,-RA BR,KLGA 080116Z 05020G27KT 1SM -RA BR FEW006 BKN016 OVC022 17/14 A2969 RMK AO2 PK WND 05028/0103 SFC VIS 3 P0018
LGA,2013-06-08T01:29:00Z,60.8,57.2,87.92,60.00,22,0.21,29.69,M,1,28.00,SCT,OVC,M,M,600.00,1400.00,M,M,-RA BR,KLGA 080129Z 06022G28KT 1SM -RA BR SCT006 OVC014 16/14 A2969 RMK AO2 PK WND 05028/0129 SFC VIS 4 P0021
LGA,2013-06-08T01:36:00Z,60.8,57.2,87.92,50.00,22,0.21,29.69,M,1,28.00,SCT,OVC,M,M,600.00,1800.00,M,M,-RA BR,KLGA 080136Z 05022G28KT 1SM -RA BR SCT006 OVC018 16/14 A2969 RMK AO2 PK WND 05028/0135 SFC VIS 4 P0021
LGA,2013-06-08T01:48:00Z,60.8,57.2,87.92,50.00,19,0,29.68,M,1,28.00,BKN,OVC,M,M,600.00,1300.00,M,M,RA BR,KLGA 080148Z 05019G28KT 1SM RA BR BKN006 OVC013 16/14 A2968
LGA,2013-06-08T01:49:00Z,60.98,57.92,89.65,50.00,18,0.24,29.68,1005.10,1,28.00,BKN,OVC,M,M,600.00,1300.00,M,M,+RA BR,KLGA 080149Z 05018G28KT 1SM +RA BR BKN006 OVC013 16/14 A2968 RMK AO2 PK WND 06028/0140 SFC VIS 2 1/2 SLP051 P0024 T01610144
LGA,2013-06-08T02:47:00Z,60.8,57.2,87.92,50.00,18,0.22,29.67,M,1,M,SCT,OVC,M,M,600.00,1700.00,M,M,RA BR,KLGA 080247Z 05018KT 1SM RA BR SCT006 OVC017 16/14 A2967 RMK AO2 PK WND 04034/0231 SFC VIS 2 1/2 P0022
LGA,2013-06-08T02:51:00Z,60.98,57.92,89.65,50.00,20,0.22,29.66,1004.50,1,26.00,SCT,OVC,M,M,600.00,1700.00,M,M,RA BR,KLGA 080251Z 05020G26KT 1SM RA BR SCT006 OVC017 16/14 A2966 RMK AO2 PK WND 04034/0231 SFC VIS 2 1/2 SLP045 P0022 60074 T01610144 58018
LGA,2013-06-08T03:51:00Z,60.08,57.92,92.56,50.00,17,0.11,29.63,1003.40,1,M,SCT,BKN,OVC,M,600.00,1700.00,1900.00,M,+RA BR,KLGA 080351Z 05017KT 1SM +RA BR SCT006 BKN017 OVC019 16/14 A2963 RMK AO2 PK WND 05029/0255 SFC VIS 2 1/2 VIS 2V4 SLP034 P0011 T01560144
LGA,2013-06-08T03:58:00Z,60.8,57.2,87.92,40.00,17,0,29.63,M,1,M,BKN,BKN,OVC,M,600.00,1000.00,1700.00,M,+RA BR,KLGA 080358Z 04017KT 1SM +RA BR BKN006 BKN010 OVC017 16/14 A2963
LGA,2013-06-08T04:21:00Z,60.8,57.2,87.92,40.00,18,0.12,29.62,M,1,M,SCT,BKN,OVC,M,600.00,1300.00,1900.00,M,+RA BR,KLGA 080421Z 04018KT 1SM +RA BR SCT006 BKN013 OVC019 16/14 A2962 RMK AO2 SFC VIS 2 P0012
LGA,2013-06-08T04:36:00Z,60.8,57.2,87.92,40.00,18,0.17,29.61,M,1,M,BKN,OVC,M,M,600.00,1900.00,M,M,+RA BR,KLGA 080436Z 04018KT 1SM +RA BR BKN006 OVC019 16/14 A2961 RMK AO2 SFC VIS 2 1/2 P0017
LGA,2013-06-08T04:51:00Z,59,57.02,93.13,40.00,15,0.2,29.6,1002.40,1,M,BKN,OVC,M,M,600.00,1900.00,M,M,RA BR,KLGA 080451Z 04015KT 1SM RA BR BKN006 OVC019 15/14 A2960 RMK AO2 SFC VIS 2 1/2 SLP024 P0020 T01500139 401830150
LGA,2013-06-08T05:51:00Z,59,57.02,93.13,40.00,13,0.12,29.58,1001.70,1,M,BKN,BKN,OVC,M,600.00,1000.00,1900.00,M,+RA BR,KLGA 080551Z 04013KT 1SM R04/5000VP6000FT +RA BR BKN006 BKN010 OVC019 15/14 A2958 RMK AO2 SFC VIS 1 3/4 SLP017 P0012 60117 T01500139 10167 20150 56028
LGA,2013-06-08T06:47:00Z,57.2,55.4,93.69,350.00,10,0.66,29.57,M,1,M,BKN,OVC,M,M,800.00,1200.00,M,M,+RA BR,KLGA 080647Z 35010KT 1SM +RA BR BKN008 OVC012 14/13 A2957 RMK AO2 SFC VIS 3 P0066
LGA,2013-06-08T06:51:00Z,57.92,55.94,93.1,10.00,9,0.66,29.57,1001.40,1,M,OVC,M,M,M,800.00,M,M,M,RA BR,KLGA 080651Z 01009KT 1SM RA BR OVC008 14/13 A2957 RMK AO2 SFC VIS 4 SLP014 P0066 T01440133
LGA,2013-06-08T06:59:00Z,57.2,55.4,93.69,360.00,10,0.02,29.57,M,7,M,OVC,M,M,M,1000.00,M,M,M,-RA,KLGA 080659Z 36010KT 7SM -RA OVC010 14/13 A2957 RMK AO2 P0002
LGA,2013-06-08T07:51:00Z,59,55.04,86.69,340.00,14,0.02,29.59,1002.10,10,M,OVC,M,M,M,1200.00,M,M,M,M,KLGA 080751Z 34014KT 10SM OVC012 15/13 A2959 RMK AO2 RAE19 SLP021 P0002 T01500128
LGA,2013-06-08T08:16:00Z,57.2,55.4,93.69,340.00,14,0,29.61,M,3,20.00,OVC,M,M,M,800.00,M,M,M,-RA BR,KLGA 080816Z 34014G20KT 3SM -RA BR OVC008 14/13 A2961 RMK AO2 SFC VIS 5 RAB00 P0000
LGA,2013-06-08T08:30:00Z,57.2,55.4,93.69,330.00,15,0,29.61,M,8,20.00,SCT,BKN,OVC,M,800.00,1000.00,1600.00,M,-DZ,KLGA 080830Z 33015G20KT 8SM -DZ SCT008 BKN010 OVC016 14/13 A2961 RMK AO2 RAB00E28DZB30 P0000
LGA,2013-06-08T08:51:00Z,57.92,53.96,86.63,330.00,14,0,29.64,1003.80,10,23.00,BKN,OVC,M,M,1000.00,1500.00,M,M,M,KLGA 080851Z 33014G23KT 10SM BKN010 OVC015 14/12 A2964 RMK AO2 RAB00E28DZB30E48 PRESRR SLP038 P0000 60068 T01440122 53021
LGA,2013-06-08T09:13:00Z,59,53.6,82.25,330.00,12,0,29.65,M,10,M,SCT,BKN,OVC,M,1000.00,1500.00,2200.00,M,M,KLGA 080913Z 33012KT 10SM SCT010 BKN015 OVC022 15/12 A2965 RMK AO2
LGA,2013-06-08T09:45:00Z,59,53.6,82.25,320.00,12,0,29.7,M,10,M,SCT,SCT,SCT,SCT,1500.00,2500.00,6000.00,25000.00,M,KLGA 080945Z 32012KT 10SM SCT015 SCT025 SCT060 SCT250 15/12 A2970 RMK AO2
LGA,2013-06-08T09:51:00Z,59,53.96,83.34,320.00,10,0,29.7,1005.60,10,M,SCT,SCT,SCT,M,1500.00,2500.00,25000.00,M,M,KLGA 080951Z 32010KT 10SM SCT015 SCT025 SCT250 15/12 A2970 RMK AO2 SLP056 T01500122
LGA,2013-06-08T10:42:00Z,60.8,53.6,77.14,310.00,11,0,29.76,M,10,M,BKN,BKN,BKN,M,1700.00,13000.00,25000.00,M,M,KLGA 081042Z 31011KT 10SM BKN017 BKN130 BKN250 16/12 A2976 RMK AO2 PRESRR
LGA,2013-06-08T10:51:00Z,60.08,53.96,80.19,310.00,11,0,29.76,1007.70,10,M,BKN,BKN,BKN,M,1700.00,13000.00,25000.00,M,M,KLGA 081051Z 31011KT 10SM BKN017 BKN130 BKN250 16/12 A2976 RMK AO2 SLP077 T01560122
LGA,2013-06-08T11:19:00Z,60.8,53.6,77.14,300.00,8,0,29.78,M,10,M,SCT,SCT,SCT,M,1700.00,13000.00,25000.00,M,M,KLGA 081119Z 30008KT 10SM SCT017 SCT130 SCT250 16/12 A2978 RMK AO2
LGA,2013-06-08T11:47:00Z,62.6,55.4,77.29,300.00,7,0,29.8,M,10,M,FEW,BKN,BKN,BKN,1700.00,2800.00,13000.00,25000.00,M,KLGA 081147Z 30007KT 10SM FEW017 BKN028 BKN130 BKN250 17/13 A2980 RMK AO2
LGA,2013-06-08T11:51:00Z,62.06,55.04,77.75,260.00,7,0,29.8,1009.20,10,M,FEW,BKN,BKN,BKN,1700.00,2800.00,13000.00,25000.00,M,KLGA 081151Z 26007KT 10SM FEW017 BKN028 BKN130 BKN250 17/13 A2980 RMK AO2 SLP092 60068 70356 T01670128 10167 20144 51036
LGA,2013-06-08T12:48:00Z,64.4,55.4,72.56,270.00,8,0,29.83,M,10,M,SCT,BKN,BKN,M,2000.00,13000.00,25000.00,M,M,KLGA 081248Z 27008KT 10SM SCT020 BKN130 BKN250 18/13 A2983 RMK AO2
LGA,2013-06-08T12:51:00Z,64.94,55.94,72.62,250.00,8,0,29.83,1010.10,10,M,SCT,BKN,BKN,M,2000.00,13000.00,25000.00,M,M,KLGA 081251Z 25008KT 10SM SCT020 BKN130 BKN250 18/13 A2983 RMK AO2 SLP101 T01830133
LGA,2013-06-08T13:33:00Z,66.2,57.2,72.74,260.00,5,0,29.85,M,10,M,BKN,BKN,BKN,M,2000.00,13000.00,25000.00,M,M,KLGA 081333Z 26005KT 10SM BKN020 BKN130 BKN250 19/14 A2985 RMK AO2
LGA,2013-06-08T13:51:00Z,66.92,57.92,72.81,290.00,8,0,29.84,1010.50,10,15.00,BKN,BKN,BKN,M,2000.00,13000.00,25000.00,M,M,KLGA 081351Z 29008G15KT 10SM BKN020 BKN130 BKN250 19/14 A2984 RMK AO2 SLP105 T01940144
LGA,2013-06-08T14:51:00Z,71.06,57.92,63.18,260.00,7,0,29.87,1011.40,10,M,BKN,BKN,BKN,M,2600.00,13000.00,25000.00,M,M,KLGA 081451Z 26007KT 10SM BKN026 BKN130 BKN250 22/14 A2987 RMK AO2 SLP114 T02170144 52022
LGA,2013-06-08T15:47:00Z,73.4,57.2,56.88,250.00,7,0,29.88,M,10,M,BKN,BKN,BKN,M,3100.00,13000.00,25000.00,M,M,KLGA 081547Z 25007KT 10SM BKN031 BKN130 BKN250 23/14 A2988 RMK AO2
LGA,2013-06-08T15:51:00Z,73.94,57.92,57.32,280.00,7,0,29.88,1011.90,10,M,BKN,BKN,BKN,M,3100.00,13000.00,25000.00,M,M,KLGA 081551Z 28007KT 10SM BKN031 BKN130 BKN250 23/14 A2988 RMK AO2 SLP119 T02330144
LGA,2013-06-08T16:51:00Z,75.92,59,55.77,250.00,8,0,29.89,1012.20,10,M,BKN,BKN,BKN,M,3500.00,13000.00,25000.00,M,M,KLGA 081651Z 25008KT 10SM BKN035 BKN130 BKN250 24/15 A2989 RMK AO2 SLP122 T02440150
LGA,2013-06-08T17:51:00Z,77,59,53.8,270.00,7,0,29.9,1012.40,10,M,BKN,BKN,BKN,M,3900.00,13000.00,25000.00,M,M,KLGA 081751Z 27007KT 10SM BKN039 BKN130 BKN250 25/15 A2990 RMK AO2 SLP124 T02500150 10256 20167 51010
LGA,2013-06-08T18:51:00Z,77,57.92,51.76,270.00,8,0,29.89,1012.30,10,M,BKN,BKN,BKN,BKN,4100.00,5000.00,14000.00,25000.00,M,KLGA 081851Z 27008KT 10SM BKN041 BKN050 BKN140 BKN250 25/14 A2989 RMK AO2 SLP123 T02500144
LGA,2013-06-08T19:51:00Z,75.92,59,55.77,250.00,8,0,29.91,1012.70,10,M,BKN,BKN,BKN,M,4700.00,14000.00,25000.00,M,M,KLGA 081951Z 25008KT 10SM BKN047 BKN140 BKN250 24/15 A2991 RMK AO2 SLP127 T02440150
LGA,2013-06-08T20:51:00Z,75.92,59,55.77,270.00,7,0,29.92,1013.10,10,M,SCT,BKN,BKN,BKN,4500.00,5500.00,12000.00,25000.00,M,KLGA 082051Z 27007KT 10SM SCT045 BKN055 BKN120 BKN250 24/15 A2992 RMK AO2 CIG 045 R22 SW SLP131 T02440150 53007
LGA,2013-06-08T21:51:00Z,75.92,59,55.77,260.00,8,0,29.94,1013.80,10,M,SCT,BKN,BKN,BKN,4500.00,5500.00,13000.00,25000.00,M,KLGA 082151Z 26008KT 10SM SCT045 BKN055 BKN130 BKN250 24/15 A2994 RMK AO2 SLP138 T02440150
LGA,2013-06-08T22:51:00Z,75.92,60.08,57.96,270.00,6,0,29.96,1014.40,10,M,FEW,BKN,BKN,BKN,3900.00,5000.00,13000.00,25000.00,M,KLGA 082251Z 27006KT 10SM FEW039 BKN050 BKN130 BKN250 24/16 A2996 RMK AO2 SLP144 T02440156
LGA,2013-06-08T23:51:00Z,75.02,59,57.47,300.00,4,0,29.97,1014.90,10,M,BKN,BKN,BKN,BKN,3900.00,4700.00,13000.00,25000.00,M,KLGA 082351Z 30004KT 10SM BKN039 BKN047 BKN130 BKN250 24/15 A2997 RMK AO2 SLP149 T02390150 10250 20233 51018
LGA,2013-06-09T00:51:00Z,71.96,59,63.7,360.00,5,0,29.98,1015.20,10,M,SCT,BKN,BKN,M,3900.00,4900.00,13000.00,M,M,KLGA 090051Z 36005KT 10SM SCT039 BKN049 BKN130 22/15 A2998 RMK AO2 SLP152 T02220150
LGA,2013-06-09T01:51:00Z,71.06,57.92,63.18,0.00,0,0,30.01,1016.20,10,M,SCT,SCT,M,M,5000.00,25000.00,M,M,M,KLGA 090151Z 00000KT 10SM SCT050 SCT250 22/14 A3001 RMK AO2 SLP162 T02170144
LGA,2013-06-09T02:51:00Z,73.04,57.92,59.08,0.00,0,0,30.03,1017.00,10,M,BKN,M,M,M,3700.00,M,M,M,M,KLGA 090251Z 00000KT 10SM BKN037 23/14 A3003 RMK AO2 SLP170 T02280144 53020
LGA,2013-06-09T03:51:00Z,68,57.92,70.15,0.00,0,0,30.04,1017.20,10,M,SCT,M,M,M,4000.00,M,M,M,M,KLGA 090351Z 00000KT 10SM SCT040 20/14 A3004 RMK AO2 SLP172 T02000144
LGA,2013-06-09T04:51:00Z,68,57.92,70.15,0.00,0,0,30.06,1017.80,10,M,BKN,M,M,M,4600.00,M,M,M,M,KLGA 090451Z 00000KT 10SM BKN046 20/14 A3006 RMK AO2 SLP178 T02000144 402560144
LGA,2013-06-09T05:51:00Z,69.08,57.92,67.59,320.00,3,0,30.07,1018.10,10,M,FEW,SCT,M,M,4600.00,25000.00,M,M,M,KLGA 090551Z 32003KT 10SM FEW046 SCT250 21/14 A3007 RMK AO2 SLP181 T02060144 10239 20189 53011
LGA,2013-06-09T06:51:00Z,69.08,59,70.26,0.00,0,0,30.07,1018.20,10,M,FEW,M,M,M,4800.00,M,M,M,M,KLGA 090651Z 00000KT 10SM FEW048 21/15 A3007 RMK AO2 SLP182 T02060150
LGA,2013-06-09T07:51:00Z,66.02,57.92,75.12,320.00,4,0,30.08,1018.40,10,M,FEW,SCT,M,M,4500.00,25000.00,M,M,M,KLGA 090751Z 32004KT 10SM FEW045 SCT250 19/14 A3008 RMK AO2 SLP184 T01890144
LGA,2013-06-09T08:51:00Z,64.04,57.92,80.49,310.00,6,0,30.1,1019.10,10,M,FEW,M,M,M,25000.00,M,M,M,M,KLGA 090851Z 31006KT 10SM FEW250 18/14 A3010 RMK AO2 SLP191 T01780144 53010
LGA,2013-06-09T09:51:00Z,64.94,57.92,77.99,0.00,0,0,30.12,1020.00,10,M,FEW,M,M,M,25000.00,M,M,M,M,KLGA 090951Z 00000KT 10SM FEW250 18/14 A3012 RMK AO2 SLP200 T01830144
LGA,2013-06-09T10:51:00Z,66.02,57.92,75.12,310.00,4,0,30.14,1020.60,10,M,FEW,SCT,M,M,9000.00,25000.00,M,M,M,KLGA 091051Z 31004KT 10SM FEW090 SCT250 19/14 A3014 RMK AO2 SLP206 T01890144
LGA,2013-06-09T11:51:00Z,69.08,57.92,67.59,0.00,0,0,30.15,1021.00,10,M,FEW,SCT,SCT,SCT,4000.00,9000.00,18000.00,25000.00,M,KLGA 091151Z 00000KT 10SM FEW040 SCT090 SCT180 SCT250 21/14 A3015 RMK AO2 SLP210 T02060144 10206 20178 51019
LGA,2013-06-09T12:51:00Z,71.06,55.04,56.93,300.00,3,0,30.16,1021.40,10,M,FEW,SCT,SCT,SCT,2500.00,9000.00,18000.00,25000.00,M,KLGA 091251Z 30003KT 10SM FEW025 SCT090 SCT180 SCT250 22/13 A3016 RMK AO2 SLP214 FU FEW025 FU PLUME W-NW DRFTG SE T02170128
LGA,2013-06-09T13:51:00Z,71.96,53.06,51.36,330.00,6,0,30.16,1021.40,10,M,FEW,SCT,SCT,BKN,4200.00,9000.00,18000.00,30000.00,M,KLGA 091351Z 33006KT 10SM FEW042 SCT090 SCT180 BKN300 22/12 A3016 RMK AO2 SLP214 T02220117
LGA,2013-06-09T14:51:00Z,75.02,51.98,44.53,290.00,5,0,30.16,1021.10,10,M,FEW,SCT,BKN,BKN,5000.00,18000.00,25000.00,30000.00,M,KLGA 091451Z 29005KT 10SM FEW050 SCT180 BKN250 BKN300 24/11 A3016 RMK AO2 SLP211 T02390111 50001
LGA,2013-06-09T15:51:00Z,78.08,51.98,40.23,280.00,10,0,30.15,1021.00,10,M,FEW,SCT,BKN,BKN,5500.00,18000.00,25000.00,30000.00,M,KLGA 091551Z 28010KT 10SM FEW055 SCT180 BKN250 BKN300 26/11 A3015 RMK AO2 SLP210 T02560111
LGA,2013-06-09T16:51:00Z,78.08,51.98,40.23,240.00,8,0,30.14,1020.50,10,17.00,FEW,SCT,BKN,BKN,5000.00,18000.00,25000.00,30000.00,M,KLGA 091651Z 24008G17KT 10SM FEW050 SCT180 BKN250 BKN300 26/11 A3014 RMK AO2 SLP205 T02560111
LGA,2013-06-09T17:51:00Z,80.06,53.96,40.54,270.00,7,0,30.14,1020.50,10,M,SCT,BKN,BKN,M,5500.00,25000.00,30000.00,M,M,KLGA 091751Z 27007KT 10SM SCT055 BKN250 BKN300 27/12 A3014 RMK AO2 SLP205 T02670122 10267 20206 56006
LGA,2013-06-09T18:51:00Z,80.96,51.98,36.6,260.00,11,0,30.13,1020.10,10,17.00,SCT,BKN,M,M,7000.00,25000.00,M,M,M,KLGA 091851Z 26011G17KT 10SM SCT070 BKN250 27/11 A3013 RMK AO2 SLP201 T02720111
LGA,2013-06-09T19:51:00Z,80.96,53.06,38.08,280.00,7,0,30.11,1019.70,10,M,BKN,BKN,M,M,7000.00,25000.00,M,M,M,KLGA 091951Z 28007KT 10SM BKN070 BKN250 27/12 A3011 RMK AO2 SLP197 T02720117
LGA,2013-06-09T20:51:00Z,80.96,53.06,38.08,M,6,0,30.1,1019.30,10,M,BKN,M,M,M,6500.00,M,M,M,M,KLGA 092051Z VRB06KT 10SM BKN065 27/12 A3010 RMK AO2 SLP193 T02720117 58012
LGA,2013-06-09T21:51:00Z,78.98,55.94,45.14,170.00,12,0,30.11,1019.40,10,M,BKN,BKN,M,M,7000.00,25000.00,M,M,M,KLGA 092151Z 17012KT 10SM BKN070 BKN250 26/13 A3011 RMK AO2 SLP194 T02610133
LGA,2013-06-09T22:51:00Z,77,55.94,48.19,170.00,7,0,30.12,1019.90,10,M,FEW,BKN,M,M,7500.00,25000.00,M,M,M,KLGA 092251Z 17007KT 10SM FEW075 BKN250 25/13 A3012 RMK AO2 SLP199 T02500133
LGA,2013-06-09T23:51:00Z,75.02,57.92,55.28,170.00,8,0,30.13,1020.30,10,M,FEW,BKN,M,M,7500.00,25000.00,M,M,M,KLGA 092351Z 17008KT 10SM FEW075 BKN250 24/14 A3013 RMK AO2 SLP203 T02390144 10278 20239 53010
LGA,2013-06-10T00:51:00Z,73.94,57.92,57.32,140.00,3,0,30.14,1020.70,10,M,FEW,BKN,M,M,7500.00,25000.00,M,M,M,KLGA 100051Z 14003KT 10SM FEW075 BKN250 23/14 A3014 RMK AO2 SLP207 T02330144
LGA,2013-06-10T01:51:00Z,73.04,59,61.41,0.00,0,0,30.16,1021.20,10,M,FEW,BKN,M,M,8000.00,25000.00,M,M,M,KLGA 100151Z 00000KT 10SM FEW080 BKN250 23/15 A3016 RMK AO2 SLP212 T02280150
LGA,2013-06-10T02:51:00Z,71.96,60.08,66.2,170.00,3,0,30.16,1021.20,10,M,BKN,M,M,M,25000.00,M,M,M,M,KLGA 100251Z 17003KT 10SM BKN250 22/16 A3016 RMK AO2 SLP212 T02220156 51008
LGA,2013-06-10T03:51:00Z,71.06,60.98,70.47,110.00,4,0,30.15,1021.00,10,M,FEW,SCT,M,M,11000.00,25000.00,M,M,M,KLGA 100351Z 11004KT 10SM FEW110 SCT250 22/16 A3015 RMK AO2 SLP210 T02170161
LGA,2013-06-10T04:51:00Z,66.92,60.08,78.66,70.00,4,0,30.15,1020.90,10,M,BKN,M,M,M,11000.00,M,M,M,M,KLGA 100451Z 07004KT 10SM BKN110 19/16 A3015 RMK AO2 SLP209 T01940156 402780178
LGA,2013-06-10T05:51:00Z,66.92,60.08,78.66,50.00,5,0,30.15,1020.90,10,M,BKN,BKN,M,M,11000.00,25000.00,M,M,M,KLGA 100551Z 05005KT 10SM BKN110 BKN250 19/16 A3015 RMK AO2 SLP209 T01940156 10239 20189 56002
LGA,2013-06-10T06:51:00Z,66.92,60.08,78.66,80.00,4,0,30.15,1020.80,10,M,BKN,BKN,M,M,10000.00,25000.00,M,M,M,KLGA 100651Z 08004KT 10SM BKN100 BKN250 19/16 A3015 RMK AO2 SLP208 T01940156
LGA,2013-06-10T07:51:00Z,66.02,60.98,83.79,50.00,6,0,30.14,1020.60,8,M,OVC,M,M,M,6000.00,M,M,M,M,KLGA 100751Z 05006KT 8SM OVC060 19/16 A3014 RMK AO2 SLP206 T01890161
LGA,2013-06-10T08:51:00Z,66.02,60.98,83.79,60.00,6,0,30.13,1020.40,8,M,BKN,BKN,OVC,M,6000.00,11000.00,25000.00,M,M,KLGA 100851Z 06006KT 8SM BKN060 BKN110 OVC250 19/16 A3013 RMK AO2 SLP204 T01890161 58006
LGA,2013-06-10T09:51:00Z,64.94,60.98,87,50.00,6,0,30.14,1020.50,6,M,BKN,OVC,M,M,4800.00,11000.00,M,M,BR,KLGA 100951Z 05006KT 6SM BR BKN048 OVC110 18/16 A3014 RMK AO2 SLP205 T01830161
LGA,2013-06-10T10:51:00Z,64.94,60.98,87,50.00,6,0,30.14,1020.50,7,M,SCT,BKN,OVC,M,4400.00,12000.00,17000.00,M,M,KLGA 101051Z 05006KT 7SM SCT044 BKN120 OVC170 18/16 A3014 RMK AO2 SLP205 T01830161
LGA,2013-06-10T11:51:00Z,66.02,62.06,87.05,50.00,7,0,30.13,1020.30,6,M,FEW,BKN,OVC,M,4300.00,14000.00,25000.00,M,BR,KLGA 101151Z 05007KT 6SM BR FEW043 BKN140 OVC250 19/17 A3013 RMK AO2 SLP203 T01890167 10194 20183 58001
LGA,2013-06-10T12:51:00Z,66.02,62.06,87.05,50.00,8,0,30.13,1020.40,7,M,FEW,SCT,BKN,OVC,3800.00,10000.00,14000.00,25000.00,M,KLGA 101251Z 05008KT 7SM FEW038 SCT100 BKN140 OVC250 19/17 A3013 RMK AO2 SLP204 T01890167
LGA,2013-06-10T13:51:00Z,66.02,62.96,89.86,50.00,10,0,30.12,1019.80,5,M,FEW,BKN,OVC,M,4100.00,11000.00,14000.00,M,-RA BR,KLGA 101351Z 05010KT 5SM -RA BR FEW041 BKN110 OVC140 19/17 A3012 RMK AO2 RAB00 SLP198 P0000 T01890172
LGA,2013-06-10T14:51:00Z,66.92,62.96,87.1,40.00,7,0,30.12,1019.80,6,M,FEW,BKN,OVC,M,1900.00,5000.00,10000.00,M,-RA BR,KLGA 101451Z 04007KT 6SM -RA BR FEW019 BKN050 OVC100 19/17 A3012 RMK AO2 SLP198 P0000 60000 T01940172 58005
LGA,2013-06-10T15:51:00Z,68,62.96,83.91,110.00,7,0.12,30.12,1020.00,3,M,FEW,SCT,BKN,OVC,700.00,1500.00,4200.00,13000.00,RA,KLGA 101551Z 11007KT 070V150 3SM RA FEW007 SCT015 BKN042 OVC130 20/17 A3012 RMK AO2 SLP200 P0012 T02000172
LGA,2013-06-10T16:01:00Z,68,64.4,88.26,140.00,9,0.06,30.12,M,2,15.00,FEW,SCT,OVC,M,700.00,1500.00,4300.00,M,+RA BR,KLGA 101601Z 14009G15KT 2SM R04/6000VP6000FT +RA BR FEW007 SCT015 OVC043 20/18 A3012 RMK AO2 SFC VIS 2 1/2 P0006
LGA,2013-06-10T16:51:00Z,66.02,62.96,89.86,120.00,10,0.27,30.1,1019.30,2,22.00,FEW,SCT,OVC,M,700.00,1200.00,4900.00,M,RA BR,KLGA 101651Z 12010G22KT 2SM R04/5000VP6000FT RA BR FEW007 SCT012 OVC049 19/17 A3010 RMK AO2 SLP193 P0027 T01890172
LGA,2013-06-10T17:13:00Z,66.2,62.6,88.18,110.00,16,0,30.08,M,5,M,FEW,BKN,OVC,M,1200.00,4700.00,6000.00,M,-RA BR,KLGA 101713Z 11016KT 5SM -RA BR FEW012 BKN047 OVC060 19/17 A3008
LGA,2013-06-10T17:47:00Z,66.2,62.6,88.18,110.00,15,0.02,30.07,M,2.5,M,SCT,BKN,OVC,M,1200.00,4400.00,6000.00,M,+RA,KLGA 101747Z 11015KT 2 1/2SM R04/4000VP6000FT +RA SCT012 BKN044 OVC060 19/17 A3007 RMK AO2 RAE23B40 P0002
LGA,2013-06-10T17:49:00Z,66.2,62.6,88.18,110.00,15,0.04,30.06,M,1.75,M,SCT,BKN,OVC,M,1200.00,4400.00,6000.00,M,+RA,KLGA 101749Z 11015KT 1 3/4SM R04/4000VP6000FT +RA SCT012 BKN044 OVC060 19/17 A3006 RMK AO2 TWR VIS 2 1/2 RAE23B40 P0004
LGA,2013-06-10T17:51:00Z,66.92,62.06,84.38,110.00,15,0.06,30.06,1018.00,2.5,M,FEW,SCT,OVC,M,1200.00,2200.00,6000.00,M,+RA,KLGA 101751Z 11015KT 2 1/2SM R04/4000VP6000FT +RA FEW012 SCT022 OVC060 19/17 A3006 RMK AO2 SFC VIS 3 RAE23B40 SLP180 P0006 60045 T01940167 10206 20189 58018
LGA,2013-06-10T17:58:00Z,66.2,62.6,88.18,100.00,13,0.01,30.06,M,5,M,SCT,BKN,OVC,M,1200.00,3500.00,6000.00,M,-RA,KLGA 101758Z 10013KT 5SM -RA SCT012 BKN035 OVC060 19/17 A3006 RMK AO2 P0001
LGA,2013-06-10T18:17:00Z,66.2,60.8,82.74,120.00,13,0.01,30.05,M,8,24.00,BKN,OVC,M,M,1200.00,3900.00,M,M,-RA,KLGA 101817Z 12013G24KT 8SM -RA BKN012 OVC039 19/16 A3005 RMK AO2 P0001
LGA,2013-06-10T18:46:00Z,68,62.6,82.86,120.00,10,0.01,30.04,M,10,23.00,SCT,OVC,M,M,1200.00,2800.00,M,M,-RA,KLGA 101846Z 12010G23KT 10SM -RA SCT012 OVC028 20/17 A3004 RMK AO2 P0001
LGA,2013-06-10T18:51:00Z,68,60.98,78.25,120.00,14,0.01,30.03,1017.00,10,22.00,FEW,OVC,M,M,1200.00,2800.00,M,M,-RA,KLGA 101851Z 12014G22KT 10SM -RA FEW012 OVC028 20/16 A3003 RMK AO2 SLP170 P0001 T02000161
LGA,2013-06-10T19:27:00Z,66.2,60.8,82.74,110.00,15,0.02,30.02,M,9,22.00,BKN,OVC,M,M,1200.00,2800.00,M,M,-RA,KLGA 101927Z 11015G22KT 9SM -RA BKN012 OVC028 19/16 A3002 RMK AO2 P0002
LGA,2013-06-10T19:51:00Z,66.02,62.06,87.05,110.00,11,0.03,30.01,1016.00,9,18.00,OVC,M,M,M,1000.00,M,M,M,-RA,KLGA 101951Z 11011G18KT 9SM -RA OVC010 19/17 A3001 RMK AO2 SLP160 P0003 T01890167
LGA,2013-06-10T20:48:00Z,66.2,62.6,88.18,110.00,16,0.06,29.98,M,5,23.00,OVC,M,M,M,800.00,M,M,M,RA BR,KLGA 102048Z 11016G23KT 5SM RA BR OVC008 19/17 A2998 RMK AO2 P0006
LGA,2013-06-10T20:51:00Z,66.02,62.06,87.05,120.00,14,0.06,29.98,1015.20,5,20.00,OVC,M,M,M,800.00,M,M,M,RA BR,KLGA 102051Z 12014G20KT 5SM RA BR OVC008 19/17 A2998 RMK AO2 SLP152 P0006 60010 T01890167 56017
LGA,2013-06-10T21:51:00Z,66.92,62.96,87.1,110.00,10,0.04,29.95,1014.10,10,18.00,OVC,M,M,M,800.00,M,M,M,-RA,KLGA 102151Z 11010G18KT 10SM -RA OVC008 19/17 A2995 RMK AO2 SLP141 P0004 T01940172
LGA,2013-06-10T22:04:00Z,66.2,62.6,88.18,110.00,11,0,29.95,M,2,M,OVC,M,M,M,600.00,M,M,M,RA,KLGA 102204Z 11011KT 2SM R04/5500VP6000FT RA OVC006 19/17 A2995
LGA,2013-06-10T22:51:00Z,66.02,62.96,89.86,110.00,9,0.04,29.94,1013.90,2,M,OVC,M,M,M,600.00,M,M,M,RA BR,KLGA 102251Z 11009KT 2SM RA BR OVC006 19/17 A2994 RMK AO2 SFC VIS 4 SLP139 P0004 T01890172
LGA,2013-06-10T23:51:00Z,64.94,62.06,90.39,60.00,7,0.1,29.92,1013.20,2,M,OVC,M,M,M,600.00,M,M,M,-RA BR,KLGA 102351Z 06007KT 2SM -RA BR OVC006 18/17 A2992 RMK AO2 SFC VIS 6 SLP132 P0010 60028 T01830167 10200 20183 56020
LGA,2013-06-11T00:44:00Z,64.4,60.8,88.09,80.00,9,0,29.89,M,2,M,OVC,M,M,M,400.00,M,M,M,RA BR,KLGA 110044Z 08009KT 2SM RA BR OVC004 18/16 A2989
LGA,2013-06-11T00:51:00Z,62.96,60.98,93.25,70.00,8,0.15,29.89,1012.10,2,M,OVC,M,M,M,400.00,M,M,M,RA BR,KLGA 110051Z 07008KT 2SM RA BR OVC004 17/16 A2989 RMK AO2 SFC VIS 5 SLP121 P0015 T01720161
LGA,2013-06-11T01:28:00Z,62.6,60.8,93.83,60.00,11,0.05,29.89,M,2,M,OVC,M,M,M,600.00,M,M,M,-RA BR,KLGA 110128Z 06011KT 2SM -RA BR OVC006 17/16 A2989 RMK AO2 SFC VIS 6 P0005
LGA,2013-06-11T01:49:00Z,62.6,60.8,93.83,60.00,12,0.05,29.89,M,10,M,OVC,M,M,M,600.00,M,M,M,M,KLGA 110149Z 06012KT 10SM OVC006 17/16 A2989 RMK AO2 RAE48 P0005
LGA,2013-06-11T01:51:00Z,62.96,60.08,90.31,60.00,13,0.05,29.89,1012.10,9,M,OVC,M,M,M,600.00,M,M,M,M,KLGA 110151Z 06013KT 9SM OVC006 17/16 A2989 RMK AO2 RAE48 SLP121 P0005 T01720156
LGA,2013-06-11T02:08:00Z,62.6,60.8,93.83,50.00,12,0,29.89,M,4,M,OVC,M,M,M,300.00,M,M,M,BR,KLGA 110208Z 05012KT 4SM BR OVC003 17/16 A2989 RMK AO2
LGA,2013-06-11T02:15:00Z,64.4,60.8,88.09,50.00,12,0,29.89,M,1.75,M,OVC,M,M,M,300.00,M,M,M,-RA BR,KLGA 110215Z 05012KT 1 3/4SM -RA BR OVC003 18/16 A2989 RMK AO2 SFC VIS 2 1/2 RAB15 P0000
LGA,2013-06-11T02:48:00Z,62.6,60.8,93.83,50.00,12,0.01,29.88,M,0.75,M,OVC,M,M,M,300.00,M,M,M,-DZ BR,KLGA 110248Z 05012KT 3/4SM -DZ BR OVC003 17/16 A2988 RMK AO2 SFC VIS 2 RAB15E24DZB33 P0001
LGA,2013-06-11T02:51:00Z,62.06,60.08,93.22,50.00,10,0.01,29.87,1011.60,0.75,M,OVC,M,M,M,300.00,M,M,M,-RA BR,KLGA 110251Z 05010KT 3/4SM -RA BR OVC003 17/16 A2987 RMK AO2 SFC VIS 2 RAB15E24B49DZB33E49 SLP116 P0001 60021 T01670156 58005
LGA,2013-06-11T03:51:00Z,62.06,60.98,96.25,50.00,12,0,29.84,1010.50,0.75,M,OVC,M,M,M,300.00,M,M,M,-DZ BR,KLGA 110351Z 05012KT 3/4SM -DZ BR OVC003 17/16 A2984 RMK AO2 SFC VIS 4 RAE30DZB30 SLP105 P0000 T01670161
LGA,2013-06-11T04:07:00Z,62.6,60.8,93.83,50.00,10,0,29.83,M,1.75,M,OVC,M,M,M,500.00,M,M,M,-DZ BR,KLGA 110407Z 05010KT 1 3/4SM -DZ BR OVC005 17/16 A2983 RMK AO2 SFC VIS 6 P0000
LGA,2013-06-11T04:40:00Z,62.6,60.8,93.83,40.00,11,0.31,29.8,M,3,M,SCT,BKN,OVC,M,500.00,1700.00,2200.00,M,-RA BR,KLGA 110440Z 04011KT 3SM -RA BR SCT005 BKN017 OVC022 17/16 A2980 RMK AO2 SFC VIS 4 DZE08RAB08 P0031
LGA,2013-06-11T04:46:00Z,62.6,60.8,93.83,50.00,8,0.31,29.8,M,3,M,SCT,BKN,OVC,M,500.00,1100.00,1700.00,M,-RA,KLGA 110446Z 05008KT 3SM -RA SCT005 BKN011 OVC017 17/16 A2980 RMK AO2 SFC VIS 7 DZE08RAB08 P0031 402060167
LGA,2013-06-11T04:51:00Z,62.96,60.98,93.25,50.00,9,0.31,29.8,1009.10,3,M,SCT,BKN,OVC,M,500.00,1100.00,1700.00,M,M,KLGA 110451Z 05009KT 3SM SCT005 BKN011 OVC017 17/16 A2980 RMK AO2 SFC VIS 10 DZE08RAB08E50 SLP091 P0031 T01720161 402060167
LGA,2013-06-11T05:21:00Z,62.6,60.8,93.83,50.00,8,0,29.79,M,8,M,OVC,M,M,M,500.00,M,M,M,-RA,KLGA 110521Z 05008KT 8SM -RA OVC005 17/16 A2979 RMK AO2 RAB19 P0000
LGA,2013-06-11T05:45:00Z,64.4,62.6,93.88,60.00,5,0,29.78,M,0.5,M,OVC,M,M,M,300.00,M,M,M,-RA BR,KLGA 110545Z 06005KT 1/2SM -RA BR OVC003 18/17 A2978 RMK AO2 SFC VIS 5 RAB19 P0000
LGA,2013-06-11T05:46:00Z,64.04,62.06,93.28,60.00,5,0,29.78,1008.40,0.5,M,OVC,M,M,M,300.00,M,M,M,-RA BR,KLGA 110546Z 06005KT 1/2SM -RA BR OVC003 18/17 A2978 RMK AO2 SFC VIS 5 RAB19 SLP084 P0000 60052 T01780167 10183 20167 56020
LGA,2013-06-11T06:51:00Z,64.04,62.06,93.28,60.00,7,0.01,29.74,1007.10,0.5,M,OVC,M,M,M,300.00,M,M,M,-RA BR,KLGA 110651Z 06007KT 1/2SM -RA BR OVC003 18/17 A2974 RMK AO2 SFC VIS 4 SLP071 P0001 T01780167
LGA,2013-06-11T07:41:00Z,64.4,62.6,93.88,60.00,5,0.1,29.74,M,1,M,OVC,M,M,M,300.00,M,M,M,RA BR,KLGA 110741Z 06005KT 1SM RA BR OVC003 18/17 A2974 RMK AO2 SFC VIS 4 P0010
LGA,2013-06-11T07:51:00Z,64.04,62.06,93.28,50.00,4,0.11,29.73,1006.90,1,M,OVC,M,M,M,300.00,M,M,M,-RA,KLGA 110751Z 05004KT 1SM -RA OVC003 18/17 A2973 RMK AO2 SFC VIS 8 SLP069 P0011 T01780167
LGA,2013-06-11T07:53:00Z,64.4,62.6,93.88,50.00,5,0,29.73,M,6,M,OVC,M,M,M,600.00,M,M,M,-RA BR,KLGA 110753Z 05005KT 6SM -RA BR OVC006 18/17 A2973 RMK AO2 P0000
LGA,2013-06-11T08:46:00Z,64.4,62.6,93.88,50.00,3,0,29.73,M,10,M,SCT,OVC,M,M,600.00,1300.00,M,M,M,KLGA 110846Z 05003KT 10SM SCT006 OVC013 18/17 A2973 RMK AO2 RAE0756 CIG 006 R22 SW P0000
LGA,2013-06-11T08:51:00Z,64.04,62.06,93.28,90.00,4,0,29.73,1006.70,10,M,FEW,OVC,M,M,600.00,1300.00,M,M,M,KLGA 110851Z 09004KT 10SM FEW006 OVC013 18/17 A2973 RMK AO2 RAE0756 SLP067 P0000 60012 T01780167 56004
LGA,2013-06-11T09:01:00Z,64.4,62.6,93.88,100.00,4,0,29.73,M,10,M,BKN,M,M,M,1500.00,M,M,M,M,KLGA 110901Z 10004KT 10SM BKN015 18/17 A2973 RMK AO2
LGA,2013-06-11T09:51:00Z,64.94,62.96,93.3,0.00,0,0,29.72,1006.50,10,M,BKN,BKN,BKN,M,1500.00,2400.00,25000.00,M,M,KLGA 110951Z 00000KT 10SM BKN015 BKN024 BKN250 18/17 A2972 RMK AO2 SLP065 T01830172
LGA,2013-06-11T10:51:00Z,69.98,66.02,87.26,210.00,7,0,29.73,1006.70,10,M,FEW,SCT,BKN,BKN,1500.00,2900.00,17000.00,25000.00,M,KLGA 111051Z 21007KT 10SM FEW015 SCT029 BKN170 BKN250 21/19 A2973 RMK AO2 SLP067 T02110189
LGA,2013-06-11T11:07:00Z,69.8,66.2,88.34,230.00,8,0,29.73,M,10,M,BKN,BKN,BKN,M,1500.00,2900.00,17000.00,M,M,KLGA 111107Z 23008KT 10SM BKN015 BKN029 BKN170 21/19 A2973 RMK AO2
LGA,2013-06-11T11:51:00Z,71.96,66.02,81.57,230.00,7,0,29.74,1006.90,10,M,BKN,BKN,M,M,1700.00,17000.00,M,M,M,KLGA 111151Z 23007KT 10SM BKN017 BKN170 22/19 A2974 RMK AO2 SLP069 60012 70137 T02220189 10222 20172 53002
LGA,2013-06-11T12:51:00Z,73.94,64.94,73.49,250.00,8,0,29.74,1006.90,10,16.00,BKN,BKN,M,M,1900.00,17000.00,M,M,M,KLGA 111251Z 25008G16KT 10SM BKN019 BKN170 23/18 A2974 RMK AO2 SLP069 T02330183
LGA,2013-06-11T13:27:00Z,73.4,64.4,73.44,250.00,8,0,29.72,M,10,M,SCT,M,M,M,2200.00,M,M,M,M,KLGA 111327Z 25008KT 10SM SCT022 23/18 A2972 RMK AO2
LGA,2013-06-11T13:47:00Z,75.2,64.4,69.14,230.00,10,0,29.73,M,10,M,BKN,M,M,M,2500.00,M,M,M,M,KLGA 111347Z 23010KT 10SM BKN025 24/18 A2973 RMK AO2
LGA,2013-06-11T13:51:00Z,75.02,62.96,66.13,240.00,9,0,29.72,1006.50,10,M,BKN,M,M,M,2500.00,M,M,M,M,KLGA 111351Z 24009KT 10SM BKN025 24/17 A2972 RMK AO2 SLP065 T02390172
LGA,2013-06-11T14:25:00Z,75.2,62.6,64.91,250.00,9,0,29.72,M,10,M,SCT,SCT,M,M,2400.00,3200.00,M,M,M,KLGA 111425Z 25009KT 10SM SCT024 SCT032 24/17 A2972 RMK AO2
LGA,2013-06-11T14:51:00Z,77,62.06,59.98,240.00,5,0,29.71,1006.10,10,16.00,FEW,BKN,M,M,2600.00,3200.00,M,M,M,KLGA 111451Z 24005G16KT 10SM FEW026 BKN032 25/17 A2971 RMK AO2 SLP061 T02500167 58007
LGA,2013-06-11T15:51:00Z,78.08,60.98,55.7,240.00,12,0,29.7,1005.70,10,17.00,BKN,BKN,M,M,3500.00,4300.00,M,M,M,KLGA 111551Z 24012G17KT 10SM BKN035 BKN043 26/16 A2970 RMK AO2 SLP057 T02560161
LGA,2013-06-11T16:51:00Z,80.06,59,48.64,260.00,14,0,29.68,1005.20,10,20.00,SCT,BKN,M,M,3800.00,5500.00,M,M,M,KLGA 111651Z 26014G20KT 10SM SCT038 BKN055TCU 27/15 A2968 RMK AO2 SLP052 TCU NE T02670150
LGA,2013-06-11T17:51:00Z,80.96,60.08,49.09,220.00,12,0,29.65,1004.20,10,19.00,BKN,BKN,M,M,4700.00,6000.00,M,M,M,KLGA 111751Z 22012G19KT 10SM BKN047 BKN060 27/16 A2965 RMK AO2 SLP042 T02720156 10278 20222 58020
LGA,2013-06-11T18:51:00Z,78.98,60.08,52.37,240.00,17,0,29.65,1004.00,10,23.00,BKN,OVC,M,M,4500.00,6000.00,M,M,-RA,KLGA 111851Z 24017G23KT 10SM -RA BKN045 OVC060 26/16 A2965 RMK AO2 RAB22 SLP040 P0000 T02610156
LGA,2013-06-11T19:51:00Z,77,64.04,64.3,270.00,14,0.02,29.63,1003.30,6,24.00,SCT,BKN,BKN,M,3800.00,4800.00,9500.00,M,-RA,KLGA 111951Z 27014G24KT 6SM -RA SCT038 BKN048 BKN095 25/18 A2963 RMK AO2 PK WND 26026/1941 SLP033 P0002 T02500178
LGA,2013-06-11T20:51:00Z,80.06,60.98,52.19,270.00,16,0,29.62,1002.90,10,22.00,FEW,BKN,BKN,M,4000.00,7500.00,25000.00,M,M,KLGA 112051Z 27016G22KT 10SM FEW040 BKN075 BKN250 27/16 A2962 RMK AO2 PK WND 26026/2026 RAE00 SLP029 P0000 60002 T02670161 58013
LGA,2013-06-11T21:51:00Z,80.96,60.98,50.68,260.00,20,0,29.61,1002.50,10,28.00,FEW,BKN,BKN,BKN,4700.00,6000.00,11000.00,25000.00,M,KLGA 112151Z 26020G28KT 10SM FEW047 BKN060 BKN110 BKN250 27/16 A2961 RMK AO2 PK WND 26028/2150 SLP025 T02720161
LGA,2013-06-11T22:51:00Z,73.94,60.08,61.92,310.00,23,0,29.62,1003.10,10,30.00,BKN,BKN,BKN,M,4700.00,6000.00,11000.00,M,M,KLGA 112251Z 31023G30KT 10SM BKN047 BKN060 BKN110 23/16 A2962 RMK AO2 PK WND 26031/2224 SLP031 T02330156
LGA,2013-06-11T23:51:00Z,75.02,60.98,61.66,310.00,12,0,29.64,1003.70,10,23.00,FEW,SCT,M,M,4700.00,9000.00,M,M,M,KLGA 112351Z 31012G23KT 10SM FEW047 SCT090 24/16 A2964 RMK AO2 RAB2254E19 SLP037 P0000 60002 T02390161 10272 20222 53008
LGA,2013-06-12T00:51:00Z,75.92,57.92,53.65,280.00,17,0,29.65,1004.10,10,22.00,FEW,BKN,BKN,M,4500.00,6500.00,11000.00,M,M,KLGA 120051Z 28017G22KT 10SM FEW045 BKN065 BKN110 24/14 A2965 RMK AO2 PK WND 27026/0039 SLP041 T02440144
LGA,2013-06-12T01:51:00Z,73.94,57.92,57.32,290.00,14,0,29.69,1005.30,10,21.00,FEW,SCT,M,M,4500.00,9000.00,M,M,M,KLGA 120151Z 29014G21KT 10SM FEW045 SCT090 23/14 A2969 RMK AO2 PK WND 27027/0054 SLP053 T02330144
LGA,2013-06-12T02:51:00Z,71.96,57.02,59.32,310.00,12,0,29.71,1005.90,10,19.00,BKN,M,M,M,7000.00,M,M,M,M,KLGA 120251Z 31012G19KT 10SM BKN070 22/14 A2971 RMK AO2 SLP059 T02220139 53021
LGA,2013-06-12T03:51:00Z,71.96,55.94,57.05,270.00,13,0,29.71,1006.00,10,19.00,FEW,M,M,M,7000.00,M,M,M,M,KLGA 120351Z 27013G19KT 10SM FEW070 22/13 A2971 RMK AO2 SLP060 T02220133
LGA,2013-06-12T04:51:00Z,71.06,55.04,56.93,300.00,17,0,29.71,1006.20,10,23.00,FEW,M,M,M,7000.00,M,M,M,M,KLGA 120451Z 30017G23KT 10SM FEW070 22/13 A2971 RMK AO2 SLP062 T02170128 402780172
LGA,2013-06-12T05:51:00Z,71.06,55.04,56.93,270.00,10,0,29.71,1006.00,10,M,FEW,M,M,M,5000.00,M,M,M,M,KLGA 120551Z 27010KT 10SM FEW050 22/13 A2971 RMK AO2 SLP060 T02170128 10244 20217 50001
LGA,2013-06-12T06:51:00Z,71.06,57.02,61.16,270.00,11,0,29.7,1005.80,10,19.00,BKN,M,M,M,4500.00,M,M,M,M,KLGA 120651Z 27011G19KT 10SM BKN045 22/14 A2970 RMK AO2 SLP058 T02170139
LGA,2013-06-12T07:51:00Z,69.08,57.92,67.59,300.00,10,0,29.7,1005.80,10,M,FEW,M,M,M,3800.00,M,M,M,M,KLGA 120751Z 30010KT 10SM FEW038 21/14 A2970 RMK AO2 SLP058 T02060144
LGA,2013-06-12T08:51:00Z,68,55.04,63.21,310.00,13,0,29.72,1006.50,10,22.00,SCT,M,M,M,4500.00,M,M,M,M,KLGA 120851Z 31013G22KT 10SM SCT045 20/13 A2972 RMK AO2 SLP065 T02000128 53004
LGA,2013-06-12T09:51:00Z,66.92,51.98,58.65,310.00,15,0,29.74,1007.10,10,27.00,FEW,M,M,M,4000.00,M,M,M,M,KLGA 120951Z 31015G27KT 10SM FEW040 19/11 A2974 RMK AO2 PK WND 31031/0939 SLP071 T01940111
LGA,2013-06-12T10:51:00Z,66.02,51.08,58.53,300.00,17,0,29.76,1007.60,10,24.00,FEW,M,M,M,4000.00,M,M,M,M,KLGA 121051Z 30017G24KT 10SM FEW040 19/11 A2976 RMK AO2 PK WND 31026/1022 SLP076 T01890106
LGA,2013-06-12T11:51:00Z,66.02,48.92,54.01,310.00,16,0,29.77,1008.10,10,27.00,FEW,SCT,M,M,4200.00,17000.00,M,M,M,KLGA 121151Z 31016G27KT 10SM FEW042 SCT170 19/09 A2977 RMK AO2 PK WND 31031/1115 SLP081 70002 T01890094 10217 20189 51016
LGA,2013-06-12T12:51:00Z,66.92,50,54.51,300.00,21,0,29.78,1008.50,10,26.00,FEW,SCT,M,M,4300.00,17000.00,M,M,M,KLGA 121251Z 30021G26KT 10SM FEW043 SCT170 19/10 A2978 RMK AO2 PK WND 32027/1156 SLP085 T01940100
LGA,2013-06-12T13:51:00Z,69.08,50,50.6,320.00,18,0,29.79,1008.60,10,23.00,FEW,SCT,M,M,4200.00,16000.00,M,M,M,KLGA 121351Z 32018G23KT 10SM FEW042 SCT160 21/10 A2979 RMK AO2 PK WND 32029/1319 SLP086 T02060100
LGA,2013-06-12T14:51:00Z,69.98,50,49.07,310.00,13,0,29.79,1008.80,10,22.00,FEW,M,M,M,4300.00,M,M,M,M,KLGA 121451Z 31013G22KT 10SM FEW043 21/10 A2979 RMK AO2 PK WND 32026/1433 SLP088 T02110100 51007
LGA,2013-06-12T15:51:00Z,71.06,50,47.29,310.00,19,0,29.79,1008.90,10,22.00,SCT,M,M,M,4600.00,M,M,M,M,KLGA 121551Z 31019G22KT 10SM SCT046 22/10 A2979 RMK AO2 SLP089 T02170100
LGA,2013-06-12T16:51:00Z,73.04,51.08,46.04,320.00,14,0,29.79,1008.80,10,M,SCT,SCT,M,M,4700.00,25000.00,M,M,M,KLGA 121651Z 32014KT 10SM SCT047 SCT250 23/11 A2979 RMK AO2 SLP088 T02280106
LGA,2013-06-12T17:51:00Z,75.02,50,41.38,310.00,17,0,29.8,1009.10,10,24.00,SCT,BKN,M,M,5000.00,25000.00,M,M,M,KLGA 121751Z 31017G24KT 10SM SCT050 BKN250 24/10 A2980 RMK AO2 PK WND 31026/1710 SLP091 T02390100 10239 20189 53003
LGA,2013-06-12T18:51:00Z,73.94,51.08,44.66,350.00,15,0,29.8,1009.20,10,21.00,SCT,BKN,M,M,5000.00,25000.00,M,M,M,KLGA 121851Z 35015G21KT 10SM SCT050 BKN250 23/11 A2980 RMK AO2 SLP092 T02330106
LGA,2013-06-12T19:51:00Z,75.02,48.92,39.75,330.00,14,0,29.79,1008.90,10,22.00,FEW,BKN,M,M,5000.00,25000.00,M,M,M,KLGA 121951Z 33014G22KT 10SM FEW050 BKN250 24/09 A2979 RMK AO2 SLP089 T02390094
LGA,2013-06-12T20:51:00Z,75.02,48.92,39.75,320.00,12,0,29.8,1009.00,10,18.00,FEW,SCT,M,M,5000.00,25000.00,M,M,M,KLGA 122051Z 32012G18KT 10SM FEW050 SCT250 24/09 A2980 RMK AO2 SLP090 T02390094 58002
LGA,2013-06-12T21:51:00Z,75.02,50,41.38,300.00,12,0,29.81,1009.50,10,18.00,FEW,SCT,M,M,5000.00,25000.00,M,M,M,KLGA 122151Z 30012G18KT 10SM FEW050 SCT250 24/10 A2981 RMK AO2 SLP095 T02390100
LGA,2013-06-12T22:51:00Z,75.92,48.92,38.57,320.00,8,0,29.81,1009.40,10,M,FEW,SCT,M,M,6000.00,15000.00,M,M,M,KLGA 122251Z 32008KT 10SM FEW060 SCT150 24/09 A2981 RMK AO2 SLP094 T02440094
LGA,2013-06-12T23:51:00Z,75.02,50,41.38,320.00,9,0,29.83,1010.10,10,M,FEW,SCT,M,M,6000.00,15000.00,M,M,M,KLGA 122351Z 32009KT 10SM FEW060 SCT150 24/10 A2983 RMK AO2 SLP101 T02390100 10244 20233 53011
LGA,2013-06-13T00:51:00Z,71.96,51.98,49.36,330.00,6,0,29.84,1010.40,10,M,FEW,SCT,SCT,M,6000.00,15000.00,25000.00,M,M,KLGA 130051Z 33006KT 10SM FEW060 SCT150 SCT250 22/11 A2984 RMK AO2 SLP104 T02220111
LGA,2013-06-13T01:51:00Z,73.04,50,44.23,340.00,4,0,29.84,1010.40,10,M,FEW,SCT,SCT,M,6000.00,15000.00,25000.00,M,M,KLGA 130151Z 34004KT 10SM FEW060 SCT150 SCT250 23/10 A2984 RMK AO2 SLP104 T02280100
LGA,2013-06-13T02:51:00Z,71.96,51.08,47.75,0.00,0,0,29.83,1010.10,10,M,FEW,M,M,M,25000.00,M,M,M,M,KLGA 130251Z 00000KT 10SM FEW250 22/11 A2983 RMK AO2 SLP101 T02220106 50001
LGA,2013-06-13T03:51:00Z,69.98,51.98,52.8,0.00,0,0,29.82,1009.80,10,M,FEW,SCT,M,M,15000.00,25000.00,M,M,M,KLGA 130351Z 00000KT 10SM FEW150 SCT250 21/11 A2982 RMK AO2 SLP098 T02110111
LGA,2013-06-13T04:51:00Z,69.98,51.98,52.8,0.00,0,0,29.83,1010.10,10,M,FEW,SCT,M,M,15000.00,25000.00,M,M,M,KLGA 130451Z 00000KT 10SM FEW150 SCT250 21/11 A2983 RMK AO2 SLP101 T02110111 402440189
LGA,2013-06-13T05:51:00Z,69.98,51.98,52.8,160.00,6,0,29.81,1009.40,10,M,FEW,SCT,M,M,15000.00,25000.00,M,M,M,KLGA 130551Z 16006KT 10SM FEW150 SCT250 21/11 A2981 RMK AO2 SLP094 T02110111 10239 20194 58007
LGA,2013-06-13T06:51:00Z,69.08,53.06,56.66,200.00,5,0,29.8,1009.20,10,M,FEW,SCT,M,M,15000.00,25000.00,M,M,M,KLGA 130651Z 20005KT 10SM FEW150 SCT250 21/12 A2980 RMK AO2 SLP092 T02060117
LGA,2013-06-13T07:51:00Z,68,53.06,58.8,190.00,6,0,29.8,1009.10,10,M,SCT,BKN,M,M,6000.00,12000.00,M,M,M,KLGA 130751Z 19006KT 10SM SCT060 BKN120 20/12 A2980 RMK AO2 SLP091 T02000117
LGA,2013-06-13T08:51:00Z,69.08,53.06,56.66,180.00,6,0,29.79,1008.60,10,M,SCT,OVC,M,M,5500.00,11000.00,M,M,M,KLGA 130851Z 18006KT 10SM SCT055 OVC110 21/12 A2979 RMK AO2 SLP086 T02060117 58008
LGA,2013-06-13T09:51:00Z,69.08,51.98,54.45,180.00,6,0,29.79,1008.80,10,M,BKN,OVC,M,M,4900.00,11000.00,M,M,M,KLGA 130951Z 18006KT 10SM BKN049 OVC110 21/11 A2979 RMK AO2 SLP088 T02060111
LGA,2013-06-13T10:51:00Z,71.06,53.06,52.95,M,6,0,29.76,1007.70,10,M,SCT,BKN,OVC,M,4900.00,7500.00,11000.00,M,-RA,KLGA 131051Z VRB06KT 10SM -RA SCT049 BKN075 OVC110 22/12 A2976 RMK AO2 RAB24 SLP077 P0000 T02170117
LGA,2013-06-13T11:51:00Z,69.08,55.04,60.91,M,5,0,29.75,1007.60,10,M,OVC,M,M,M,4800.00,M,M,M,-RA,KLGA 131151Z VRB05KT 10SM -RA OVC048 21/13 A2975 RMK AO2 SLP076 P0000 60000 T02060128 10222 20200 58010
LGA,2013-06-13T12:51:00Z,68,55.04,63.21,120.00,6,0.02,29.75,1007.50,10,M,OVC,M,M,M,5000.00,M,M,M,M,KLGA 131251Z 12006KT 10SM OVC050 20/13 A2975 RMK AO2 RAE35 SLP075 P0002 T02000128
LGA,2013-06-13T13:51:00Z,68,53.96,60.77,130.00,10,0,29.72,1006.30,10,M,FEW,BKN,OVC,M,5000.00,6000.00,10000.00,M,-RA,KLGA 131351Z 13010KT 10SM -RA FEW050 BKN060 OVC100 20/12 A2972 RMK AO2 RAB38 SLP063 P0000 T02000122
LGA,2013-06-13T14:51:00Z,66.02,55.94,69.94,100.00,13,0.05,29.68,1005.10,8,17.00,FEW,BKN,OVC,M,4500.00,5500.00,11000.00,M,-RA,KLGA 131451Z 10013G17KT 8SM -RA FEW045 BKN055 OVC110 19/13 A2968 RMK AO2 SLP051 P0005 60007 T01890133 58025
LGA,2013-06-13T15:51:00Z,64.04,55.04,72.53,140.00,12,0.23,29.67,1004.70,10,18.00,FEW,BKN,OVC,M,1900.00,3200.00,4200.00,M,M,KLGA 131551Z 14012G18KT 100V160 10SM FEW019 BKN032 OVC042 18/13 A2967 RMK AO2 RAE47 SLP047 P0023 T01780128
LGA,2013-06-13T16:04:00Z,64.4,55.4,72.56,130.00,12,0,29.68,M,10,19.00,BKN,OVC,M,M,2000.00,3500.00,M,M,M,KLGA 131604Z 13012G19KT 100V170 10SM BKN020 OVC035 18/13 A2968 RMK AO2
LGA,2013-06-13T16:51:00Z,64.94,55.94,72.62,110.00,16,0,29.63,1003.40,10,24.00,BKN,BKN,OVC,M,1800.00,2400.00,14000.00,M,M,KLGA 131651Z 11016G24KT 10SM BKN018 BKN024 OVC140 18/13 A2963 RMK AO2 PK WND 12028/1641 SLP034 T01830133
LGA,2013-06-13T17:51:00Z,64.04,55.04,72.53,120.00,16,0,29.62,1002.90,10,24.00,OVC,M,M,M,2000.00,M,M,M,M,KLGA 131751Z 12016G24KT 10SM OVC020 18/13 A2962 RMK AO2 PK WND 11027/1727 SLP029 60030 T01780128 10211 20172 58022
LGA,2013-06-13T18:51:00Z,64.94,55.94,72.62,100.00,16,0,29.58,1001.60,10,24.00,OVC,M,M,M,1600.00,M,M,M,M,KLGA 131851Z 10016G24KT 10SM OVC016 18/13 A2958 RMK AO2 SLP016 T01830133
LGA,2013-06-13T19:04:00Z,64.4,55.4,72.56,90.00,15,0,29.58,M,10,21.00,OVC,M,M,M,1400.00,M,M,M,M,KLGA 131904Z 09015G21KT 10SM OVC014 18/13 A2958
LGA,2013-06-13T19:51:00Z,64.94,55.94,72.62,120.00,8,0,29.58,1001.50,10,20.00,OVC,M,M,M,1400.00,M,M,M,M,KLGA 131951Z 12008G20KT 10SM OVC014 18/13 A2958 RMK AO2 SLP015 T01830133
LGA,2013-06-13T20:51:00Z,68,57.92,70.15,100.00,13,0,29.52,999.70,10,M,OVC,M,M,M,1400.00,M,M,M,M,KLGA 132051Z 10013KT 10SM OVC014 20/14 A2952 RMK AO2 SLP997 T02000144 58032
LGA,2013-06-13T21:51:00Z,66.02,59,78.08,100.00,15,0,29.51,999.20,10,M,OVC,M,M,M,1200.00,M,M,M,M,KLGA 132151Z 10015KT 10SM OVC012 19/15 A2951 RMK AO2 SLP992 T01890150
LGA,2013-06-13T22:51:00Z,64.94,59,81.07,70.00,15,0,29.48,998.30,10,M,OVC,M,M,M,1000.00,M,M,M,M,KLGA 132251Z 07015KT 10SM OVC010 18/15 A2948 RMK AO2 SLP983 T01830150
LGA,2013-06-13T23:37:00Z,64.4,60.8,88.09,70.00,13,0.06,29.47,M,2.5,M,OVC,M,M,M,1000.00,M,M,M,RA BR,KLGA 132337Z 07013KT 2 1/2SM RA BR OVC010 18/16 A2947 RMK AO2 RAB21 P0006
LGA,2013-06-13T23:49:00Z,64.4,60.8,88.09,90.00,13,0.08,29.46,M,2.5,19.00,OVC,M,M,M,800.00,M,M,M,RA BR,KLGA 132349Z 09013G19KT 2 1/2SM RA BR OVC008 18/16 A2946 RMK AO2 SFC VIS 3 RAB21 P0008
LGA,2013-06-13T23:51:00Z,62.96,60.08,90.31,90.00,14,0.08,29.46,997.60,2.5,M,OVC,M,M,M,800.00,M,M,M,RA BR,KLGA 132351Z 09014KT 2 1/2SM RA BR OVC008 17/16 A2946 RMK AO2 SFC VIS 3 RAB21 SLP976 P0008 60008 T01720156 10200 20172 55016
LGA,2013-06-14T00:06:00Z,64.4,60.8,88.09,330.00,11,0.05,29.5,M,2,18.00,OVC,M,M,M,600.00,M,M,M,+RA BR,KLGA 140006Z 33011G18KT 2SM R04/6000VP6000FT +RA BR OVC006 18/16 A2950 RMK AO2 PRESRR P0005
LGA,2013-06-14T00:36:00Z,62.6,57.2,82.5,40.00,15,0.33,29.51,M,2,M,BKN,BKN,OVC,M,800.00,1200.00,2600.00,M,-RA BR,KLGA 140036Z 04015KT 2SM -RA BR BKN008 BKN012 OVC026 17/14 A2951 RMK AO2 SFC VIS 5 P0033
LGA,2013-06-14T00:47:00Z,60.8,57.2,87.92,50.00,23,0.34,29.49,M,5,30.00,BKN,BKN,OVC,M,800.00,1300.00,6000.00,M,-RA BR,KLGA 140047Z 05023G30KT 5SM -RA BR BKN008 BKN013 OVC060 16/14 A2949 RMK AO2 PK WND 04030/0047 P0034
LGA,2013-06-14T00:49:00Z,60.8,57.2,87.92,50.00,24,0.34,29.49,M,5,30.00,BKN,BKN,OVC,M,600.00,1300.00,6000.00,M,RA BR,KLGA 140049Z 05024G30KT 5SM RA BR BKN006 BKN013 OVC060 16/14 A2949 RMK AO2 PK WND 04030/0047 P0034
LGA,2013-06-14T00:51:00Z,60.98,57.92,89.65,50.00,23,0.34,29.49,998.60,5,31.00,BKN,BKN,OVC,M,600.00,1300.00,6000.00,M,RA BR,KLGA 140051Z 05023G31KT 5SM RA BR BKN006 BKN013 OVC060 16/14 A2949 RMK AO2 PK WND 05031/0051 SLP986 P0034 T01610144
LGA,2013-06-14T01:41:00Z,59,55.4,87.83,50.00,28,0.05,29.51,M,5,40.00,SCT,BKN,OVC,M,600.00,800.00,3500.00,M,RA BR,KLGA 140141Z 05028G40KT 5SM RA BR SCT006 BKN008 OVC035 15/13 A2951 RMK AO2 PK WND 06040/0140 P0005
LGA,2013-06-14T01:51:00Z,59,55.94,89.57,50.00,25,0.07,29.51,999.10,5,34.00,SCT,BKN,OVC,M,600.00,800.00,3500.00,M,RA BR,KLGA 140151Z 05025G34KT 5SM RA BR SCT006 BKN008 OVC035 15/13 A2951 RMK AO2 PK WND 06040/0140 SLP991 P0007 T01500133
LGA,2013-06-14T02:09:00Z,59,55.4,87.83,50.00,27,0.01,29.5,M,10,33.00,OVC,M,M,M,1000.00,M,M,M,-RA,KLGA 140209Z 05027G33KT 10SM -RA OVC010 15/13 A2950 RMK AO2 PK WND 05034/0152 P0001
LGA,2013-06-14T02:51:00Z,59,55.04,86.69,50.00,23,0.02,29.49,998.60,10,32.00,OVC,M,M,M,1200.00,M,M,M,-RA,KLGA 140251Z 05023G32KT 10SM -RA OVC012 15/13 A2949 RMK AO2 PK WND 06037/0233 SLP986 P0002 60043 T01500128 50010
LGA,2013-06-14T03:51:00Z,57.92,53.96,86.63,50.00,23,0.05,29.51,999.20,8,33.00,OVC,M,M,M,1400.00,M,M,M,-RA,KLGA 140351Z 05023G33KT 8SM -RA OVC014 14/12 A2951 RMK AO2 PK WND 06038/0320 SLP992 P0005 T01440122
LGA,2013-06-14T04:46:00Z,57.2,51.8,82.12,20.00,16,0,29.54,M,10,24.00,OVC,M,M,M,1600.00,M,M,M,-RA,KLGA 140446Z 02016G24KT 10SM -RA OVC016 14/11 A2954 RMK AO2 PK WND 04033/0352 P0000 402220139
LGA,2013-06-14T04:51:00Z,55.94,51.98,86.52,10.00,15,0.01,29.54,1000.30,7,23.00,OVC,M,M,M,1600.00,M,M,M,RA,KLGA 140451Z 01015G23KT 7SM RA OVC016 13/11 A2954 RMK AO2 PK WND 04033/0352 SLP003 P0001 T01330111 402220133
LGA,2013-06-14T05:47:00Z,55.4,51.8,87.65,10.00,14,0.14,29.56,M,2,24.00,FEW,BKN,OVC,M,1200.00,2200.00,2900.00,M,+RA BR,KLGA 140547Z 01014G24KT 2SM +RA BR FEW012 BKN022 OVC029 13/11 A2956 RMK AO2 PK WND 01026/0458 SFC VIS 3 P0014
LGA,2013-06-14T05:51:00Z,55.04,51.98,89.4,360.00,14,0.15,29.56,1001.10,2,24.00,FEW,BKN,OVC,M,1200.00,2500.00,3200.00,M,+RA BR,KLGA 140551Z 36014G24KT 2SM +RA BR FEW012 BKN025 OVC032 13/11 A2956 RMK AO2 PK WND 01026/0458 SFC VIS 3 SLP011 P0015 60064 T01280111 10178 20128 51019
LGA,2013-06-14T06:23:00Z,55.4,51.8,87.65,20.00,17,0.05,29.58,M,6,26.00,FEW,BKN,OVC,M,1300.00,4600.00,5500.00,M,-RA,KLGA 140623Z 02017G26KT 6SM -RA FEW013 BKN046 OVC055 13/11 A2958 RMK AO2 PK WND 04030/0604 P0005
LGA,2013-06-14T06:39:00Z,55.4,51.8,87.65,10.00,11,0.06,29.58,M,7,19.00,SCT,BKN,OVC,M,1300.00,2000.00,5500.00,M,-RA,KLGA 140639Z 01011G19KT 7SM -RA SCT013 BKN020 OVC055 13/11 A2958 RMK AO2 PK WND 04030/0604 P0006
LGA,2013-06-14T06:51:00Z,55.94,51.98,86.52,360.00,12,0.07,29.59,1001.90,7,M,FEW,BKN,OVC,M,1100.00,2000.00,5500.00,M,RA,KLGA 140651Z 36012KT 7SM RA FEW011 BKN020 OVC055 13/11 A2959 RMK AO2 PK WND 04030/0604 SLP019 P0007 T01330111
LGA,2013-06-14T07:51:00Z,55.04,51.08,86.47,20.00,14,0.03,29.59,1002.10,10,M,FEW,OVC,M,M,1100.00,2800.00,M,M,-RA,KLGA 140751Z 02014KT 10SM -RA FEW011 OVC028 13/11 A2959 RMK AO2 SLP021 P0003 T01280106
LGA,2013-06-14T08:08:00Z,55.4,51.8,87.65,360.00,10,0,29.61,M,10,17.00,FEW,OVC,M,M,1400.00,3100.00,M,M,-RA,KLGA 140808Z 36010G17KT 10SM -RA FEW014 OVC031 13/11 A2961
LGA,2013-06-14T08:51:00Z,55.04,50,83.08,350.00,15,0.01,29.62,1002.80,10,21.00,FEW,OVC,M,M,1900.00,3900.00,M,M,-RA,KLGA 140851Z 35015G21KT 10SM -RA FEW019 OVC039 13/10 A2962 RMK AO2 SLP028 P0001 60011 T01280100 51018
LGA,2013-06-14T09:30:00Z,55.4,50,81.99,360.00,16,0,29.64,M,10,22.00,FEW,BKN,OVC,M,2100.00,2800.00,3200.00,M,M,KLGA 140930Z 36016G22KT 10SM FEW021 BKN028 OVC032 13/10 A2964 RMK AO2 RAE27 P0000
LGA,2013-06-14T09:41:00Z,55.4,50,81.99,350.00,14,0,29.64,M,10,19.00,SCT,OVC,M,M,2800.00,3200.00,M,M,M,KLGA 140941Z 35014G19KT 10SM SCT028 OVC032 13/10 A2964 RMK AO2 RAE27 P0000
LGA,2013-06-14T09:51:00Z,55.94,50,80.4,360.00,14,0,29.65,1003.90,10,22.00,SCT,OVC,M,M,2400.00,3400.00,M,M,M,KLGA 140951Z 36014G22KT 10SM SCT024 OVC034 13/10 A2965 RMK AO2 RAE27 SLP039 P0000 T01330100
LGA,2013-06-14T10:51:00Z,55.94,50,80.4,360.00,11,0,29.69,1005.20,10,18.00,FEW,BKN,OVC,M,2300.00,3900.00,4900.00,M,M,KLGA 141051Z 36011G18KT 10SM FEW023 BKN039 OVC049 13/10 A2969 RMK AO2 SLP052 T01330100
LGA,2013-06-14T11:51:00Z,57.02,48.92,74.27,10.00,12,0,29.69,1005.50,10,20.00,FEW,BKN,OVC,M,2400.00,4900.00,7500.00,M,M,KLGA 141151Z 01012G20KT 10SM FEW024 BKN049 OVC075 14/09 A2969 RMK AO2 RAB1052E28 SLP055 P0000 60011 70113 T01390094 10139 20128 51027
LGA,2013-06-14T12:51:00Z,59,48.92,69.17,10.00,13,0,29.71,1006.00,10,18.00,FEW,BKN,OVC,M,4200.00,6000.00,7000.00,M,M,KLGA 141251Z 01013G18KT 10SM FEW042 BKN060 OVC070 15/09 A2971 RMK AO2 SLP060 T01500094
LGA,2013-06-14T13:51:00Z,59,48.92,69.17,340.00,14,0,29.75,1007.20,10,19.00,FEW,OVC,M,M,4700.00,8500.00,M,M,-RA,KLGA 141351Z 34014G19KT 10SM -RA FEW047 OVC085 15/09 A2975 RMK AO2 RAB30 SLP072 P0000 T01500094
LGA,2013-06-14T14:51:00Z,60.98,48.02,62.33,350.00,9,0,29.78,1008.50,10,16.00,SCT,BKN,BKN,M,3200.00,6500.00,14000.00,M,M,KLGA 141451Z 35009G16KT 10SM SCT032 BKN065 BKN140 16/09 A2978 RMK AO2 RAE05 SLP085 P0000 60000 T01610089 53030
LGA,2013-06-14T15:51:00Z,62.96,48.92,60.11,30.00,10,0,29.79,1008.80,10,M,SCT,BKN,BKN,BKN,3100.00,4800.00,6000.00,14000.00,M,KLGA 141551Z 03010KT 10SM SCT031 BKN048 BKN060 BKN140 17/09 A2979 RMK AO2 SLP088 T01720094
LGA,2013-06-14T16:51:00Z,64.04,48.92,57.87,60.00,6,0,29.79,1008.80,10,M,SCT,BKN,BKN,BKN,3400.00,4200.00,5500.00,14000.00,M,KLGA 141651Z 06006KT 10SM SCT034 BKN042 BKN055 BKN140 18/09 A2979 RMK AO2 SLP088 T01780094
LGA,2013-06-14T17:51:00Z,66.92,50,54.51,0.00,0,0,29.79,1008.80,10,M,FEW,SCT,BKN,M,4000.00,6000.00,16000.00,M,M,KLGA 141751Z 00000KT 10SM FEW040 SCT060 BKN160 19/10 A2979 RMK AO2 SLP088 60000 T01940100 10194 20139 51003
LGA,2013-06-14T18:51:00Z,69.98,50,49.07,0.00,0,0,29.79,1008.60,10,M,SCT,BKN,M,M,5000.00,16000.00,M,M,M,KLGA 141851Z 00000KT 10SM SCT050 BKN160 21/10 A2979 RMK AO2 SLP086 T02110100
LGA,2013-06-14T19:51:00Z,73.04,51.08,46.04,300.00,4,0,29.77,1007.90,10,M,SCT,SCT,M,M,5000.00,15000.00,M,M,M,KLGA 141951Z 30004KT 10SM SCT050 SCT150 23/11 A2977 RMK AO2 SLP079 T02280106
LGA,2013-06-14T20:51:00Z,73.04,51.08,46.04,M,5,0,29.77,1008.10,10,M,FEW,SCT,SCT,M,5000.00,9000.00,15000.00,M,M,KLGA 142051Z VRB05KT 10SM FEW050 SCT090 SCT150 23/11 A2977 RMK AO2 SLP081 T02280106 55007
LGA,2013-06-14T21:51:00Z,71.06,51.98,50.89,230.00,11,0,29.78,1008.50,10,M,BKN,BKN,OVC,M,5500.00,15000.00,25000.00,M,M,KLGA 142151Z 23011KT 10SM BKN055 BKN150 OVC250 22/11 A2978 RMK AO2 SLP085 T02170111
LGA,2013-06-14T22:51:00Z,71.06,51.98,50.89,310.00,13,0,29.8,1009.00,10,M,SCT,SCT,BKN,M,5500.00,11000.00,25000.00,M,M,KLGA 142251Z 31013KT 10SM SCT055 SCT110 BKN250 22/11 A2980 RMK AO2 SLP090 TCU DSNT E T02170111
LGA,2013-06-14T23:51:00Z,69.98,48.92,47.13,330.00,10,0,29.83,1009.90,10,M,FEW,SCT,SCT,M,5000.00,10000.00,25000.00,M,M,KLGA 142351Z 33010KT 10SM FEW050 SCT100 SCT250 21/09 A2983 RMK AO2 SLP099 T02110094 10239 20194 53018
LGA,2013-06-15T00:51:00Z,68,51.98,56.51,300.00,6,0,29.84,1010.30,10,M,FEW,SCT,SCT,M,5000.00,11000.00,25000.00,M,M,KLGA 150051Z 30006KT 10SM FEW050 SCT110 SCT250 20/11 A2984 RMK AO2 SLP103 T02000111
LGA,2013-06-15T01:51:00Z,68,51.98,56.51,300.00,8,0,29.85,1010.80,10,M,FEW,SCT,SCT,M,5000.00,10000.00,25000.00,M,M,KLGA 150151Z 30008KT 10SM FEW050 SCT100 SCT250 20/11 A2985 RMK AO2 SLP108 T02000111
LGA,2013-06-15T02:51:00Z,66.92,53.96,63.08,300.00,10,0,29.87,1011.40,10,M,FEW,M,M,M,7000.00,M,M,M,M,KLGA 150251Z 30010KT 10SM FEW070 19/12 A2987 RMK AO2 SLP114 T01940122 53015
LGA,2013-06-15T03:51:00Z,66.92,53.96,63.08,300.00,10,0,29.87,1011.60,10,M,CLR,M,M,M,M,M,M,M,M,KLGA 150351Z 30010KT 10SM CLR 19/12 A2987 RMK AO2 SLP116 T01940122
LGA,2013-06-15T04:51:00Z,66.02,55.04,67.69,310.00,6,0,29.88,1011.90,10,M,CLR,M,M,M,M,M,M,M,M,KLGA 150451Z 31006KT 10SM CLR 19/13 A2988 RMK AO2 SLP119 T01890128 402390128
LGA,2013-06-15T05:51:00Z,66.02,53.96,65.07,310.00,7,0,29.89,1012.10,10,M,CLR,M,M,M,M,M,M,M,M,KLGA 150551Z 31007KT 10SM CLR 19/12 A2989 RMK AO2 SLP121 T01890122 10211 20189 52007
LGA,2013-06-15T06:51:00Z,66.02,53.96,65.07,320.00,9,0,29.9,1012.40,10,M,CLR,M,M,M,M,M,M,M,M,KLGA 150651Z 32009KT 10SM CLR 19/12 A2990 RMK AO2 SLP124 T01890122
LGA,2013-06-15T07:51:00Z,66.02,53.96,65.07,310.00,10,0,29.9,1012.60,10,M,CLR,M,M,M,M,M,M,M,M,KLGA 150751Z 31010KT 10SM CLR 19/12 A2990 RMK AO2 SLP126 T01890122
LGA,2013-06-15T08:51:00Z,64.94,53.06,65.37,320.00,8,0,29.92,1013.00,10,M,CLR,M,M,M,M,M,M,M,M,KLGA 150851Z 32008KT 10SM CLR 18/12 A2992 RMK AO2 SLP130 T01830117 53009
LGA,2013-06-15T09:51:00Z,64.94,53.96,67.57,310.00,6,0,29.93,1013.50,10,M,CLR,M,M,M,M,M,M,M,M,KLGA 150951Z 31006KT 10SM CLR 18/12 A2993 RMK AO2 SLP135 T01830122
LGA,2013-06-15T10:51:00Z,64.94,53.06,65.37,330.00,6,0,29.95,1014.10,10,M,FEW,M,M,M,25000.00,M,M,M,M,KLGA 151051Z 33006KT 10SM FEW250 18/12 A2995 RMK AO2 SLP141 T01830117
LGA,2013-06-15T11:51:00Z,66.02,53.96,65.07,310.00,10,0,29.96,1014.40,10,M,FEW,M,M,M,25000.00,M,M,M,M,KLGA 151151Z 31010KT 10SM FEW250 19/12 A2996 RMK AO2 SLP144 T01890122 10189 20178 51014
LGA,2013-06-15T12:51:00Z,69.08,53.96,58.56,320.00,9,0,29.99,1015.50,10,M,FEW,M,M,M,25000.00,M,M,M,M,KLGA 151251Z 32009KT 10SM FEW250 21/12 A2999 RMK AO2 SLP155 T02060122
LGA,2013-06-15T13:51:00Z,71.96,53.06,51.36,310.00,8,0,30,1015.80,10,M,FEW,M,M,M,25000.00,M,M,M,M,KLGA 151351Z 31008KT 10SM FEW250 22/12 A3000 RMK AO2 SLP158 T02220117
LGA,2013-06-15T14:51:00Z,73.94,48.92,41.21,310.00,5,0,29.98,1015.20,10,M,FEW,M,M,M,25000.00,M,M,M,M,KLGA 151451Z 31005KT 10SM FEW250 23/09 A2998 RMK AO2 SLP152 T02330094 50008
LGA,2013-06-15T15:51:00Z,75.92,44.96,33.22,320.00,7,0,29.98,1015.30,10,M,FEW,SCT,M,M,6000.00,25000.00,M,M,M,KLGA 151551Z 32007KT 10SM FEW060 SCT250 24/07 A2998 RMK AO2 SLP153 T02440072
LGA,2013-06-15T16:51:00Z,77,44.96,32.05,330.00,8,0,29.96,1014.60,10,M,FEW,SCT,M,M,7500.00,25000.00,M,M,M,KLGA 151651Z 33008KT 10SM FEW075 SCT250 25/07 A2996 RMK AO2 SLP146 T02500072
LGA,2013-06-15T17:51:00Z,78.08,46.04,32.22,320.00,11,0,29.96,1014.50,10,17.00,SCT,SCT,M,M,7500.00,25000.00,M,M,M,KLGA 151751Z 32011G17KT 10SM SCT075 SCT250 26/08 A2996 RMK AO2 SLP145 T02560078 10261 20189 58007
LGA,2013-06-15T18:51:00Z,78.98,46.04,31.28,330.00,7,0,29.94,1013.90,10,M,SCT,SCT,M,M,8000.00,25000.00,M,M,M,KLGA 151851Z 33007KT 10SM SCT080 SCT250 26/08 A2994 RMK AO2 SLP139 T02610078
LGA,2013-06-15T19:51:00Z,78.98,50,36.29,310.00,8,0,29.93,1013.40,10,M,BKN,M,M,M,7000.00,M,M,M,M,KLGA 151951Z 31008KT 10SM BKN070 26/10 A2993 RMK AO2 SLP134 T02610100
LGA,2013-06-15T20:51:00Z,80.96,48.02,31.59,260.00,10,0,29.92,1013.10,10,15.00,BKN,M,M,M,7000.00,M,M,M,M,KLGA 152051Z 26010G15KT 10SM BKN070 27/09 A2992 RMK AO2 SLP131 T02720089 56014
LGA,2013-06-15T21:51:00Z,78.98,48.02,33.7,290.00,6,0,29.92,1013.20,10,M,SCT,SCT,M,M,7500.00,25000.00,M,M,M,KLGA 152151Z 29006KT 10SM SCT075 SCT250 26/09 A2992 RMK AO2 SLP132 T02610089
LGA,2013-06-15T22:51:00Z,80.06,44.96,28.98,310.00,7,0,29.93,1013.30,10,M,SCT,SCT,M,M,7000.00,25000.00,M,M,M,KLGA 152251Z 31007KT 10SM SCT070 SCT250 27/07 A2993 RMK AO2 SLP133 T02670072
LGA,2013-06-15T23:51:00Z,78.98,44.96,30.02,290.00,8,0,29.93,1013.40,10,M,FEW,SCT,M,M,7000.00,25000.00,M,M,M,KLGA 152351Z 29008KT 10SM FEW070 SCT250 26/07 A2993 RMK AO2 SLP134 T02610072 10278 20250 51003
LGA,2013-06-16T00:51:00Z,75.92,48.92,38.57,320.00,6,0,29.94,1013.90,10,M,FEW,SCT,M,M,7500.00,25000.00,M,M,M,KLGA 160051Z 32006KT 10SM FEW075 SCT250 24/09 A2994 RMK AO2 SLP139 T02440094
LGA,2013-06-16T01:51:00Z,75.02,48.92,39.75,0.00,0,0,29.96,1014.50,10,M,FEW,SCT,M,M,7500.00,25000.00,M,M,M,KLGA 160151Z 00000KT 10SM FEW075 SCT250 24/09 A2996 RMK AO2 SLP145 T02390094
LGA,2013-06-16T02:51:00Z,75.92,46.94,35.81,280.00,3,0,29.97,1014.70,10,M,SCT,M,M,M,25000.00,M,M,M,M,KLGA 160251Z 28003KT 10SM SCT250 24/08 A2997 RMK AO2 SLP147 T02440083 51013
LGA,2013-06-16T03:51:00Z,73.04,53.06,49.52,300.00,4,0,29.97,1014.90,10,M,SCT,M,M,M,25000.00,M,M,M,M,KLGA 160351Z 30004KT 10SM SCT250 23/12 A2997 RMK AO2 SLP149 T02280117
LGA,2013-06-16T04:51:00Z,73.04,51.08,46.04,300.00,3,0,29.97,1014.80,10,M,SCT,M,M,M,25000.00,M,M,M,M,KLGA 160451Z 30003KT 10SM SCT250 23/11 A2997 RMK AO2 SLP148 T02280106 402780178
LGA,2013-06-16T05:51:00Z,71.96,50,45.87,290.00,4,0,29.97,1015.00,10,M,FEW,M,M,M,25000.00,M,M,M,M,KLGA 160551Z 29004KT 10SM FEW250 22/10 A2997 RMK AO2 SLP150 T02220100 10261 20217 51003
LGA,2013-06-16T06:51:00Z,69.98,51.08,51.07,0.00,0,0,29.98,1015.10,10,M,CLR,M,M,M,M,M,M,M,M,KLGA 160651Z 00000KT 10SM CLR 21/11 A2998 RMK AO2 SLP151 T02110106
LGA,2013-06-16T07:51:00Z,69.08,51.98,54.45,310.00,6,0,29.98,1015.10,10,M,CLR,M,M,M,M,M,M,M,M,KLGA 160751Z 31006KT 10SM CLR 21/11 A2998 RMK AO2 SLP151 T02060111
LGA,2013-06-16T08:51:00Z,69.08,48.02,46.99,0.00,0,0,29.97,1014.80,10,M,SCT,M,M,M,25000.00,M,M,M,M,KLGA 160851Z 00000KT 10SM SCT250 21/09 A2997 RMK AO2 SLP148 T02060089 58002
LGA,2013-06-16T09:51:00Z,69.08,48.02,46.99,0.00,0,0,29.96,1014.60,10,M,SCT,BKN,M,M,19000.00,25000.00,M,M,M,KLGA 160951Z 00000KT 10SM SCT190 BKN250 21/09 A2996 RMK AO2 SLP146 T02060089
LGA,2013-06-16T10:51:00Z,69.98,48.92,47.13,0.00,0,0,29.97,1014.70,10,M,SCT,BKN,BKN,M,8500.00,17000.00,25000.00,M,M,KLGA 161051Z 00000KT 10SM SCT085 BKN170 BKN250 21/09 A2997 RMK AO2 SLP147 T02110094
LGA,2013-06-16T11:51:00Z,69.98,50,49.07,220.00,5,0,29.97,1014.90,10,M,SCT,BKN,BKN,M,8000.00,16000.00,25000.00,M,M,KLGA 161151Z 22005KT 10SM SCT080 BKN160 BKN250 21/10 A2997 RMK AO2 SLP149 T02110100 10217 20200 53001
LGA,2013-06-16T12:51:00Z,71.06,51.08,49.23,220.00,3,0,29.96,1014.40,10,M,FEW,SCT,SCT,BKN,4400.00,8000.00,11000.00,13000.00,-RA,KLGA 161251Z 22003KT 10SM -RA FEW044 SCT080 SCT110 BKN130 BKN250 22/11 A2996 RMK AO2 RAB26 SLP144 P0000 T02170106
LGA,2013-06-16T13:51:00Z,73.04,48.92,42.48,210.00,4,0,29.93,1013.60,10,M,FEW,SCT,BKN,BKN,5000.00,7500.00,11000.00,13000.00,M,KLGA 161351Z 21004KT 10SM FEW050 SCT075 BKN110 BKN130 BKN250 23/09 A2993 RMK AO2 RAE1257 SLP136 P0000 T02280094
LGA,2013-06-16T14:51:00Z,77,48.02,35.98,210.00,9,0,29.92,1013.00,10,M,FEW,SCT,BKN,BKN,5500.00,7500.00,11000.00,25000.00,M,KLGA 161451Z 21009KT 10SM FEW055 SCT075 BKN110 BKN250 25/09 A2992 RMK AO2 RAB11E23 SLP130 P0000 60000 T02500089 58019
LGA,2013-06-16T15:51:00Z,80.06,44.96,28.98,240.00,12,0,29.88,1011.80,10,17.00,FEW,SCT,SCT,BKN,7500.00,10000.00,14000.00,18000.00,M,KLGA 161551Z 24012G17KT 10SM FEW075 SCT100 SCT140 BKN180 BKN250 27/07 A2988 RMK AO2 SLP118 T02670072
LGA,2013-06-16T16:51:00Z,80.96,46.94,30.33,190.00,14,0,29.86,1011.00,10,20.00,FEW,SCT,SCT,BKN,7000.00,10000.00,13000.00,17000.00,M,KLGA 161651Z 19014G20KT 10SM FEW070 SCT100 SCT130 BKN170 BKN250 27/08 A2986 RMK AO2 SLP110 T02720083
LGA,2013-06-16T17:51:00Z,80.06,53.96,40.54,170.00,8,0,29.82,1009.80,10,M,FEW,SCT,BKN,BKN,7000.00,8500.00,12000.00,16000.00,M,KLGA 161751Z 17008KT 10SM FEW070 SCT085 BKN120 BKN160 BKN250 27/12 A2982 RMK AO2 SLP098 60000 T02670122 10272 20211 58033
LGA,2013-06-16T18:51:00Z,80.06,59,48.64,160.00,13,0,29.78,1008.60,10,M,FEW,SCT,BKN,BKN,8000.00,12000.00,18000.00,25000.00,M,KLGA 161851Z 16013KT 10SM FEW080 SCT120 BKN180 BKN250 27/15 A2978 RMK AO2 SLP086 T02670150
LGA,2013-06-16T19:51:00Z,82.04,57.92,43.87,210.00,11,0,29.78,1008.40,10,20.00,FEW,SCT,BKN,M,8000.00,12000.00,18000.00,M,M,KLGA 161951Z 21011G20KT 190V250 10SM FEW080 SCT120 BKN180 28/14 A2978 RMK AO2 SLP084 T02780144
LGA,2013-06-16T20:51:00Z,82.04,57.92,43.87,250.00,14,0,29.78,1008.40,10,21.00,BKN,BKN,OVC,M,7000.00,8000.00,20000.00,M,M,KLGA 162051Z 25014G21KT 10SM BKN070 BKN080 OVC200 28/14 A2978 RMK AO2 SLP084 T02780144 56014
LGA,2013-06-16T21:51:00Z,82.04,59,45.6,230.00,11,0,29.77,1008.00,10,20.00,BKN,BKN,OVC,M,6000.00,7500.00,20000.00,M,M,KLGA 162151Z 23011G20KT 10SM BKN060 BKN075 OVC200 28/15 A2977 RMK AO2 SLP080 T02780150
LGA,2013-06-16T22:51:00Z,80.96,57.92,45.44,260.00,18,0,29.77,1008.20,10,27.00,FEW,SCT,BKN,M,5500.00,7500.00,16000.00,M,M,KLGA 162251Z 26018G27KT 10SM FEW055 SCT075 BKN160 27/14 A2977 RMK AO2 PK WND 25028/2225 SLP082 T02720144
LGA,2013-06-16T23:51:00Z,80.06,60.08,50.55,250.00,16,0,29.79,1008.80,10,23.00,FEW,SCT,SCT,BKN,4600.00,8000.00,16000.00,25000.00,M,KLGA 162351Z 25016G23KT 10SM FEW046 SCT080 SCT160 BKN250 27/16 A2979 RMK AO2 PK WND 27026/2314 SLP088 T02670156 10300 20261 53005
LGA,2013-06-17T00:51:00Z,78.08,60.98,55.7,250.00,10,0,29.8,1009.00,10,18.00,FEW,SCT,SCT,M,5000.00,16000.00,25000.00,M,M,KLGA 170051Z 25010G18KT 10SM FEW050 SCT160 SCT250 26/16 A2980 RMK AO2 PK WND 28026/0017 SLP090 T02560161
LGA,2013-06-17T01:51:00Z,78.08,62.06,57.87,250.00,12,0,29.82,1009.80,10,M,FEW,SCT,BKN,M,5000.00,16000.00,25000.00,M,M,KLGA 170151Z 25012KT 10SM FEW050 SCT160 BKN250 26/17 A2982 RMK AO2 SLP098 T02560167
LGA,2013-06-17T02:51:00Z,75.92,62.96,64.17,260.00,8,0,29.84,1010.30,10,17.00,FEW,SCT,BKN,M,5500.00,16000.00,25000.00,M,M,KLGA 170251Z 26008G17KT 10SM FEW055 SCT160 BKN250 24/17 A2984 RMK AO2 SLP103 T02440172 53015
LGA,2013-06-17T03:51:00Z,75.02,62.96,66.13,260.00,10,0,29.84,1010.50,10,M,FEW,SCT,SCT,M,5500.00,16000.00,25000.00,M,M,KLGA 170351Z 26010KT 10SM FEW055 SCT160 SCT250 24/17 A2984 RMK AO2 SLP105 T02390172
LGA,2013-06-17T04:51:00Z,75.02,62.96,66.13,270.00,7,0,29.85,1010.70,10,M,FEW,SCT,SCT,M,5500.00,15000.00,25000.00,M,M,KLGA 170451Z 27007KT 10SM FEW055 SCT150 SCT250 24/17 A2985 RMK AO2 SLP107 T02390172 403000200
LGA,2013-06-17T05:51:00Z,73.04,62.96,70.68,0.00,0,0,29.86,1011.00,10,M,FEW,SCT,BKN,M,5000.00,15000.00,25000.00,M,M,KLGA 170551Z 00000KT 10SM FEW050 SCT150 BKN250 23/17 A2986 RMK AO2 SLP110 T02280172 10267 20228 53006
LGA,2013-06-17T06:51:00Z,73.04,62.96,70.68,190.00,4,0,29.86,1011.00,10,M,CLR,M,M,M,M,M,M,M,M,KLGA 170651Z 19004KT 10SM CLR 23/17 A2986 RMK AO2 SLP110 T02280172
LGA,2013-06-17T07:51:00Z,71.96,62.96,73.3,210.00,4,0,29.87,1011.40,10,M,FEW,BKN,M,M,14000.00,25000.00,M,M,M,KLGA 170751Z 21004KT 10SM FEW140 BKN250 22/17 A2987 RMK AO2 SLP114 T02220172
LGA,2013-06-17T08:51:00Z,71.06,62.96,75.57,190.00,7,0,29.88,1011.70,10,M,FEW,BKN,M,M,14000.00,25000.00,M,M,M,KLGA 170851Z 19007KT 10SM FEW140 BKN250 22/17 A2988 RMK AO2 SLP117 T02170172 53007
LGA,2013-06-17T09:51:00Z,71.06,62.96,75.57,220.00,6,0,29.88,1012.00,10,M,FEW,BKN,M,M,14000.00,25000.00,M,M,M,KLGA 170951Z 22006KT 10SM FEW140 BKN250 22/17 A2988 RMK AO2 SLP120 T02170172
LGA,2013-06-17T10:51:00Z,71.96,62.96,73.3,230.00,6,0,29.9,1012.50,10,M,SCT,BKN,M,M,14000.00,22000.00,M,M,M,KLGA 171051Z 23006KT 10SM SCT140 BKN220 22/17 A2990 RMK AO2 SLP125 T02220172
LGA,2013-06-17T11:51:00Z,73.04,62.96,70.68,230.00,8,0,29.9,1012.60,10,M,BKN,BKN,BKN,M,10000.00,16000.00,25000.00,M,M,KLGA 171151Z 23008KT 10SM BKN100 BKN160 BKN250 23/17 A2990 RMK AO2 SLP126 T02280172 10233 20217 51009
LGA,2013-06-17T12:51:00Z,75.92,62.06,62.17,250.00,9,0,29.91,1012.60,10,M,SCT,BKN,M,M,10000.00,25000.00,M,M,M,KLGA 171251Z 25009KT 10SM SCT100 BKN250 24/17 A2991 RMK AO2 SLP126 T02440167
LGA,2013-06-17T13:51:00Z,77,62.96,61.91,200.00,8,0,29.9,1012.40,10,M,SCT,SCT,M,M,10000.00,25000.00,M,M,M,KLGA 171351Z 20008KT 10SM SCT100 SCT250 25/17 A2990 RMK AO2 SLP124 T02500172
LGA,2013-06-17T14:51:00Z,80.96,60.98,50.68,M,5,0,29.88,1011.80,10,M,FEW,SCT,SCT,M,4800.00,10000.00,25000.00,M,M,KLGA 171451Z VRB05KT 10SM FEW048 SCT100 SCT250 27/16 A2988 RMK AO2 SLP118 T02720161 58007
LGA,2013-06-17T15:51:00Z,82.94,60.98,47.52,210.00,13,0,29.87,1011.60,10,17.00,SCT,M,M,M,4600.00,M,M,M,M,KLGA 171551Z 21013G17KT 10SM SCT046 28/16 A2987 RMK AO2 SLP116 T02830161
LGA,2013-06-17T16:51:00Z,84.02,60.98,45.9,210.00,10,0,29.87,1011.50,10,M,SCT,M,M,M,6000.00,M,M,M,M,KLGA 171651Z 21010KT 180V250 10SM SCT060 29/16 A2987 RMK AO2 SLP115 T02890161
LGA,2013-06-17T17:51:00Z,84.92,60.98,44.59,210.00,10,0,29.85,1010.80,10,M,FEW,SCT,M,M,5000.00,6500.00,M,M,M,KLGA 171751Z 21010KT 10SM FEW050 SCT065TCU 29/16 A2985 RMK AO2 SLP108 TCU N-NE T02940161 10300 20228 58010
LGA,2013-06-17T18:51:00Z,86,60.08,41.71,220.00,10,0,29.84,1010.40,10,17.00,SCT,SCT,BKN,M,6500.00,10000.00,25000.00,M,M,KLGA 171851Z 22010G17KT 10SM SCT065 SCT100 BKN250 30/16 A2984 RMK AO2 SLP104 T03000156
LGA,2013-06-17T19:51:00Z,77,62.06,59.98,230.00,12,0,29.85,1010.70,10,22.00,SCT,SCT,BKN,M,3000.00,5500.00,11000.00,M,-RA,KLGA 171951Z 23012G22KT 10SM -RA SCT030 SCT055 BKN110 25/17 A2985 RMK AO2 RAB24 SLP107 P0000 T02500167
LGA,2013-06-17T20:51:00Z,82.94,60.08,46.03,200.00,7,0,29.84,1010.30,10,M,SCT,SCT,BKN,M,5000.00,13000.00,25000.00,M,M,KLGA 172051Z 20007KT 10SM SCT050 SCT130 BKN250 28/16 A2984 RMK AO2 RAE1956 SLP103 P0000 60000 T02830156 56005
LGA,2013-06-17T21:51:00Z,84.02,59,42.77,230.00,11,0,29.84,1010.30,10,17.00,FEW,SCT,SCT,M,5000.00,13000.00,25000.00,M,M,KLGA 172151Z 23011G17KT 10SM FEW050 SCT130 SCT250 29/15 A2984 RMK AO2 SLP103 T02890150
LGA,2013-06-17T22:51:00Z,84.92,57.02,38.7,230.00,9,0,29.84,1010.40,10,M,FEW,SCT,SCT,M,5000.00,13000.00,25000.00,M,M,KLGA 172251Z 23009KT 10SM FEW050 SCT130 SCT250 29/14 A2984 RMK AO2 SLP104 T02940139
LGA,2013-06-17T23:51:00Z,78.98,60.08,52.37,200.00,11,0,29.86,1011.20,10,M,FEW,SCT,BKN,M,5000.00,13000.00,25000.00,M,M,KLGA 172351Z 20011KT 10SM FEW050 SCT130 BKN250 26/16 A2986 RMK AO2 SLP112 60000 T02610156 10306 20250 53008
LGA,2013-06-18T00:51:00Z,80.06,60.08,50.55,190.00,7,0,29.86,1011.30,10,M,FEW,SCT,SCT,M,5000.00,13000.00,25000.00,M,M,KLGA 180051Z 19007KT 10SM FEW050 SCT130 SCT250 27/16 A2986 RMK AO2 SLP113 T02670156
LGA,2013-06-18T01:51:00Z,78.08,60.98,55.7,0.00,0,0,29.89,1012.00,10,M,FEW,SCT,BKN,M,5000.00,13000.00,25000.00,M,M,KLGA 180151Z 00000KT 10SM FEW050 SCT130 BKN250 26/16 A2989 RMK AO2 SLP120 T02560161
LGA,2013-06-18T02:51:00Z,75.92,62.96,64.17,170.00,6,0,29.9,1012.40,10,M,FEW,M,M,M,25000.00,M,M,M,M,KLGA 180251Z 17006KT 10SM FEW250 24/17 A2990 RMK AO2 SLP124 T02440172 53012
LGA,2013-06-18T03:51:00Z,75.02,64.04,68.69,190.00,5,0,29.89,1012.20,10,M,FEW,M,M,M,25000.00,M,M,M,M,KLGA 180351Z 19005KT 10SM FEW250 24/18 A2989 RMK AO2 SLP122 T02390178
LGA,2013-06-18T04:51:00Z,73.94,64.04,71.22,190.00,3,0,29.88,1011.90,10,M,SCT,M,M,M,25000.00,M,M,M,M,KLGA 180451Z 19003KT 10SM SCT250 23/18 A2988 RMK AO2 SLP119 T02330178 403060217
LGA,2013-06-18T05:51:00Z,71.06,64.94,81,50.00,5,0,29.88,1011.90,10,M,FEW,SCT,M,M,14000.00,25000.00,M,M,M,KLGA 180551Z 05005KT 10SM FEW140 SCT250 22/18 A2988 RMK AO2 SLP119 T02170183 10267 20217 56005
LGA,2013-06-18T06:51:00Z,68,62.06,81.29,60.00,6,0,29.87,1011.60,10,M,SCT,M,M,M,25000.00,M,M,M,M,KLGA 180651Z 06006KT 10SM SCT250 20/17 A2987 RMK AO2 SLP116 T02000167
LGA,2013-06-18T07:51:00Z,66.92,62.06,84.38,50.00,5,0,29.87,1011.50,10,M,FEW,M,M,M,25000.00,M,M,M,M,KLGA 180751Z 05005KT 10SM FEW250 19/17 A2987 RMK AO2 SLP115 T01940167
LGA,2013-06-18T08:51:00Z,66.02,62.06,87.05,50.00,6,0,29.87,1011.60,10,M,SCT,M,M,M,25000.00,M,M,M,M,KLGA 180851Z 05006KT 10SM SCT250 19/17 A2987 RMK AO2 SLP116 T01890167 55003
LGA,2013-06-18T09:51:00Z,66.02,62.06,87.05,60.00,6,0,29.89,1012.00,10,M,BKN,M,M,M,25000.00,M,M,M,M,KLGA 180951Z 06006KT 10SM BKN250 19/17 A2989 RMK AO2 SLP120 T01890167
LGA,2013-06-18T10:51:00Z,66.92,62.06,84.38,40.00,4,0,29.89,1012.20,10,M,FEW,BKN,M,M,17000.00,25000.00,M,M,M,KLGA 181051Z 04004KT 10SM FEW170 BKN250 19/17 A2989 RMK AO2 SLP122 T01940167
LGA,2013-06-18T11:51:00Z,68,62.06,81.29,50.00,4,0,29.89,1012.20,10,M,BKN,M,M,M,25000.00,M,M,M,M,KLGA 181151Z 05004KT 10SM BKN250 20/17 A2989 RMK AO2 SLP122 T02000167 10222 20189 50006
LGA,2013-06-18T12:51:00Z,69.98,62.96,78.41,50.00,6,0,29.9,1012.40,10,M,BKN,M,M,M,25000.00,M,M,M,M,KLGA 181251Z 05006KT 10SM BKN250 21/17 A2990 RMK AO2 SLP124 T02110172
LGA,2013-06-18T13:51:00Z,71.96,62.96,73.3,60.00,7,0,29.89,1012.10,10,M,BKN,M,M,M,25000.00,M,M,M,M,KLGA 181351Z 06007KT 10SM BKN250 22/17 A2989 RMK AO2 SLP121 T02220172
LGA,2013-06-18T14:51:00Z,73.94,62.96,68.57,40.00,10,0,29.87,1011.50,10,M,BKN,M,M,M,25000.00,M,M,M,M,KLGA 181451Z 04010KT 10SM BKN250 23/17 A2987 RMK AO2 SLP115 T02330172 58007
LGA,2013-06-18T15:51:00Z,75.02,64.04,68.69,50.00,7,0,29.87,1011.30,10,M,FEW,SCT,BKN,M,3800.00,11000.00,25000.00,M,M,KLGA 181551Z 05007KT 10SM FEW038 SCT110 BKN250 24/18 A2987 RMK AO2 SLP113 T02390178
LGA,2013-06-18T16:51:00Z,78.98,64.94,62.16,50.00,9,0,29.84,1010.60,10,M,FEW,SCT,BKN,M,4000.00,11000.00,25000.00,M,M,KLGA 181651Z 05009KT 10SM FEW040 SCT110 BKN250 26/18 A2984 RMK AO2 SLP106 T02610183
LGA,2013-06-18T17:51:00Z,80.06,64.04,58.14,160.00,10,0,29.83,1009.90,10,M,FEW,BKN,OVC,M,4500.00,16000.00,22000.00,M,M,KLGA 181751Z 16010KT 10SM FEW045 BKN160 OVC220 27/18 A2983 RMK AO2 SLP099 T02670178 10278 20200 58016 $
LGA,2013-06-18T18:51:00Z,78.08,64.04,62.05,150.00,5,0,29.83,1010.00,10,M,FEW,BKN,OVC,M,4500.00,16000.00,22000.00,M,M,KLGA 181851Z 15005KT 10SM FEW045 BKN160 OVC220 26/18 A2983 RMK AO2 SLP100 CB DSNT S T02560178
LGA,2013-06-18T19:51:00Z,75.92,62.96,64.17,170.00,10,0,29.83,1009.90,10,M,FEW,BKN,OVC,M,4000.00,13000.00,20000.00,M,-RA,KLGA 181951Z 17010KT 10SM -RA FEW040 BKN130 OVC200 24/17 A2983 RMK AO2 RAB50 SLP099 CB DSNT N AND DSNT S-SW MOV NE P0000 T02440172
LGA,2013-06-18T20:29:00Z,73.4,66.2,78.19,190.00,11,0.02,29.83,M,6,M,FEW,BKN,OVC,M,1400.00,1900.00,10000.00,M,-RA,KLGA 182029Z 19011KT 6SM -RA FEW014 BKN019 OVC100 23/19 A2983 RMK AO2 CB DSNT NW-N MOV NE P0002
LGA,2013-06-18T20:51:00Z,71.96,66.92,84.16,160.00,7,0.02,29.84,1010.30,7,M,BKN,BKN,OVC,M,1600.00,2300.00,10000.00,M,-RA,KLGA 182051Z 16007KT 120V210 7SM -RA BKN016 BKN023 OVC100 22/19 A2984 RMK AO2 SLP103 CB DSNT NW MOV NE P0002 60002 T02220194 53004
LGA,2013-06-18T21:24:00Z,71.6,64.4,78.04,M,3,0.02,29.84,M,7,M,SCT,BKN,OVC,M,1900.00,7000.00,10000.00,M,-TSRA,KLGA 182124Z VRB03KT 7SM -TSRA SCT019CB BKN070 OVC100 22/18 A2984 RMK AO2 TSB23 OCNL LTGIC W TS W MOV NE P0002
LGA,2013-06-18T21:49:00Z,71.6,64.4,78.04,290.00,9,0.03,29.86,M,6,M,SCT,BKN,OVC,M,1900.00,7000.00,10000.00,M,-RA,KLGA 182149Z 29009KT 6SM -RA SCT019CB BKN070 OVC100 22/18 A2986 RMK AO2 TSB23E48 CB NW-NE MOV E P0003
LGA,2013-06-18T21:51:00Z,69.98,64.04,81.44,280.00,8,0.03,29.86,1011.20,6,M,SCT,BKN,OVC,M,1900.00,7000.00,10000.00,M,-RA,KLGA 182151Z 28008KT 6SM -RA SCT019CB BKN070 OVC100 21/18 A2986 RMK AO2 TSB23E48 SLP112 CB NW-NE MOV E P0003 T02110178
LGA,2013-06-18T22:51:00Z,71.96,55.94,57.05,60.00,4,0.12,29.85,1010.90,7,M,FEW,SCT,OVC,M,1900.00,5500.00,9000.00,M,-RA,KLGA 182251Z 06004KT 7SM -RA FEW019 SCT055 OVC090 22/13 A2985 RMK AO2 SLP109 P0012 T02220133
LGA,2013-06-18T23:51:00Z,71.06,60.08,68.25,140.00,6,0.03,29.82,1009.70,10,M,FEW,SCT,BKN,OVC,2000.00,7000.00,10000.00,15000.00,-RA,KLGA 182351Z 14006KT 10SM -RA FEW020 SCT070 BKN100 OVC150 22/16 A2982 RMK AO2 SLP097 P0003 60020 T02170156 10267 20211 58006
LGA,2013-06-19T00:51:00Z,68,64.04,87.16,40.00,12,0,29.84,1010.40,10,16.00,FEW,SCT,BKN,OVC,2500.00,7000.00,10000.00,15000.00,M,KLGA 190051Z 04012G16KT 10SM FEW025 SCT070 BKN100 OVC150 20/18 A2984 RMK AO2 RAE38 SLP104 P0000 T02000178
LGA,2013-06-19T01:25:00Z,66.2,62.6,88.18,20.00,9,0,29.85,M,10,M,FEW,SCT,BKN,M,800.00,2500.00,11000.00,M,-RA,KLGA 190125Z 02009KT 10SM -RA FEW008 SCT025 BKN110 19/17 A2985 RMK AO2 RAB01 P0000
LGA,2013-06-19T01:47:00Z,66.2,62.6,88.18,50.00,12,0,29.86,M,10,M,BKN,BKN,OVC,M,800.00,2500.00,10000.00,M,M,KLGA 190147Z 05012KT 10SM BKN008 BKN025 OVC100 19/17 A2986 RMK AO2 RAB01E39 P0000
LGA,2013-06-19T01:51:00Z,66.92,62.96,87.1,50.00,12,0,29.86,1011.20,10,M,BKN,BKN,OVC,M,800.00,2500.00,10000.00,M,M,KLGA 190151Z 05012KT 10SM BKN008 BKN025 OVC100 19/17 A2986 RMK AO2 RAB01E39 SLP112 P0000 T01940172
LGA,2013-06-19T02:19:00Z,66.2,62.6,88.18,60.00,13,0,29.87,M,10,M,FEW,SCT,BKN,M,800.00,1100.00,12000.00,M,M,KLGA 190219Z 06013KT 10SM FEW008 SCT011 BKN120 19/17 A2987 RMK AO2
LGA,2013-06-19T02:36:00Z,66.2,62.6,88.18,50.00,10,0,29.87,M,10,M,FEW,BKN,BKN,M,800.00,1100.00,12000.00,M,M,KLGA 190236Z 05010KT 10SM FEW008 BKN011 BKN120 19/17 A2987 RMK AO2
LGA,2013-06-19T02:51:00Z,66.92,62.06,84.38,40.00,10,0,29.87,1011.50,10,M,BKN,BKN,BKN,M,1100.00,1900.00,12000.00,M,M,KLGA 190251Z 04010KT 10SM BKN011 BKN019 BKN120 19/17 A2987 RMK AO2 SLP115 60000 T01940167 51019
LGA,2013-06-19T03:51:00Z,66.92,62.06,84.38,30.00,9,0,29.88,1011.80,10,M,BKN,OVC,M,M,1100.00,1500.00,M,M,M,KLGA 190351Z 03009KT 10SM BKN011 OVC015 19/17 A2988 RMK AO2 SLP118 T01940167
LGA,2013-06-19T04:51:00Z,66.02,60.98,83.79,50.00,10,0,29.88,1011.70,8,M,OVC,M,M,M,1300.00,M,M,M,-RA,KLGA 190451Z 05010KT 8SM -RA OVC013 19/16 A2988 RMK AO2 RAB30 SLP117 P0000 T01890161 402780189
LGA,2013-06-19T05:24:00Z,64.4,62.6,93.88,360.00,9,0,29.88,M,5,M,BKN,OVC,M,M,800.00,1200.00,M,M,-RA BR,KLGA 190524Z 36009KT 5SM -RA BR BKN008 OVC012 18/17 A2988 RMK AO2 P0000
LGA,2013-06-19T05:51:00Z,64.04,60.08,86.95,40.00,10,0,29.88,1011.90,6,19.00,OVC,M,M,M,800.00,M,M,M,-RA BR,KLGA 190551Z 04010G19KT 6SM -RA BR OVC008 18/16 A2988 RMK AO2 SLP119 P0000 60000 T01780156 10217 20178 51004
LGA,2013-06-19T06:42:00Z,64.4,57.2,77.45,40.00,10,0,29.89,M,10,M,SCT,SCT,OVC,M,1200.00,1700.00,2300.00,M,M,KLGA 190642Z 04010KT 10SM SCT012 SCT017 OVC023 18/14 A2989
LGA,2013-06-19T06:51:00Z,64.04,57.92,80.49,30.00,11,0,29.89,1012.10,10,M,FEW,SCT,OVC,M,1000.00,1500.00,2300.00,M,M,KLGA 190651Z 03011KT 10SM FEW010 SCT015 OVC023 18/14 A2989 RMK AO2 RAE0555 SLP121 P0000 T01780144
LGA,2013-06-19T07:45:00Z,62.6,57.2,82.5,10.00,7,0,29.89,M,10,M,SCT,SCT,M,M,2300.00,6000.00,M,M,M,KLGA 190745Z 01007KT 10SM SCT023 SCT060 17/14 A2989 RMK AO2
LGA,2013-06-19T07:51:00Z,62.96,57.02,80.93,20.00,6,0,29.9,1012.40,10,M,SCT,SCT,M,M,2300.00,6000.00,M,M,M,KLGA 190751Z 02006KT 10SM SCT023 SCT060 17/14 A2990 RMK AO2 SLP124 T01720139
LGA,2013-06-19T08:51:00Z,62.06,55.94,80.34,10.00,9,0,29.91,1012.70,10,M,FEW,SCT,SCT,SCT,1000.00,1700.00,9000.00,20000.00,M,KLGA 190851Z 01009KT 10SM FEW010 SCT017 SCT090 SCT200 17/13 A2991 RMK AO2 SLP127 60000 T01670133 53007
LGA,2013-06-19T09:51:00Z,60.98,53.96,77.66,10.00,7,0,29.93,1013.40,10,15.00,FEW,SCT,SCT,M,9000.00,15000.00,25000.00,M,M,KLGA 190951Z 01007G15KT 10SM FEW090 SCT150 SCT250 16/12 A2993 RMK AO2 SLP134 T01610122
LGA,2013-06-19T10:51:00Z,62.06,51.98,69.51,10.00,9,0,29.94,1013.90,10,M,SCT,BKN,M,M,15000.00,23000.00,M,M,M,KLGA 191051Z 01009KT 10SM SCT150 BKN230 17/11 A2994 RMK AO2 SLP139 T01670111
LGA,2013-06-19T11:51:00Z,64.04,50,60.25,30.00,10,0,29.99,1015.40,10,M,SCT,BKN,M,M,20000.00,27000.00,M,M,M,KLGA 191151Z 03010KT 10SM SCT200 BKN270 18/10 A2999 RMK AO2 SLP154 60000 70020 T01780100 10178 20161 53027
LGA,2013-06-19T12:51:00Z,66.02,50,56.23,30.00,14,0,30.01,1016.30,10,M,SCT,BKN,M,M,22000.00,27000.00,M,M,M,KLGA 191251Z 03014KT 10SM SCT220 BKN270 19/10 A3001 RMK AO2 SLP163 T01890100
LGA,2013-06-19T13:51:00Z,68,48.92,50.44,60.00,9,0,30.03,1016.90,10,M,FEW,SCT,SCT,M,6500.00,22000.00,27000.00,M,M,KLGA 191351Z 06009KT 10SM FEW065 SCT220 SCT270 20/09 A3003 RMK AO2 SLP169 T02000094
LGA,2013-06-19T14:51:00Z,69.98,51.08,51.07,60.00,8,0,30.04,1017.20,10,M,FEW,SCT,SCT,M,6500.00,22000.00,25000.00,M,M,KLGA 191451Z 06008KT 10SM FEW065 SCT220 SCT250 21/11 A3004 RMK AO2 SLP172 T02110106 51017
LGA,2013-06-19T15:51:00Z,71.96,46.94,40.9,60.00,8,0,30.04,1017.30,10,17.00,SCT,SCT,M,M,5000.00,25000.00,M,M,M,KLGA 191551Z 06008G17KT 10SM SCT050 SCT250 22/08 A3004 RMK AO2 SLP173 T02220083
LGA,2013-06-19T16:51:00Z,75.02,46.04,35.67,M,5,0,30.04,1017.40,10,14.00,SCT,SCT,M,M,5000.00,27000.00,M,M,M,KLGA 191651Z VRB05G14KT 10SM SCT050 SCT270 24/08 A3004 RMK AO2 SLP174 T02390078
LGA,2013-06-19T17:51:00Z,73.94,42.98,32.91,360.00,9,0,30.05,1017.40,10,15.00,SCT,SCT,M,M,5000.00,27000.00,M,M,M,KLGA 191751Z 36009G15KT 10SM SCT050 SCT270 23/06 A3005 RMK AO2 SLP174 T02330061 10244 20178 51003
LGA,2013-06-19T18:51:00Z,75.02,42.08,30.66,310.00,7,0,30.05,1017.70,10,M,SCT,SCT,M,M,5000.00,27000.00,M,M,M,KLGA 191851Z 31007KT 10SM SCT050 SCT270 24/06 A3005 RMK AO2 SLP177 T02390056
LGA,2013-06-19T19:51:00Z,75.92,39.92,27.37,340.00,9,0,30.06,1017.80,10,M,SCT,SCT,M,M,5000.00,27000.00,M,M,M,KLGA 191951Z 34009KT 10SM SCT050 SCT270 24/04 A3006 RMK AO2 SLP178 T02440044
LGA,2013-06-19T20:51:00Z,75.92,37.04,24.45,M,6,0,30.05,1017.60,10,M,SCT,SCT,M,M,5000.00,25000.00,M,M,M,KLGA 192051Z VRB06KT 10SM SCT050 SCT250 24/03 A3005 RMK AO2 SLP176 T02440028 50002
LGA,2013-06-19T21:51:00Z,75.92,39.02,26.43,70.00,7,0,30.05,1017.50,10,M,FEW,SCT,M,M,5000.00,25000.00,M,M,M,KLGA 192151Z 07007KT 10SM FEW050 SCT250 24/04 A3005 RMK AO2 SLP175 T02440039
LGA,2013-06-19T22:51:00Z,75.02,39.02,27.23,40.00,3,0,30.06,1017.80,10,M,FEW,SCT,M,M,5000.00,25000.00,M,M,M,KLGA 192251Z 04003KT 10SM FEW050 SCT250 24/04 A3006 RMK AO2 SLP178 T02390039
LGA,2013-06-19T23:51:00Z,75.02,42.98,31.74,M,6,0,30.08,1018.40,10,M,FEW,SCT,M,M,5000.00,25000.00,M,M,M,KLGA 192351Z VRB06KT 10SM FEW050 SCT250 24/06 A3008 RMK AO2 SLP184 T02390061 10250 20233 53008
LGA,2013-06-20T00:51:00Z,69.08,55.04,60.91,180.00,9,0,30.09,1019.00,10,M,FEW,SCT,M,M,7500.00,25000.00,M,M,M,KLGA 200051Z 18009KT 10SM FEW075 SCT250 21/13 A3009 RMK AO2 SLP190 T02060128
LGA,2013-06-20T01:51:00Z,69.08,51.08,52.67,180.00,8,0,30.12,1019.80,10,M,FEW,SCT,M,M,7500.00,25000.00,M,M,M,KLGA 200151Z 18008KT 10SM FEW075 SCT250 21/11 A3012 RMK AO2 SLP198 T02060106
LGA,2013-06-20T02:51:00Z,69.08,51.98,54.45,210.00,7,0,30.14,1020.60,10,M,FEW,M,M,M,25000.00,M,M,M,M,KLGA 200251Z 21007KT 10SM FEW250 21/11 A3014 RMK AO2 SLP206 T02060111 53022
LGA,2013-06-20T03:51:00Z,68,48.92,50.44,220.00,6,0,30.16,1021.30,10,M,CLR,M,M,M,M,M,M,M,M,KLGA 200351Z 22006KT 10SM CLR 20/09 A3016 RMK AO2 SLP213 T02000094
LGA,2013-06-20T04:51:00Z,66.92,48.92,52.35,230.00,6,0,30.18,1021.90,10,M,CLR,M,M,M,M,M,M,M,M,KLGA 200451Z 23006KT 10SM CLR 19/09 A3018 RMK AO2 SLP219 T01940094 402500161
LGA,2013-06-20T05:51:00Z,66.02,48.02,52.22,220.00,6,0,30.19,1022.20,10,M,CLR,M,M,M,M,M,M,M,M,KLGA 200551Z 22006KT 10SM CLR 19/09 A3019 RMK AO2 SLP222 T01890089 10239 20189 51017
LGA,2013-06-20T06:51:00Z,66.02,46.94,50.14,220.00,3,0,30.18,1022.10,10,M,CLR,M,M,M,M,M,M,M,M,KLGA 200651Z 22003KT 10SM CLR 19/08 A3018 RMK AO2 SLP221 T01890083
LGA,2013-06-20T07:51:00Z,64.94,46.94,52.06,230.00,4,0,30.2,1022.50,10,M,CLR,M,M,M,M,M,M,M,M,KLGA 200751Z 23004KT 10SM CLR 18/08 A3020 RMK AO2 SLP225 T01830083
LGA,2013-06-20T08:51:00Z,64.94,48.02,54.22,210.00,5,0,30.2,1022.80,10,M,SCT,M,M,M,7500.00,M,M,M,M,KLGA 200851Z 21005KT 10SM SCT075 18/09 A3020 RMK AO2 SLP228 T01830089 53005
LGA,2013-06-20T09:51:00Z,64.94,48.02,54.22,210.00,4,0,30.22,1023.30,10,M,FEW,M,M,M,7500.00,M,M,M,M,KLGA 200951Z 21004KT 10SM FEW075 18/09 A3022 RMK AO2 SLP233 T01830089
LGA,2013-06-20T10:51:00Z,66.92,48.92,52.35,210.00,4,0,30.24,1023.90,10,M,FEW,M,M,M,7500.00,M,M,M,M,KLGA 201051Z 21004KT 10SM FEW075 19/09 A3024 RMK AO2 SLP239 T01940094
LGA,2013-06-20T11:51:00Z,69.08,50,50.6,240.00,7,0,30.25,1024.40,10,M,FEW,M,M,M,7500.00,M,M,M,M,KLGA 201151Z 24007KT 10SM FEW075 21/10 A3025 RMK AO2 SLP244 T02060100 10206 20183 53017
LGA,2013-06-20T12:51:00Z,71.06,50,47.29,230.00,7,0,30.25,1024.40,10,M,CLR,M,M,M,M,M,M,M,M,KLGA 201251Z 23007KT 10SM CLR 22/10 A3025 RMK AO2 SLP244 T02170100
LGA,2013-06-20T13:51:00Z,71.96,48.92,44.06,240.00,6,0,30.25,1024.40,10,M,CLR,M,M,M,M,M,M,M,M,KLGA 201351Z 24006KT 10SM CLR 22/09 A3025 RMK AO2 SLP244 T02220094
LGA,2013-06-20T14:51:00Z,73.94,51.08,44.66,230.00,9,0,30.27,1024.80,10,14.00,FEW,M,M,M,5000.00,M,M,M,M,KLGA 201451Z 23009G14KT 10SM FEW050 23/11 A3027 RMK AO2 SLP248 T02330106 53004
LGA,2013-06-20T15:51:00Z,75.92,51.08,41.8,230.00,6,0,30.26,1024.60,10,M,FEW,M,M,M,4500.00,M,M,M,M,KLGA 201551Z 23006KT 10SM FEW045 24/11 A3026 RMK AO2 SLP246 T02440106
LGA,2013-06-20T16:51:00Z,77,50,38.74,230.00,7,0,30.25,1024.40,10,14.00,SCT,M,M,M,5000.00,M,M,M,M,KLGA 201651Z 23007G14KT 10SM SCT050 25/10 A3025 RMK AO2 SLP244 T02500100
LGA,2013-06-20T17:51:00Z,78.98,55.04,43.68,180.00,13,0,30.24,1024.10,10,M,SCT,M,M,M,6000.00,M,M,M,M,KLGA 201751Z 18013KT 10SM SCT060 26/13 A3024 RMK AO2 SLP241 T02610128 10261 20206 58007
LGA,2013-06-20T18:51:00Z,78.08,55.04,45,170.00,12,0,30.23,1023.70,10,M,SCT,M,M,M,6000.00,M,M,M,M,KLGA 201851Z 17012KT 10SM SCT060 26/13 A3023 RMK AO2 SLP237 T02560128
LGA,2013-06-20T19:51:00Z,77,51.98,41.69,180.00,11,0,30.23,1023.80,10,17.00,SCT,M,M,M,6500.00,M,M,M,M,KLGA 201951Z 18011G17KT 10SM SCT065 25/11 A3023 RMK AO2 SLP238 T02500111
LGA,2013-06-20T20:51:00Z,78.08,51.98,40.23,160.00,15,0,30.23,1023.60,10,18.00,FEW,M,M,M,6500.00,M,M,M,M,KLGA 202051Z 16015G18KT 10SM FEW065 26/11 A3023 RMK AO2 SLP236 T02560111 56005
LGA,2013-06-20T21:51:00Z,75.92,51.98,43.21,180.00,14,0,30.23,1023.50,10,M,CLR,M,M,M,M,M,M,M,M,KLGA 202151Z 18014KT 10SM CLR 24/11 A3023 RMK AO2 SLP235 T02440111
LGA,2013-06-20T22:51:00Z,75.02,50,41.38,170.00,14,0,30.23,1023.60,10,M,FEW,M,M,M,5500.00,M,M,M,M,KLGA 202251Z 17014KT 10SM FEW055 24/10 A3023 RMK AO2 SLP236 T02390100
LGA,2013-06-20T23:51:00Z,73.04,51.08,46.04,170.00,13,0,30.23,1023.60,10,M,FEW,M,M,M,5500.00,M,M,M,M,KLGA 202351Z 17013KT 10SM FEW055 23/11 A3023 RMK AO2 SLP236 T02280106 10267 20228 55000
LGA,2013-06-21T00:51:00Z,71.06,50,47.29,180.00,10,0,30.23,1023.70,10,M,FEW,M,M,M,25000.00,M,M,M,M,KLGA 210051Z 18010KT 10SM FEW250 22/10 A3023 RMK AO2 SLP237 T02170100
LGA,2013-06-21T01:51:00Z,69.98,53.06,54.94,180.00,10,0,30.25,1024.30,10,M,FEW,M,M,M,25000.00,M,M,M,M,KLGA 210151Z 18010KT 10SM FEW250 21/12 A3025 RMK AO2 SLP243 T02110117
LGA,2013-06-21T02:51:00Z,69.08,53.96,58.56,170.00,9,0,30.25,1024.40,10,M,CLR,M,M,M,M,M,M,M,M,KLGA 210251Z 17009KT 10SM CLR 21/12 A3025 RMK AO2 SLP244 T02060122 51008
LGA,2013-06-21T03:51:00Z,69.08,46.04,43.61,210.00,11,0,30.26,1024.80,10,18.00,FEW,M,M,M,25000.00,M,M,M,M,KLGA 210351Z 21011G18KT 10SM FEW250 21/08 A3026 RMK AO2 SLP248 T02060078
LGA,2013-06-21T04:51:00Z,69.08,46.94,45.12,210.00,9,0,30.28,1025.40,10,M,CLR,M,M,M,M,M,M,M,M,KLGA 210451Z 21009KT 10SM CLR 21/08 A3028 RMK AO2 SLP254 T02060083 402670183
LGA,2013-06-21T05:51:00Z,68,44.06,41.98,220.00,7,0,30.28,1025.20,10,M,CLR,M,M,M,M,M,M,M,M,KLGA 210551Z 22007KT 10SM CLR 20/07 A3028 RMK AO2 SLP252 T02000067 10228 20200 50008
LGA,2013-06-21T06:51:00Z,66.92,42.08,40.39,220.00,8,0,30.27,1025.00,10,M,FEW,M,M,M,25000.00,M,M,M,M,KLGA 210651Z 22008KT 10SM FEW250 19/06 A3027 RMK AO2 SLP250 T01940056
LGA,2013-06-21T07:51:00Z,66.92,42.08,40.39,220.00,9,0,30.27,1024.90,10,M,CLR,M,M,M,M,M,M,M,M,KLGA 210751Z 22009KT 10SM CLR 19/06 A3027 RMK AO2 SLP249 T01940056
LGA,2013-06-21T08:51:00Z,66.02,44.06,44.95,220.00,7,0,30.27,1025.00,10,M,FEW,M,M,M,25000.00,M,M,M,M,KLGA 210851Z 22007KT 10SM FEW250 19/07 A3027 RMK AO2 SLP250 T01890067 55002
LGA,2013-06-21T09:51:00Z,66.02,46.94,50.14,220.00,6,0,30.28,1025.40,10,M,CLR,M,M,M,M,M,M,M,M,KLGA 210951Z 22006KT 10SM CLR 19/08 A3028 RMK AO2 SLP254 T01890083
LGA,2013-06-21T10:51:00Z,68,48.92,50.44,0.00,0,0,30.29,1025.60,10,M,FEW,M,M,M,25000.00,M,M,M,M,KLGA 211051Z 00000KT 10SM FEW250 20/09 A3029 RMK AO2 SLP256 T02000094
LGA,2013-06-21T11:51:00Z,69.98,48.02,45.57,M,4,0,30.29,1025.80,10,M,FEW,M,M,M,25000.00,M,M,M,M,KLGA 211151Z VRB04KT 10SM FEW250 21/09 A3029 RMK AO2 SLP258 T02110089 10211 20189 51008
LGA,2013-06-21T12:51:00Z,73.04,46.04,38.12,260.00,5,0,30.3,1025.90,10,M,FEW,M,M,M,25000.00,M,M,M,M,KLGA 211251Z 26005KT 10SM FEW250 23/08 A3030 RMK AO2 SLP259 T02280078
LGA,2013-06-21T13:51:00Z,73.94,46.94,38.26,190.00,7,0,30.28,1025.40,10,M,FEW,M,M,M,25000.00,M,M,M,M,KLGA 211351Z 19007KT 10SM FEW250 23/08 A3028 RMK AO2 SLP254 T02330083
LGA,2013-06-21T14:51:00Z,77,48.02,35.98,M,5,0,30.29,1025.50,10,M,CLR,M,M,M,M,M,M,M,M,KLGA 211451Z VRB05KT 10SM CLR 25/09 A3029 RMK AO2 SLP255 T02500089 58003
LGA,2013-06-21T15:51:00Z,78.08,50,37.38,M,3,0,30.28,1025.50,10,M,SCT,M,M,M,25000.00,M,M,M,M,KLGA 211551Z VRB03KT 10SM SCT250 26/10 A3028 RMK AO2 SLP255 T02560100
LGA,2013-06-21T16:51:00Z,80.96,51.08,35.4,200.00,10,0,30.28,1025.30,10,M,FEW,SCT,M,M,5000.00,25000.00,M,M,M,KLGA 211651Z 20010KT 10SM FEW050 SCT250 27/11 A3028 RMK AO2 SLP253 T02720106
LGA,2013-06-21T17:51:00Z,80.96,51.08,35.4,180.00,8,0,30.27,1024.80,10,M,FEW,SCT,M,M,5000.00,26000.00,M,M,M,KLGA 211751Z 18008KT 10SM FEW050 SCT260 27/11 A3027 RMK AO2 SLP248 T02720106 10278 20211 58007
LGA,2013-06-21T18:51:00Z,80.96,53.96,39.36,180.00,10,0,30.27,1024.80,10,18.00,FEW,SCT,M,M,5000.00,25000.00,M,M,M,KLGA 211851Z 18010G18KT 10SM FEW050 SCT250 27/12 A3027 RMK AO2 SLP248 T02720122
LGA,2013-06-21T19:51:00Z,80.96,51.98,36.6,170.00,14,0,30.26,1024.50,10,18.00,FEW,SCT,M,M,5000.00,25000.00,M,M,M,KLGA 211951Z 17014G18KT 10SM FEW050 SCT250 27/11 A3026 RMK AO2 SLP245 T02720111
LGA,2013-06-21T20:51:00Z,78.98,51.08,37.78,170.00,12,0,30.24,1024.00,10,19.00,FEW,BKN,M,M,5000.00,25000.00,M,M,M,KLGA 212051Z 17012G19KT 10SM FEW050 BKN250 26/11 A3024 RMK AO2 SLP240 T02610106 58008
LGA,2013-06-21T21:51:00Z,77,51.08,40.33,170.00,12,0,30.24,1023.80,10,M,FEW,BKN,M,M,5000.00,25000.00,M,M,M,KLGA 212151Z 17012KT 10SM FEW050 BKN250 25/11 A3024 RMK AO2 SLP238 T02500106
LGA,2013-06-21T22:51:00Z,75.92,50,40.16,170.00,13,0,30.25,1024.20,10,M,BKN,M,M,M,25000.00,M,M,M,M,KLGA 212251Z 17013KT 10SM BKN250 24/10 A3025 RMK AO2 SLP242 T02440100
LGA,2013-06-21T23:51:00Z,73.94,50,42.91,170.00,12,0,30.25,1024.20,10,M,BKN,M,M,M,25000.00,M,M,M,M,KLGA 212351Z 17012KT 10SM BKN250 23/10 A3025 RMK AO2 SLP242 T02330100 10278 20233 53002
LGA,2013-06-22T00:51:00Z,73.04,53.96,51.18,170.00,9,0,30.24,1024.10,10,M,BKN,M,M,M,25000.00,M,M,M,M,KLGA 220051Z 17009KT 10SM BKN250 23/12 A3024 RMK AO2 SLP241 T02280122
LGA,2013-06-22T01:51:00Z,71.96,53.96,53.08,190.00,9,0,30.25,1024.40,10,M,BKN,M,M,M,25000.00,M,M,M,M,KLGA 220151Z 19009KT 10SM BKN250 22/12 A3025 RMK AO2 SLP244 T02220122
LGA,2013-06-22T02:51:00Z,71.96,51.98,49.36,200.00,10,0,30.26,1024.50,10,M,SCT,M,M,M,25000.00,M,M,M,M,KLGA 220251Z 20010KT 10SM SCT250 22/11 A3026 RMK AO2 SLP245 T02220111 53003
LGA,2013-06-22T03:51:00Z,71.96,46.04,39.54,210.00,10,0,30.25,1024.40,10,M,SCT,M,M,M,25000.00,M,M,M,M,KLGA 220351Z 21010KT 10SM SCT250 22/08 A3025 RMK AO2 SLP244 T02220078
LGA,2013-06-22T04:51:00Z,71.06,44.96,39.13,220.00,9,0,30.25,1024.30,10,M,BKN,M,M,M,25000.00,M,M,M,M,KLGA 220451Z 22009KT 10SM BKN250 22/07 A3025 RMK AO2 SLP243 T02170072 402780189
LGA,2013-06-22T05:51:00Z,69.98,44.06,39.22,220.00,6,0,30.24,1024.10,10,M,BKN,M,M,M,25000.00,M,M,M,M,KLGA 220551Z 22006KT 10SM BKN250 21/07 A3024 RMK AO2 SLP241 T02110067 10239 20211 58004
LGA,2013-06-22T06:51:00Z,69.98,44.06,39.22,210.00,7,0,30.25,1024.30,10,M,BKN,M,M,M,25000.00,M,M,M,M,KLGA 220651Z 21007KT 10SM BKN250 21/07 A3025 RMK AO2 SLP243 T02110067
LGA,2013-06-22T07:51:00Z,69.08,44.96,41.86,200.00,6,0,30.25,1024.10,10,M,SCT,M,M,M,25000.00,M,M,M,M,KLGA 220751Z 20006KT 10SM SCT250 21/07 A3025 RMK AO2 SLP241 T02060072
LGA,2013-06-22T08:51:00Z,68,44.06,41.98,190.00,6,0,30.24,1024.10,10,M,FEW,M,M,M,25000.00,M,M,M,M,KLGA 220851Z 19006KT 10SM FEW250 20/07 A3024 RMK AO2 SLP241 T02000067 50000
LGA,2013-06-22T09:51:00Z,66.92,46.94,48.6,210.00,6,0,30.26,1024.60,10,M,SCT,M,M,M,25000.00,M,M,M,M,KLGA 220951Z 21006KT 10SM SCT250 19/08 A3026 RMK AO2 SLP246 T01940083
LGA,2013-06-22T10:51:00Z,66.92,53.96,63.08,200.00,7,0,30.24,1024.00,10,M,SCT,M,M,M,25000.00,M,M,M,M,KLGA 221051Z 20007KT 10SM SCT250 19/12 A3024 RMK AO2 SLP240 T01940122
LGA,2013-06-22T11:51:00Z,69.98,53.06,54.94,200.00,6,0,30.24,1024.00,10,M,SCT,M,M,M,25000.00,M,M,M,M,KLGA 221151Z 20006KT 10SM SCT250 21/12 A3024 RMK AO2 SLP240 T02110117 10211 20194 58001
LGA,2013-06-22T12:51:00Z,73.04,48.02,41.07,230.00,7,0,30.25,1024.20,10,M,SCT,M,M,M,25000.00,M,M,M,M,KLGA 221251Z 23007KT 10SM SCT250 23/09 A3025 RMK AO2 SLP242 T02280089
LGA,2013-06-22T13:51:00Z,75.02,51.08,43.08,220.00,8,0,30.25,1024.10,10,M,BKN,M,M,M,25000.00,M,M,M,M,KLGA 221351Z 22008KT 10SM BKN250 24/11 A3025 RMK AO2 SLP241 T02390106
LGA,2013-06-22T14:51:00Z,77,55.94,48.19,200.00,6,0,30.25,1024.20,10,M,BKN,M,M,M,25000.00,M,M,M,M,KLGA 221451Z 20006KT 10SM BKN250 25/13 A3025 RMK AO2 SLP242 T02500133 51001
LGA,2013-06-22T15:51:00Z,78.98,55.94,45.14,290.00,4,0,30.25,1024.30,10,M,FEW,BKN,M,M,4000.00,25000.00,M,M,M,KLGA 221551Z 29004KT 10SM FEW040 BKN250 26/13 A3025 RMK AO2 SLP243 T02610133
LGA,2013-06-22T16:51:00Z,82.04,51.08,34.18,M,6,0,30.24,1023.80,10,M,FEW,BKN,M,M,4000.00,25000.00,M,M,M,KLGA 221651Z VRB06KT 10SM FEW040 BKN250 28/11 A3024 RMK AO2 SLP238 T02780106
LGA,2013-06-22T17:51:00Z,82.94,51.98,34.32,210.00,9,0,30.2,1022.70,10,M,FEW,BKN,M,M,4000.00,25000.00,M,M,M,KLGA 221751Z 21009KT 10SM FEW040 BKN250 28/11 A3020 RMK AO2 SLP227 T02830111 10289 20211 58015
LGA,2013-06-22T18:51:00Z,82.04,57.92,43.87,180.00,13,0,30.2,1022.80,10,18.00,FEW,BKN,M,M,4500.00,25000.00,M,M,M,KLGA 221851Z 18013G18KT 10SM FEW045 BKN250 28/14 A3020 RMK AO2 SLP228 T02780144
LGA,2013-06-22T19:51:00Z,78.08,57.02,48.35,180.00,12,0,30.19,1022.10,10,M,FEW,BKN,M,M,4500.00,25000.00,M,M,M,KLGA 221951Z 18012KT 10SM FEW045 BKN250 26/14 A3019 RMK AO2 SLP221 T02560139
LGA,2013-06-22T20:51:00Z,75.92,55.94,49.95,180.00,15,0,30.16,1021.30,10,19.00,FEW,BKN,M,M,20000.00,25000.00,M,M,M,KLGA 222051Z 18015G19KT 10SM FEW200 BKN250 24/13 A3016 RMK AO2 SLP213 T02440133 58014
LGA,2013-06-22T21:51:00Z,75.92,57.92,53.65,180.00,11,0,30.16,1021.10,10,17.00,FEW,BKN,M,M,5000.00,25000.00,M,M,M,KLGA 222151Z 18011G17KT 10SM FEW050 BKN250 24/14 A3016 RMK AO2 SLP211 T02440144
LGA,2013-06-22T22:51:00Z,73.94,53.96,49.66,170.00,15,0,30.14,1020.70,10,22.00,BKN,M,M,M,25000.00,M,M,M,M,KLGA 222251Z 17015G22KT 10SM BKN250 23/12 A3014 RMK AO2 SLP207 T02330122
LGA,2013-06-22T23:51:00Z,73.04,53.06,49.52,180.00,14,0,30.14,1020.50,10,20.00,FEW,BKN,M,M,20000.00,25000.00,M,M,M,KLGA 222351Z 18014G20KT 10SM FEW200 BKN250 23/12 A3014 RMK AO2 SLP205 T02280117 10289 20228 56008
LGA,2013-06-23T00:51:00Z,71.96,55.04,55.22,180.00,10,0,30.14,1020.70,10,19.00,BKN,M,M,M,25000.00,M,M,M,M,KLGA 230051Z 18010G19KT 10SM BKN250 22/13 A3014 RMK AO2 SLP207 T02220128
LGA,2013-06-23T01:51:00Z,71.96,51.08,47.75,170.00,8,0,30.17,1021.60,10,M,BKN,M,M,M,25000.00,M,M,M,M,KLGA 230151Z 17008KT 10SM BKN250 22/11 A3017 RMK AO2 SLP216 T02220106
LGA,2013-06-23T02:51:00Z,71.96,55.04,55.22,180.00,8,0,30.17,1021.80,10,M,FEW,BKN,M,M,15000.00,25000.00,M,M,M,KLGA 230251Z 18008KT 10SM FEW150 BKN250 22/13 A3017 RMK AO2 SLP218 T02220128 51013
LGA,2013-06-23T03:51:00Z,73.04,53.96,51.18,210.00,11,0,30.17,1021.70,10,M,SCT,M,M,M,25000.00,M,M,M,M,KLGA 230351Z 21011KT 10SM SCT250 23/12 A3017 RMK AO2 SLP217 T02280122
LGA,2013-06-23T04:51:00Z,73.04,55.94,55.01,210.00,7,0,30.18,1021.80,10,M,SCT,M,M,M,25000.00,M,M,M,M,KLGA 230451Z 21007KT 10SM SCT250 23/13 A3018 RMK AO2 SLP218 T02280133 402890194
LGA,2013-06-23T05:51:00Z,73.04,57.92,59.08,230.00,7,0,30.17,1021.70,10,M,SCT,M,M,M,25000.00,M,M,M,M,KLGA 230551Z 23007KT 10SM SCT250 23/14 A3017 RMK AO2 SLP217 T02280144 10228 20217 58000
LGA,2013-06-23T06:51:00Z,71.96,57.92,61.28,210.00,6,0,30.16,1021.40,10,M,FEW,M,M,M,25000.00,M,M,M,M,KLGA 230651Z 21006KT 10SM FEW250 22/14 A3016 RMK AO2 SLP214 T02220144
LGA,2013-06-23T07:51:00Z,71.96,57.92,61.28,210.00,6,0,30.15,1021.00,10,M,SCT,M,M,M,25000.00,M,M,M,M,KLGA 230751Z 21006KT 10SM SCT250 22/14 A3015 RMK AO2 SLP210 T02220144
LGA,2013-06-23T08:51:00Z,71.96,59,63.7,220.00,6,0,30.16,1021.20,10,M,SCT,M,M,M,25000.00,M,M,M,M,KLGA 230851Z 22006KT 10SM SCT250 22/15 A3016 RMK AO2 SLP212 T02220150 55005
LGA,2013-06-23T09:51:00Z,71.06,59,65.67,210.00,6,0,30.16,1021.20,10,M,SCT,M,M,M,25000.00,M,M,M,M,KLGA 230951Z 21006KT 10SM SCT250 22/15 A3016 RMK AO2 SLP212 T02170150
LGA,2013-06-23T10:51:00Z,71.96,60.98,68.35,210.00,7,0,30.18,1021.80,10,M,FEW,SCT,SCT,M,2600.00,15000.00,25000.00,M,M,KLGA 231051Z 21007KT 10SM FEW026 SCT150 SCT250 22/16 A3018 RMK AO2 SLP218 T02220161
LGA,2013-06-23T11:51:00Z,73.94,60.98,63.94,210.00,8,0,30.19,1022.30,10,M,FEW,SCT,SCT,M,2900.00,9000.00,25000.00,M,M,KLGA 231151Z 21008KT 10SM FEW029 SCT090 SCT250 23/16 A3019 RMK AO2 SLP223 T02330161 10233 20217 53010
LGA,2013-06-23T12:51:00Z,75.92,62.06,62.17,230.00,9,0,30.19,1022.20,10,M,FEW,SCT,SCT,BKN,3100.00,9000.00,18000.00,25000.00,M,KLGA 231251Z 23009KT 10SM FEW031 SCT090 SCT180 BKN250 24/17 A3019 RMK AO2 SLP222 T02440167
LGA,2013-06-23T13:51:00Z,80.06,62.06,54.23,M,4,0,30.18,1021.80,10,M,FEW,SCT,SCT,BKN,4000.00,9000.00,17000.00,25000.00,M,KLGA 231351Z VRB04KT 10SM FEW040 SCT090 SCT170 BKN250 27/17 A3018 RMK AO2 SLP218 T02670167
LGA,2013-06-23T14:51:00Z,82.04,60.98,48.93,250.00,10,0,30.17,1021.50,10,M,FEW,SCT,SCT,BKN,4700.00,9000.00,17000.00,25000.00,M,KLGA 231451Z 25010KT 10SM FEW047 SCT090 SCT170 BKN250 28/16 A3017 RMK AO2 SLP215 T02780161 58008
LGA,2013-06-23T15:51:00Z,84.02,62.06,47.68,250.00,10,0,30.15,1021.10,10,M,FEW,SCT,SCT,BKN,4700.00,9000.00,17000.00,25000.00,M,KLGA 231551Z 25010KT 10SM FEW047 SCT090 SCT170 BKN250 29/17 A3015 RMK AO2 SLP211 T02890167
LGA,2013-06-23T16:51:00Z,87.08,62.96,44.63,190.00,9,0,30.14,1020.50,10,M,FEW,SCT,BKN,M,5000.00,20000.00,25000.00,M,M,KLGA 231651Z 19009KT 10SM FEW050 SCT200 BKN250 31/17 A3014 RMK AO2 SLP205 T03060172
LGA,2013-06-23T17:51:00Z,84.92,66.02,53.21,160.00,15,0,30.13,1020.10,10,M,FEW,SCT,BKN,M,4200.00,20000.00,25000.00,M,M,KLGA 231751Z 16015KT 10SM FEW042 SCT200 BKN250 29/19 A3013 RMK AO2 SLP201 T02940189 10306 20233 56014
LGA,2013-06-23T18:51:00Z,84.92,66.02,53.21,170.00,17,0,30.11,1019.60,10,M,FEW,SCT,BKN,M,4500.00,20000.00,25000.00,M,M,KLGA 231851Z 17017KT 10SM FEW045 SCT200 BKN250 29/19 A3011 RMK AO2 SLP196 T02940189
LGA,2013-06-23T19:51:00Z,84.92,68,56.98,160.00,13,0,30.09,1018.80,10,18.00,FEW,BKN,M,M,5000.00,25000.00,M,M,M,KLGA 231951Z 16013G18KT 10SM FEW050 BKN250 29/20 A3009 RMK AO2 SLP188 T02940200
LGA,2013-06-23T20:51:00Z,84.02,64.94,52.75,210.00,15,0,30.08,1018.70,10,23.00,SCT,SCT,BKN,M,5000.00,10000.00,25000.00,M,M,KLGA 232051Z 21015G23KT 10SM SCT050 SCT100 BKN250 29/18 A3008 RMK AO2 SLP187 T02890183 56015
LGA,2013-06-23T21:51:00Z,80.96,68,64.77,170.00,11,0,30.07,1018.30,10,M,SCT,SCT,BKN,BKN,5000.00,10000.00,13000.00,25000.00,M,KLGA 232151Z 17011KT 10SM SCT050 SCT100 BKN130 BKN250 27/20 A3007 RMK AO2 SLP183 T02720200
LGA,2013-06-23T22:51:00Z,80.96,68,64.77,190.00,13,0,30.06,1017.90,10,18.00,BKN,M,M,M,9500.00,M,M,M,M,KLGA 232251Z 19013G18KT 10SM BKN095 27/20 A3006 RMK AO2 SLP179 T02720200
LGA,2013-06-23T23:51:00Z,78.08,68,71.19,160.00,10,0,30.07,1018.20,10,M,SCT,BKN,BKN,BKN,5000.00,10000.00,15000.00,25000.00,M,KLGA 232351Z 16010KT 10SM SCT050 BKN100 BKN150 BKN250 26/20 A3007 RMK AO2 SLP182 T02560200 10300 20256 55005
LGA,2013-06-24T00:51:00Z,77,68,73.78,190.00,8,0,30.07,1018.20,10,M,SCT,BKN,BKN,M,7500.00,10000.00,25000.00,M,M,KLGA 240051Z 19008KT 10SM SCT075 BKN100 BKN250 25/20 A3007 RMK AO2 SLP182 T02500200
LGA,2013-06-24T01:51:00Z,78.08,69.08,73.88,210.00,10,0,30.07,1018.40,10,16.00,SCT,BKN,BKN,M,7500.00,15000.00,25000.00,M,M,KLGA 240151Z 21010G16KT 10SM SCT075 BKN150 BKN250 26/21 A3007 RMK AO2 SLP184 T02560206
LGA,2013-06-24T02:51:00Z,77,69.08,76.57,210.00,8,0,30.07,1018.30,10,M,FEW,SCT,BKN,M,1000.00,10000.00,20000.00,M,M,KLGA 240251Z 21008KT 10SM FEW010 SCT100 BKN200 25/21 A3007 RMK AO2 RAB14E34 SLP183 P0000 60000 T02500206 50002
LGA,2013-06-24T03:51:00Z,75.92,69.08,79.37,220.00,9,0,30.08,1018.40,10,M,FEW,SCT,BKN,M,1000.00,10000.00,20000.00,M,M,KLGA 240351Z 22009KT 10SM FEW010 SCT100 BKN200 24/21 A3008 RMK AO2 SLP184 T02440206
LGA,2013-06-24T04:51:00Z,75.92,69.98,81.85,210.00,7,0,30.06,1017.90,10,M,FEW,SCT,BKN,M,1000.00,10000.00,20000.00,M,M,KLGA 240451Z 21007KT 10SM FEW010 SCT100 BKN200 24/21 A3006 RMK AO2 SLP179 T02440211 403060217
LGA,2013-06-24T05:51:00Z,75.92,69.98,81.85,230.00,7,0,30.05,1017.70,10,M,CLR,M,M,M,M,M,M,M,M,KLGA 240551Z 23007KT 10SM CLR 24/21 A3005 RMK AO2 SLP177 60000 T02440211 10261 20244 58006
LGA,2013-06-24T06:51:00Z,75.92,69.98,81.85,230.00,6,0,30.05,1017.50,10,M,CLR,M,M,M,M,M,M,M,M,KLGA 240651Z 23006KT 10SM CLR 24/21 A3005 RMK AO2 SLP175 T02440211
LGA,2013-06-24T07:51:00Z,75.92,69.98,81.85,220.00,7,0,30.04,1017.40,10,M,SCT,M,M,M,25000.00,M,M,M,M,KLGA 240751Z 22007KT 10SM SCT250 24/21 A3004 RMK AO2 SLP174 T02440211
LGA,2013-06-24T08:51:00Z,75.92,69.98,81.85,210.00,7,0,30.04,1017.10,10,M,FEW,M,M,M,15000.00,M,M,M,M,KLGA 240851Z 21007KT 10SM FEW150 24/21 A3004 RMK AO2 SLP171 T02440211 57006
LGA,2013-06-24T09:51:00Z,75.92,69.08,79.37,230.00,6,0,30.04,1017.10,10,M,FEW,SCT,M,M,15000.00,25000.00,M,M,M,KLGA 240951Z 23006KT 10SM FEW150 SCT250 24/21 A3004 RMK AO2 SLP171 T02440206
LGA,2013-06-24T10:51:00Z,77,69.08,76.57,220.00,9,0,30.05,1017.50,10,M,SCT,BKN,M,M,8000.00,25000.00,M,M,M,KLGA 241051Z 22009KT 10SM SCT080 BKN250 25/21 A3005 RMK AO2 SLP175 T02500206
LGA,2013-06-24T11:51:00Z,80.06,69.08,69.23,220.00,6,0,30.05,1017.50,10,M,CLR,M,M,M,M,M,M,M,M,KLGA 241151Z 22006KT 10SM CLR 27/21 A3005 RMK AO2 SLP175 T02670206 10267 20244 53004
LGA,2013-06-24T12:51:00Z,80.96,68,64.77,290.00,4,0,30.05,1017.70,10,M,FEW,M,M,M,25000.00,M,M,M,M,KLGA 241251Z 29004KT 10SM FEW250 27/20 A3005 RMK AO2 SLP177 T02720200
LGA,2013-06-24T13:51:00Z,82.94,68,60.74,0.00,0,0,30.05,1017.50,10,M,CLR,M,M,M,M,M,M,M,M,KLGA 241351Z 00000KT 10SM CLR 28/20 A3005 RMK AO2 SLP175 T02830200
LGA,2013-06-24T14:51:00Z,87.08,66.92,51.24,260.00,5,0,30.04,1017.20,10,M,FEW,M,M,M,25000.00,M,M,M,M,KLGA 241451Z 26005KT 10SM FEW250 31/19 A3004 RMK AO2 SLP172 T03060194 58003
LGA,2013-06-24T15:51:00Z,91.04,66.02,43.83,270.00,8,0,30.03,1017.00,10,M,FEW,BKN,M,M,6000.00,25000.00,M,M,M,KLGA 241551Z 27008KT 10SM FEW060 BKN250 33/19 A3003 RMK AO2 SLP170 T03280189
LGA,2013-06-24T16:51:00Z,91.04,64.94,42.21,240.00,7,0,30.02,1016.70,10,M,SCT,BKN,M,M,5500.00,25000.00,M,M,M,KLGA 241651Z 24007KT 10SM SCT055TCU BKN250 33/18 A3002 RMK AO2 SLP167 TCU OHD AND N-E T03280183
LGA,2013-06-24T17:11:00Z,91.4,64.4,40.96,260.00,9,0,30.02,M,10,M,FEW,SCT,BKN,M,3000.00,5500.00,25000.00,M,-TSRA,KLGA 241711Z 26009KT 10SM -TSRA FEW030 SCT055CB BKN250 33/18 A3002 RMK AO2 TSB08RAB03 OCNL LTGICCG OHD-SW TS OHD-SW MOV E TCU N-E P0000
LGA,2013-06-24T17:45:00Z,91.4,64.4,40.96,260.00,5,0,30,M,10,M,FEW,SCT,SCT,BKN,3200.00,5500.00,11000.00,25000.00,M,KLGA 241745Z 26005KT 10SM FEW032 SCT055CB SCT110 BKN250 33/18 A3000 RMK AO2 TSB08E43RAB03E12 CB SE MOV E P0000
LGA,2013-06-24T17:51:00Z,91.94,64.04,39.77,290.00,3,0,30,1015.90,10,M,FEW,SCT,SCT,BKN,3200.00,6000.00,11000.00,25000.00,M,KLGA 241751Z 29003KT 10SM FEW032 SCT060CB SCT110 BKN250 33/18 A3000 RMK AO2 TSB08E43RAB03E12 SLP159 CB SE MOV E P0000 60000 T03330178 10339 20261 56011
LGA,2013-06-24T18:51:00Z,93.92,59,31.29,250.00,9,0,29.97,1014.80,10,M,SCT,BKN,M,M,7500.00,25000.00,M,M,M,KLGA 241851Z 25009KT 10SM SCT075 BKN250 34/15 A2997 RMK AO2 SLP148 T03440150
LGA,2013-06-24T19:51:00Z,93.02,57.92,30.95,240.00,9,0,29.96,1014.40,10,M,SCT,BKN,M,M,8000.00,25000.00,M,M,M,KLGA 241951Z 24009KT 10SM SCT080 BKN250 34/14 A2996 RMK AO2 SLP144 T03390144
LGA,2013-06-24T20:51:00Z,91.04,60.08,35.57,270.00,15,0,29.95,1014.00,10,20.00,SCT,BKN,OVC,M,7500.00,15000.00,25000.00,M,M,KLGA 242051Z 27015G20KT 10SM SCT075 BKN150 OVC250 33/16 A2995 RMK AO2 SLP140 T03280156 56018
LGA,2013-06-24T21:51:00Z,87.98,64.94,46.48,220.00,12,0,29.94,1013.90,10,21.00,CLR,M,M,M,M,M,M,M,M,KLGA 242151Z 22012G21KT 210V270 10SM CLR 31/18 A2994 RMK AO2 SLP139 T03110183
LGA,2013-06-24T22:51:00Z,86,64.94,49.51,230.00,12,0,29.96,1014.40,10,M,FEW,SCT,BKN,M,5000.00,15000.00,25000.00,M,M,KLGA 242251Z 23012KT 10SM FEW050 SCT150 BKN250 30/18 A2996 RMK AO2 SLP144 T03000183
LGA,2013-06-24T23:51:00Z,86,64.94,49.51,260.00,13,0,29.96,1014.50,10,16.00,FEW,SCT,BKN,M,5000.00,13000.00,25000.00,M,M,KLGA 242351Z 26013G16KT 10SM FEW050 SCT130 BKN250 30/18 A2996 RMK AO2 SLP145 T03000183 10356 20294 53005
LGA,2013-06-25T00:51:00Z,82.04,62.06,50.84,360.00,10,0,29.98,1015.10,10,M,FEW,SCT,BKN,M,5000.00,13000.00,25000.00,M,M,KLGA 250051Z 36010KT 10SM FEW050 SCT130 BKN250 28/17 A2998 RMK AO2 SLP151 T02780167
LGA,2013-06-25T01:51:00Z,78.98,62.06,56.18,130.00,3,0,30,1016.00,10,M,FEW,SCT,BKN,M,6000.00,13000.00,25000.00,M,M,KLGA 250151Z 13003KT 10SM FEW060 SCT130 BKN250 26/17 A3000 RMK AO2 SLP160 T02610167
LGA,2013-06-25T02:51:00Z,80.06,60.98,52.19,0.00,0,0,30,1015.70,10,M,BKN,M,M,M,22000.00,M,M,M,M,KLGA 250251Z 00000KT 10SM BKN220 27/16 A3000 RMK AO2 SLP157 T02670161 50012
LGA,2013-06-25T03:51:00Z,78.98,60.98,54.08,0.00,0,0,29.99,1015.60,10,M,SCT,SCT,M,M,13000.00,22000.00,M,M,M,KLGA 250351Z 00000KT 10SM SCT130 SCT220 26/16 A2999 RMK AO2 SLP156 T02610161
LGA,2013-06-25T04:51:00Z,80.06,60.98,52.19,300.00,5,0,29.98,1015.20,10,M,BKN,M,M,M,24000.00,M,M,M,M,KLGA 250451Z 30005KT 10SM BKN240 27/16 A2998 RMK AO2 SLP152 T02670161 403560244
LGA,2013-06-25T05:51:00Z,80.06,62.06,54.23,270.00,8,0,29.96,1014.70,10,M,BKN,BKN,M,M,14000.00,25000.00,M,M,M,KLGA 250551Z 27008KT 10SM BKN140 BKN250 27/17 A2996 RMK AO2 SLP147 T02670167 10300 20256 58011
LGA,2013-06-25T06:51:00Z,78.98,62.96,57.99,260.00,5,0,29.96,1014.40,10,M,BKN,OVC,M,M,16000.00,25000.00,M,M,M,KLGA 250651Z 26005KT 10SM BKN160 OVC250 26/17 A2996 RMK AO2 SLP144 T02610172
LGA,2013-06-25T07:51:00Z,78.08,62.96,59.74,200.00,7,0,29.95,1014.10,10,M,SCT,M,M,M,25000.00,M,M,M,M,KLGA 250751Z 20007KT 10SM SCT250 26/17 A2995 RMK AO2 SLP141 T02560172
LGA,2013-06-25T08:51:00Z,77,62.96,61.91,210.00,8,0,29.94,1013.80,10,M,SCT,M,M,M,25000.00,M,M,M,M,KLGA 250851Z 21008KT 10SM SCT250 25/17 A2994 RMK AO2 SLP138 T02500172 57009
LGA,2013-06-25T09:51:00Z,75.02,62.96,66.13,250.00,3,0,29.95,1014.10,10,M,FEW,M,M,M,25000.00,M,M,M,M,KLGA 250951Z 25003KT 10SM FEW250 24/17 A2995 RMK AO2 SLP141 T02390172
LGA,2013-06-25T10:51:00Z,75.92,64.04,66.65,220.00,6,0,29.95,1014.20,10,M,FEW,M,M,M,25000.00,M,M,M,M,KLGA 251051Z 22006KT 10SM FEW250 24/18 A2995 RMK AO2 SLP142 T02440178
LGA,2013-06-25T11:51:00Z,78.08,64.04,62.05,240.00,5,0,29.95,1014.10,10,M,CLR,M,M,M,M,M,M,M,M,KLGA 251151Z 24005KT 10SM CLR 26/18 A2995 RMK AO2 SLP141 T02560178 10267 20239 50003
LGA,2013-06-25T12:51:00Z,80.06,64.94,59.99,230.00,4,0,29.95,1014.00,10,M,FEW,M,M,M,25000.00,M,M,M,M,KLGA 251251Z 23004KT 10SM FEW250 27/18 A2995 RMK AO2 SLP140 T02670183
LGA,2013-06-25T13:51:00Z,82.94,64.94,54.63,250.00,4,0,29.94,1013.70,10,M,FEW,M,M,M,25000.00,M,M,M,M,KLGA 251351Z 25004KT 10SM FEW250 28/18 A2994 RMK AO2 SLP137 T02830183
LGA,2013-06-25T14:51:00Z,84.92,64.94,51.25,0.00,0,0,29.93,1013.60,10,M,SCT,M,M,M,25000.00,M,M,M,M,KLGA 251451Z 00000KT 10SM SCT250 29/18 A2993 RMK AO2 SLP136 T02940183 58005
LGA,2013-06-25T15:51:00Z,87.98,66.02,48.26,M,3,0,29.93,1013.40,10,M,FEW,SCT,M,M,5500.00,25000.00,M,M,M,KLGA 251551Z VRB03KT 10SM FEW055 SCT250 31/19 A2993 RMK AO2 SLP134 T03110189
LGA,2013-06-25T16:51:00Z,89.96,64.94,43.67,220.00,8,0,29.9,1012.50,10,M,SCT,BKN,M,M,5500.00,25000.00,M,M,M,KLGA 251651Z 22008KT 10SM SCT055TCU BKN250 32/18 A2990 RMK AO2 SLP125 TCU OHD-W T03220183
LGA,2013-06-25T17:51:00Z,91.94,62.06,37.1,230.00,13,0,29.87,1011.60,10,19.00,SCT,BKN,M,M,6000.00,25000.00,M,M,M,KLGA 251751Z 23013G19KT 10SM SCT060TCU BKN250 33/17 A2987 RMK AO2 SLP116 TCU N-E T03330167 10339 20256 58020 $
LGA,2013-06-25T18:51:00Z,93.02,62.06,35.87,220.00,12,0,29.86,1011.00,10,20.00,SCT,BKN,M,M,6500.00,25000.00,M,M,M,KLGA 251851Z 22012G20KT 10SM SCT065 BKN250 34/17 A2986 RMK AO2 SLP110 T03390167
LGA,2013-06-25T19:51:00Z,91.94,62.06,37.1,240.00,13,0,29.83,1010.00,10,20.00,SCT,SCT,BKN,M,6000.00,7500.00,25000.00,M,M,KLGA 251951Z 24013G20KT 10SM SCT060 SCT075 BKN250 33/17 A2983 RMK AO2 SLP100 T03330167
LGA,2013-06-25T20:51:00Z,91.94,62.06,37.1,270.00,14,0,29.83,1010.00,10,21.00,SCT,BKN,BKN,M,6000.00,11000.00,25000.00,M,M,KLGA 252051Z 27014G21KT 10SM SCT060CB BKN110 BKN250 33/17 A2983 RMK AO2 SLP100 CB SW MOV SE T03330167 56016
LGA,2013-06-25T21:51:00Z,84.02,66.02,54.77,220.00,12,0,29.81,1009.50,10,20.00,FEW,SCT,BKN,M,5500.00,14000.00,25000.00,M,M,KLGA 252151Z 22012G20KT 10SM FEW055 SCT140 BKN250 29/19 A2981 RMK AO2 SLP095 T02890189
LGA,2013-06-25T22:51:00Z,87.08,66.02,49.66,230.00,11,0,29.81,1009.30,10,17.00,FEW,SCT,BKN,M,5500.00,14000.00,25000.00,M,M,KLGA 252251Z 23011G17KT 10SM FEW055 SCT140 BKN250 31/19 A2981 RMK AO2 SLP093 T03060189
LGA,2013-06-25T23:51:00Z,87.08,64.94,47.83,250.00,14,0,29.8,1009.00,10,M,FEW,BKN,M,M,14000.00,23000.00,M,M,M,KLGA 252351Z 25014KT 10SM FEW140 BKN230 31/18 A2980 RMK AO2 SLP090 T03060183 10350 20289 56010
LGA,2013-06-26T00:51:00Z,84.92,64.04,49.66,260.00,13,0,29.81,1009.40,10,25.00,FEW,BKN,M,M,14000.00,25000.00,M,M,M,KLGA 260051Z 26013G25KT 10SM FEW140 BKN250 29/18 A2981 RMK AO2 PK WND 28027/0019 SLP094 T02940178
LGA,2013-06-26T01:51:00Z,84.92,64.04,49.66,270.00,13,0,29.82,1009.90,10,21.00,FEW,SCT,SCT,M,5000.00,14000.00,25000.00,M,M,KLGA 260151Z 27013G21KT 10SM FEW050 SCT140 SCT250 29/18 A2982 RMK AO2 SLP099 T02940178
LGA,2013-06-26T02:51:00Z,84.92,64.04,49.66,260.00,9,0,29.82,1009.90,10,M,FEW,SCT,BKN,M,5000.00,10000.00,25000.00,M,TS,KLGA 260251Z 26009KT 10SM TS FEW050CB SCT100 BKN250 29/18 A2982 RMK AO2 TSB51 SLP099 FRQ LTGICCC VC W TS W MOV SE T02940178 51008
LGA,2013-06-26T03:45:00Z,82.4,64.4,54.55,260.00,8,0,29.82,M,10,20.00,FEW,SCT,BKN,M,5000.00,18000.00,25000.00,M,M,KLGA 260345Z 26008G20KT 10SM FEW050 SCT180 BKN250 28/18 A2982 RMK AO2 TSE44
LGA,2013-06-26T03:51:00Z,82.94,64.94,54.63,260.00,8,0,29.81,1009.60,10,M,FEW,SCT,BKN,M,5000.00,18000.00,25000.00,M,M,KLGA 260351Z 26008KT 10SM FEW050 SCT180 BKN250 28/18 A2981 RMK AO2 TSE44 SLP096 T02830183
LGA,2013-06-26T04:51:00Z,80.96,69.98,69.32,190.00,6,0.01,29.79,1008.70,10,M,SCT,SCT,BKN,M,9000.00,15000.00,23000.00,M,M,KLGA 260451Z 19006KT 10SM SCT090 SCT150 BKN230 27/21 A2979 RMK AO2 RAB0359E24 SLP087 P0001 T02720211 403500239
LGA,2013-06-26T05:51:00Z,78.98,69.08,71.72,230.00,7,0,29.78,1008.40,10,M,SCT,SCT,M,M,15000.00,25000.00,M,M,M,KLGA 260551Z 23007KT 10SM SCT150 SCT250 26/21 A2978 RMK AO2 SLP084 60001 T02610206 10306 20261 58015
LGA,2013-06-26T06:51:00Z,80.06,66.92,64.26,250.00,9,0,29.77,1008.10,10,M,BKN,M,M,M,15000.00,M,M,M,M,KLGA 260651Z 25009KT 10SM BKN150 27/19 A2977 RMK AO2 SLP081 T02670194
LGA,2013-06-26T07:51:00Z,78.08,66.02,66.48,290.00,16,0,29.79,1008.60,10,19.00,SCT,SCT,M,M,11000.00,25000.00,M,M,M,KLGA 260751Z 29016G19KT 10SM SCT110 SCT250 26/19 A2979 RMK AO2 SLP086 T02560189
LGA,2013-06-26T08:51:00Z,77,64.94,66.36,270.00,9,0,29.79,1008.80,10,M,BKN,M,M,M,15000.00,M,M,M,M,KLGA 260851Z 27009KT 10SM BKN150 25/18 A2979 RMK AO2 SLP088 T02500183 53004
LGA,2013-06-26T09:51:00Z,77,64.04,64.3,290.00,9,0,29.81,1009.50,10,M,BKN,BKN,M,M,14000.00,25000.00,M,M,M,KLGA 260951Z 29009KT 10SM BKN140 BKN250 25/18 A2981 RMK AO2 SLP095 T02500178
LGA,2013-06-26T10:51:00Z,77,62.96,61.91,260.00,8,0,29.83,1010.10,10,M,FEW,BKN,M,M,16000.00,25000.00,M,M,M,KLGA 261051Z 26008KT 10SM FEW160 BKN250 25/17 A2983 RMK AO2 SLP101 T02500172
LGA,2013-06-26T11:51:00Z,78.08,62.96,59.74,280.00,8,0,29.84,1010.50,10,16.00,FEW,BKN,M,M,16000.00,25000.00,M,M,M,KLGA 261151Z 28008G16KT 10SM FEW160 BKN250 26/17 A2984 RMK AO2 SLP105 70001 T02560172 10267 20244 51017
LGA,2013-06-26T12:51:00Z,80.96,64.04,56.45,300.00,5,0,29.84,1010.40,10,M,FEW,BKN,M,M,14000.00,25000.00,M,M,M,KLGA 261251Z 30005KT 10SM FEW140 BKN250 27/18 A2984 RMK AO2 SLP104 T02720178
LGA,2013-06-26T13:51:00Z,82.94,62.96,50.97,260.00,9,0,29.83,1010.20,10,M,FEW,SCT,M,M,14000.00,25000.00,M,M,M,KLGA 261351Z 26009KT 10SM FEW140 SCT250 28/17 A2983 RMK AO2 SLP102 T02830172
LGA,2013-06-26T14:51:00Z,84.92,62.06,46.32,270.00,10,0,29.83,1010.10,10,M,SCT,SCT,M,M,14000.00,25000.00,M,M,M,KLGA 261451Z 27010KT 10SM SCT140 SCT250 29/17 A2983 RMK AO2 SLP101 T02940167 58004
LGA,2013-06-26T15:51:00Z,86,62.96,46.19,270.00,7,0,29.82,1009.90,10,M,BKN,M,M,M,16000.00,M,M,M,M,KLGA 261551Z 27007KT 10SM BKN160 30/17 A2982 RMK AO2 SLP099 T03000172
LGA,2013-06-26T16:51:00Z,84.92,60.08,43.18,280.00,9,0,29.84,1010.40,10,M,FEW,BKN,OVC,M,11000.00,15000.00,19000.00,M,M,KLGA 261651Z 28009KT 10SM FEW110 BKN150 OVC190 29/16 A2984 RMK AO2 SLP104 T02940156
LGA,2013-06-26T17:51:00Z,84.92,62.06,46.32,280.00,7,0,29.84,1010.30,10,M,FEW,BKN,OVC,M,7500.00,15000.00,20000.00,M,M,KLGA 261751Z 28007KT 10SM FEW075 BKN150 OVC200 29/17 A2984 RMK AO2 SLP103 T02940167 10300 20256 53002
LGA,2013-06-26T18:51:00Z,84.92,62.06,46.32,250.00,8,0,29.83,1010.00,10,M,FEW,BKN,OVC,M,8000.00,15000.00,20000.00,M,M,KLGA 261851Z 25008KT 10SM FEW080 BKN150 OVC200 29/17 A2983 RMK AO2 SLP100 T02940167
LGA,2013-06-26T19:51:00Z,87.08,60.98,41.61,250.00,6,0,29.81,1009.30,10,M,FEW,BKN,OVC,M,8000.00,15000.00,20000.00,M,M,KLGA 261951Z 25006KT 10SM FEW080 BKN150 OVC200 31/16 A2981 RMK AO2 SLP093 T03060161
LGA,2013-06-26T20:51:00Z,87.08,62.96,44.63,220.00,8,0,29.79,1008.80,10,16.00,FEW,BKN,BKN,M,8000.00,15000.00,25000.00,M,M,KLGA 262051Z 22008G16KT 10SM FEW080 BKN150 BKN250 31/17 A2979 RMK AO2 SLP088 T03060172 58015
LGA,2013-06-26T21:51:00Z,87.98,62.06,42.02,280.00,7,0,29.78,1008.50,10,M,FEW,BKN,OVC,M,4000.00,15000.00,25000.00,M,M,KLGA 262151Z 28007KT 250V330 10SM FEW040 BKN150 OVC250 31/17 A2978 RMK AO2 SLP085 T03110167
LGA,2013-06-26T22:51:00Z,87.08,62.06,43.23,260.00,6,0,29.79,1008.70,10,M,FEW,SCT,OVC,M,5500.00,7000.00,10000.00,M,M,KLGA 262251Z 26006KT 10SM FEW055 SCT070 OVC100 31/17 A2979 RMK AO2 SLP087 T03060167
LGA,2013-06-26T23:51:00Z,84.02,64.94,52.75,0.00,0,0.01,29.8,1009.00,10,M,SCT,SCT,BKN,OVC,5500.00,9500.00,15000.00,25000.00,M,KLGA 262351Z 00000KT 10SM SCT055 SCT095 BKN150 OVC250 29/18 A2980 RMK AO2 RAB2254E11 SLP090 P0001 60001 T02890183 10317 20278 53002
LGA,2013-06-27T00:51:00Z,80.96,66.02,60.49,M,5,0,29.8,1009.00,10,M,SCT,SCT,BKN,OVC,6000.00,10000.00,15000.00,25000.00,M,KLGA 270051Z VRB05KT 10SM SCT060 SCT100 BKN150 OVC250 27/19 A2980 RMK AO2 SLP090 T02720189
LGA,2013-06-27T01:51:00Z,80.06,66.02,62.29,160.00,3,0,29.81,1009.30,10,M,FEW,SCT,BKN,OVC,4000.00,10000.00,15000.00,25000.00,M,KLGA 270151Z 16003KT 10SM FEW040 SCT100 BKN150 OVC250 27/19 A2981 RMK AO2 SLP093 T02670189
LGA,2013-06-27T02:51:00Z,78.98,66.92,66.58,170.00,8,0,29.82,1009.70,10,M,BKN,M,M,M,11000.00,M,M,M,M,KLGA 270251Z 17008KT 10SM BKN110 26/19 A2982 RMK AO2 SLP097 T02610194 53007
LGA,2013-06-27T03:51:00Z,75.92,66.92,73.68,M,4,0,29.82,1009.80,10,M,BKN,M,M,M,13000.00,M,M,M,M,KLGA 270351Z VRB04KT 10SM BKN130 24/19 A2982 RMK AO2 SLP098 T02440194
LGA,2013-06-27T04:51:00Z,77,66.92,71.08,160.00,4,0,29.8,1009.20,10,M,FEW,BKN,M,M,5500.00,13000.00,M,M,M,KLGA 270451Z 16004KT 10SM FEW055 BKN130 25/19 A2980 RMK AO2 SLP092 T02500194 403170244
LGA,2013-06-27T05:51:00Z,75.02,66.92,75.93,100.00,3,0,29.78,1008.30,10,M,SCT,BKN,M,M,10000.00,13000.00,M,M,M,KLGA 270551Z 10003KT 10SM SCT100 BKN130 24/19 A2978 RMK AO2 RAB08E24 SLP083 P0000 60000 T02390194 10289 20239 58015
LGA,2013-06-27T06:51:00Z,75.02,66.92,75.93,0.00,0,0,29.77,1008.00,10,M,BKN,M,M,M,10000.00,M,M,M,M,KLGA 270651Z 00000KT 10SM BKN100 24/19 A2977 RMK AO2 SLP080 T02390194
LGA,2013-06-27T07:51:00Z,73.94,66.92,78.72,0.00,0,0,29.76,1007.70,10,M,SCT,M,M,M,10000.00,M,M,M,M,KLGA 270751Z 00000KT 10SM SCT100 23/19 A2976 RMK AO2 SLP077 T02330194
LGA,2013-06-27T08:51:00Z,73.94,66.92,78.72,0.00,0,0,29.77,1008.10,10,M,SCT,M,M,M,13000.00,M,M,M,M,KLGA 270851Z 00000KT 10SM SCT130 23/19 A2977 RMK AO2 SLP081 T02330194 55002
LGA,2013-06-27T09:51:00Z,75.02,66.92,75.93,80.00,4,0,29.78,1008.60,10,M,BKN,OVC,M,M,4700.00,6500.00,M,M,M,KLGA 270951Z 08004KT 10SM BKN047 OVC065 24/19 A2978 RMK AO2 SLP086 T02390194
LGA,2013-06-27T10:51:00Z,73.94,68,81.71,50.00,5,0,29.79,1008.90,8,M,FEW,SCT,OVC,M,3700.00,6000.00,8500.00,M,M,KLGA 271051Z 05005KT 8SM FEW037 SCT060 OVC085 23/20 A2979 RMK AO2 SLP089 T02330200
LGA,2013-06-27T11:51:00Z,75.02,68,78.81,50.00,6,0,29.79,1008.80,8,M,FEW,SCT,OVC,M,3600.00,6500.00,9000.00,M,M,KLGA 271151Z 05006KT 8SM FEW036 SCT065 OVC090 24/20 A2979 RMK AO2 RAB20E34 SLP088 P0000 60000 70001 T02390200 10250 20228 50006
LGA,2013-06-27T12:51:00Z,77,69.08,76.57,40.00,6,0,29.79,1008.60,8,M,FEW,BKN,M,M,4000.00,9500.00,M,M,M,KLGA 271251Z 04006KT 8SM FEW040 BKN095 25/21 A2979 RMK AO2 SLP086 T02500206
LGA,2013-06-27T13:51:00Z,78.98,66.92,66.58,30.00,5,0,29.77,1008.20,10,M,FEW,SCT,SCT,M,4200.00,9500.00,25000.00,M,M,KLGA 271351Z 03005KT 10SM FEW042 SCT095 SCT250 26/19 A2977 RMK AO2 SLP082 T02610194
LGA,2013-06-27T14:51:00Z,80.06,68,66.7,60.00,7,0,29.77,1007.90,10,M,FEW,SCT,M,M,3500.00,25000.00,M,M,M,KLGA 271451Z 06007KT 10SM FEW035 SCT250 27/20 A2977 RMK AO2 SLP079 T02670200 58008
LGA,2013-06-27T15:51:00Z,80.06,68,66.7,50.00,10,0,29.76,1007.60,10,M,FEW,BKN,M,M,3800.00,25000.00,M,M,M,KLGA 271551Z 05010KT 10SM FEW038TCU BKN250 27/20 A2976 RMK AO2 SLP076 TCU SE-SW T02670200
LGA,2013-06-27T16:51:00Z,80.06,68,66.7,50.00,11,0,29.75,1007.50,10,20.00,FEW,BKN,BKN,M,4000.00,6000.00,25000.00,M,M,KLGA 271651Z 05011G20KT 10SM FEW040 BKN060TCU BKN250 27/20 A2975 RMK AO2 SLP075 TCU OHD AND E-S-SW T02670200
LGA,2013-06-27T17:51:00Z,80.06,68,66.7,50.00,11,0,29.74,1007.00,10,M,FEW,SCT,BKN,M,4200.00,6000.00,25000.00,M,M,KLGA 271751Z 05011KT 10SM FEW042 SCT060 BKN250 27/20 A2974 RMK AO2 SLP070 T02670200 10272 20239 58010
LGA,2013-06-27T18:51:00Z,80.06,69.98,71.39,70.00,7,0,29.73,1006.70,10,M,FEW,SCT,BKN,M,4000.00,6500.00,25000.00,M,M,KLGA 271851Z 07007KT 10SM FEW040 SCT065 BKN250 27/21 A2973 RMK AO2 SLP067 T02670211
LGA,2013-06-27T19:51:00Z,82.04,69.08,64.9,150.00,11,0,29.72,1006.40,10,M,FEW,SCT,BKN,M,4000.00,6500.00,25000.00,M,M,KLGA 271951Z 15011KT 10SM FEW040 SCT065 BKN250 28/21 A2972 RMK AO2 SLP064 T02780206
LGA,2013-06-27T20:51:00Z,80.96,66.92,62.4,140.00,11,0,29.69,1005.50,10,14.00,FEW,SCT,BKN,M,4000.00,6500.00,25000.00,M,M,KLGA 272051Z 14011G14KT 10SM FEW040 SCT065 BKN250 27/19 A2969 RMK AO2 SLP055 T02720194 58015
LGA,2013-06-27T21:51:00Z,82.04,68,62.53,140.00,12,0,29.67,1004.70,10,20.00,FEW,SCT,BKN,M,4000.00,6500.00,25000.00,M,M,KLGA 272151Z 14012G20KT 110V170 10SM FEW040 SCT065 BKN250 28/20 A2967 RMK AO2 SLP047 T02780200
LGA,2013-06-27T22:51:00Z,78.98,69.08,71.72,140.00,9,0,29.68,1005.10,10,M,FEW,SCT,SCT,BKN,2000.00,4000.00,15000.00,25000.00,M,KLGA 272251Z 14009KT 10SM FEW020 SCT040 SCT150 BKN250 26/21 A2968 RMK AO2 SLP051 T02610206
LGA,2013-06-27T23:06:00Z,78.8,68,69.52,170.00,13,0,29.67,M,10,20.00,BKN,BKN,OVC,M,1800.00,15000.00,25000.00,M,M,KLGA 272306Z 17013G20KT 10SM BKN018 BKN150 OVC250 26/20 A2967 RMK AO2
LGA,2013-06-27T23:25:00Z,78.8,68,69.52,130.00,12,0,29.67,M,10,16.00,SCT,BKN,OVC,M,1800.00,15000.00,25000.00,M,M,KLGA 272325Z 13012G16KT 10SM SCT018 BKN150 OVC250 26/20 A2967 RMK AO2
LGA,2013-06-27T23:51:00Z,78.98,68,69.11,130.00,9,0,29.66,1004.20,10,15.00,FEW,BKN,OVC,M,2000.00,15000.00,25000.00,M,M,KLGA 272351Z 13009G15KT 10SM FEW020 BKN150 OVC250 26/20 A2966 RMK AO2 SLP042 T02610200 10294 20250 58013
LGA,2013-06-28T00:35:00Z,77,68,73.78,130.00,13,0,29.64,M,10,18.00,BKN,M,M,M,1700.00,M,M,M,M,KLGA 280035Z 13013G18KT 10SM BKN017 25/20 A2964 RMK AO2
LGA,2013-06-28T00:51:00Z,77,68,73.78,130.00,10,0,29.62,1002.90,10,20.00,OVC,M,M,M,1500.00,M,M,M,M,KLGA 280051Z 13010G20KT 10SM OVC015 25/20 A2962 RMK AO2 PRESFR SLP029 T02500200
LGA,2013-06-28T01:17:00Z,77,69.8,78.48,110.00,14,0,29.59,M,10,20.00,BKN,OVC,M,M,1500.00,5000.00,M,M,-TSRA,KLGA 280117Z 11014G20KT 10SM -TSRA BKN015 OVC050CB 25/21 A2959 RMK AO2 TSB11RAB09 OCNL LTGICCC OHD TS MOV NE P0000
LGA,2013-06-28T01:51:00Z,75.92,71.06,84.92,150.00,13,0.07,29.59,1001.90,10,18.00,BKN,OVC,M,M,1500.00,5000.00,M,M,-TSRA,KLGA 280151Z 15013G18KT 10SM -TSRA BKN015 OVC050CB 24/22 A2959 RMK AO2 TSB11RAB09 SLP019 OCNL LTGICCC OHD TS MOV NE P0007 T02440217
LGA,2013-06-28T02:28:00Z,75.2,71.6,88.59,180.00,16,0.06,29.57,M,6,26.00,BKN,OVC,M,M,800.00,1300.00,M,M,-RA BR,KLGA 280228Z 18016G26KT 6SM -RA BR BKN008 OVC013 24/22 A2957 RMK AO2 PK WND 15027/0155 TSE22 P0006
LGA,2013-06-28T02:49:00Z,75.2,71.6,88.59,170.00,16,0.06,29.57,M,9,23.00,SCT,BKN,OVC,M,800.00,2400.00,10000.00,M,M,KLGA 280249Z 17016G23KT 9SM SCT008 BKN024 OVC100 24/22 A2957 RMK AO2 PK WND 16031/0231 TSE22RAE41 CIG 012 R22 SW P0006
LGA,2013-06-28T02:51:00Z,75.02,71.06,87.5,170.00,15,0.06,29.57,1001.40,9,23.00,FEW,BKN,OVC,M,800.00,2400.00,10000.00,M,M,KLGA 280251Z 17015G23KT 9SM FEW008 BKN024 OVC100 24/22 A2957 RMK AO2 PK WND 16031/0231 TSE22RAE41 CIG 012 R22 SW SLP014 P0006 60013 T02390217 56028
LGA,2013-06-28T03:24:00Z,73.4,71.6,94.1,170.00,12,0,29.57,M,8,M,SCT,BKN,OVC,M,1000.00,1300.00,2000.00,M,M,KLGA 280324Z 17012KT 8SM SCT010 BKN013 OVC020 23/22 A2957
LGA,2013-06-28T03:51:00Z,73.94,69.98,87.45,170.00,13,0,29.56,1001.00,8,17.00,SCT,BKN,OVC,M,1000.00,1300.00,2200.00,M,-RA,KLGA 280351Z 17013G17KT 8SM -RA SCT010 BKN013 OVC022 23/21 A2956 RMK AO2 RAB48 SLP010 P0000 T02330211
LGA,2013-06-28T03:58:00Z,73.4,71.6,94.1,170.00,12,0,29.56,M,8,M,BKN,OVC,M,M,1900.00,3100.00,M,M,-RA,KLGA 280358Z 17012KT 8SM -RA BKN019 OVC031 23/22 A2956 RMK AO2 P0000
LGA,2013-06-28T04:46:00Z,75.2,69.8,83.32,210.00,10,0,29.56,M,10,M,SCT,SCT,BKN,M,1700.00,2500.00,14000.00,M,M,KLGA 280446Z 21010KT 10SM SCT017 SCT025 BKN140 24/21 A2956
LGA,2013-06-28T04:51:00Z,75.92,69.08,79.37,200.00,11,0,29.56,1001.10,10,M,SCT,SCT,BKN,M,1700.00,2500.00,14000.00,M,M,KLGA 280451Z 20011KT 10SM SCT017 SCT025 BKN140 24/21 A2956 RMK AO2 RAE10 SLP011 P0000 T02440206 402940228
LGA,2013-06-28T05:34:00Z,75.2,69.8,83.32,190.00,13,0,29.55,M,10,M,BKN,BKN,M,M,1700.00,14000.00,M,M,M,KLGA 280534Z 19013KT 10SM BKN017 BKN140 24/21 A2955 RMK AO2
LGA,2013-06-28T05:51:00Z,75.92,69.08,79.37,180.00,8,0,29.55,1000.70,10,17.00,BKN,BKN,OVC,M,1700.00,2100.00,14000.00,M,M,KLGA 280551Z 18008G17KT 10SM BKN017 BKN021 OVC140 24/21 A2955 RMK AO2 SLP007 60013 T02440206 10267 20233 56007
LGA,2013-06-28T06:45:00Z,75.2,69.8,83.32,160.00,11,0,29.55,M,10,16.00,FEW,SCT,BKN,OVC,2000.00,4400.00,6000.00,14000.00,M,KLGA 280645Z 16011G16KT 10SM FEW020 SCT044 BKN060 OVC140 24/21 A2955 RMK AO2
LGA,2013-06-28T06:51:00Z,75.02,69.08,81.79,170.00,11,0,29.54,1000.50,10,16.00,FEW,BKN,BKN,OVC,2000.00,4200.00,6000.00,14000.00,M,KLGA 280651Z 17011G16KT 10SM FEW020 BKN042 BKN060 OVC140 24/21 A2954 RMK AO2 SLP005 T02390206
LGA,2013-06-28T07:28:00Z,73.4,68,83.21,190.00,9,0,29.54,M,10,M,BKN,BKN,OVC,M,2200.00,4100.00,6000.00,M,M,KLGA 280728Z 19009KT 10SM BKN022 BKN041 OVC060 23/20 A2954 RMK AO2
LGA,2013-06-28T07:51:00Z,75.02,68,78.81,200.00,10,0,29.53,999.90,10,M,BKN,BKN,BKN,M,2200.00,5000.00,7000.00,M,M,KLGA 280751Z 20010KT 10SM BKN022 BKN050 BKN070 24/20 A2953 RMK AO2 SLP999 T02390200
LGA,2013-06-28T08:51:00Z,75.02,68,78.81,210.00,10,0,29.52,999.70,10,M,BKN,BKN,M,M,1900.00,11000.00,M,M,M,KLGA 280851Z 21010KT 10SM BKN019 BKN110 24/20 A2952 RMK AO2 SLP997 T02390200 56008
LGA,2013-06-28T09:51:00Z,73.94,68,81.71,220.00,12,0,29.53,999.90,10,M,BKN,BKN,M,M,1700.00,11000.00,M,M,M,KLGA 280951Z 22012KT 10SM BKN017 BKN110 23/20 A2953 RMK AO2 SLP999 T02330200
LGA,2013-06-28T10:19:00Z,73.4,68,83.21,220.00,9,0,29.53,M,10,M,SCT,SCT,M,M,1900.00,10000.00,M,M,M,KLGA 281019Z 22009KT 10SM SCT019 SCT100 23/20 A2953 RMK AO2
LGA,2013-06-28T10:47:00Z,73.4,68,83.21,220.00,8,0,29.54,M,10,M,SCT,BKN,BKN,M,1600.00,2400.00,7500.00,M,M,KLGA 281047Z 22008KT 10SM SCT016 BKN024 BKN075 23/20 A2954 RMK AO2
LGA,2013-06-28T10:51:00Z,73.94,68,81.71,220.00,9,0,29.54,1000.40,10,M,SCT,BKN,BKN,M,1600.00,2400.00,7500.00,M,M,KLGA 281051Z 22009KT 10SM SCT016 BKN024 BKN075 23/20 A2954 RMK AO2 SLP004 T02330200
LGA,2013-06-28T11:51:00Z,75.02,68,78.81,230.00,8,0,29.54,1000.20,10,M,BKN,BKN,M,M,1900.00,7500.00,M,M,M,KLGA 281151Z 23008KT 10SM BKN019 BKN075 24/20 A2954 RMK AO2 SLP002 70013 T02390200 10244 20233 50003
LGA,2013-06-28T12:41:00Z,75.2,68,78.34,240.00,10,0,29.53,M,10,M,SCT,BKN,M,M,2000.00,3300.00,M,M,M,KLGA 281241Z 24010KT 10SM SCT020 BKN033 24/20 A2953 RMK AO2
LGA,2013-06-28T12:51:00Z,75.92,68,76.48,240.00,12,0,29.53,999.90,10,M,SCT,BKN,M,M,2000.00,3300.00,M,M,M,KLGA 281251Z 24012KT 10SM SCT020 BKN033 24/20 A2953 RMK AO2 SLP999 T02440200
LGA,2013-06-28T13:51:00Z,78.98,66.92,66.58,240.00,8,0,29.5,999.10,10,M,FEW,BKN,BKN,M,2200.00,3800.00,25000.00,M,M,KLGA 281351Z 24008KT 10SM FEW022 BKN038 BKN250 26/19 A2950 RMK AO2 SLP991 T02610194
LGA,2013-06-28T14:51:00Z,80.06,66.02,62.29,230.00,10,0,29.51,999.20,10,16.00,BKN,BKN,OVC,M,3200.00,5000.00,25000.00,M,M,KLGA 281451Z 23010G16KT 10SM BKN032 BKN050 OVC250 27/19 A2951 RMK AO2 SLP992 T02670189 55010
LGA,2013-06-28T15:51:00Z,82.94,66.02,56.72,220.00,12,0,29.52,999.70,10,17.00,BKN,BKN,BKN,M,3100.00,4800.00,25000.00,M,M,KLGA 281551Z 22012G17KT 10SM BKN031 BKN048 BKN250 28/19 A2952 RMK AO2 SLP997 T02830189
LGA,2013-06-28T16:51:00Z,84.02,64.94,52.75,210.00,11,0,29.52,999.50,10,M,SCT,BKN,BKN,BKN,3500.00,6500.00,14000.00,25000.00,M,KLGA 281651Z 21011KT 10SM SCT035 BKN065 BKN140 BKN250 29/18 A2952 RMK AO2 SLP995 T02890183
LGA,2013-06-28T17:51:00Z,84.92,64.94,51.25,220.00,9,0,29.51,999.30,10,17.00,SCT,BKN,BKN,M,4000.00,7500.00,25000.00,M,M,KLGA 281751Z 22009G17KT 10SM SCT040TCU BKN075 BKN250 29/18 A2951 RMK AO2 SLP993 TCU ALQDS T02940183 10300 20239 50001
LGA,2013-06-28T18:51:00Z,87.08,64.04,46.35,240.00,8,0,29.5,998.90,10,M,SCT,SCT,BKN,M,4500.00,7000.00,25000.00,M,M,KLGA 281851Z 24008KT 10SM SCT045 SCT070 BKN250 31/18 A2950 RMK AO2 SLP989 T03060178
LGA,2013-06-28T19:51:00Z,87.08,64.94,47.83,200.00,10,0,29.48,998.30,10,M,SCT,SCT,BKN,M,4500.00,8000.00,25000.00,M,M,KLGA 281951Z 20010KT 10SM SCT045 SCT080 BKN250 31/18 A2948 RMK AO2 SLP983 T03060183
LGA,2013-06-28T20:51:00Z,87.08,64.04,46.35,220.00,7,0,29.48,998.10,10,19.00,SCT,SCT,BKN,M,5000.00,8000.00,25000.00,M,M,KLGA 282051Z 22007G19KT 200V260 10SM SCT050 SCT080 BKN250 31/18 A2948 RMK AO2 SLP981 T03060178 56011
LGA,2013-06-28T21:51:00Z,82.94,66.92,58.51,150.00,12,0,29.47,998.10,10,M,FEW,SCT,BKN,BKN,5000.00,8000.00,20000.00,25000.00,M,KLGA 282151Z 15012KT 10SM FEW050 SCT080 BKN200 BKN250 28/19 A2947 RMK AO2 SLP981 T02830194
LGA,2013-06-28T22:51:00Z,82.04,66.92,60.25,180.00,8,0,29.5,998.80,10,M,FEW,SCT,BKN,M,5000.00,8000.00,20000.00,M,M,KLGA 282251Z 18008KT 10SM FEW050 SCT080 BKN200 28/19 A2950 RMK AO2 SLP988 T02780194
LGA,2013-06-28T23:51:00Z,78.98,69.08,71.72,180.00,10,0,29.48,998.20,10,M,FEW,SCT,BKN,M,5000.00,10000.00,20000.00,M,-RA,KLGA 282351Z 18010KT 10SM -RA FEW050 SCT100 BKN200 26/21 A2948 RMK AO2 RAB38 SLP982 P0000 60000 T02610206 10317 20261 50001
LGA,2013-06-29T00:51:00Z,78.98,68,69.11,210.00,10,0,29.5,999.10,10,M,FEW,SCT,BKN,M,5000.00,10000.00,20000.00,M,M,KLGA 290051Z 21010KT 10SM FEW050 SCT100 BKN200 26/20 A2950 RMK AO2 RAE41 SLP991 P0000 T02610200
LGA,2013-06-29T01:51:00Z,78.98,62.96,57.99,250.00,11,0,29.51,999.30,10,M,SCT,BKN,OVC,M,5000.00,13000.00,25000.00,M,M,KLGA 290151Z 25011KT 10SM SCT050 BKN130 OVC250 26/17 A2951 RMK AO2 SLP993 T02610172
LGA,2013-06-29T02:51:00Z,77,62.96,61.91,230.00,9,0,29.52,999.50,10,M,SCT,SCT,M,M,17000.00,25000.00,M,M,M,KLGA 290251Z 23009KT 10SM SCT170 SCT250 25/17 A2952 RMK AO2 SLP995 60000 T02500172 51013
LGA,2013-06-29T03:51:00Z,78.08,60.98,55.7,230.00,5,0,29.5,999.10,10,M,BKN,BKN,M,M,14000.00,20000.00,M,M,M,KLGA 290351Z 23005KT 10SM BKN140 BKN200 26/16 A2950 RMK AO2 SLP991 T02560161
LGA,2013-06-29T04:51:00Z,75.92,62.96,64.17,170.00,10,0,29.5,998.90,10,M,BKN,M,M,M,14000.00,M,M,M,M,KLGA 290451Z 17010KT 10SM BKN140 24/17 A2950 RMK AO2 SLP989 T02440172 403170233
LGA,2013-06-29T05:51:00Z,73.94,64.94,73.49,200.00,6,0,29.5,998.90,10,M,BKN,M,M,M,14000.00,M,M,M,M,KLGA 290551Z 20006KT 10SM BKN140 23/18 A2950 RMK AO2 SLP989 60000 T02330183 10272 20233 56006
LGA,2013-06-29T06:51:00Z,73.94,64.94,73.49,200.00,6,0,29.49,998.60,10,M,FEW,M,M,M,14000.00,M,M,M,M,KLGA 290651Z 20006KT 10SM FEW140 23/18 A2949 RMK AO2 SLP986 T02330183
LGA,2013-06-29T07:51:00Z,73.04,64.94,75.75,180.00,7,0,29.5,998.90,10,M,SCT,M,M,M,16000.00,M,M,M,M,KLGA 290751Z 18007KT 10SM SCT160 23/18 A2950 RMK AO2 SLP989 T02280183
LGA,2013-06-29T08:51:00Z,73.04,64.94,75.75,190.00,6,0,29.52,999.60,10,M,FEW,SCT,SCT,M,3800.00,16000.00,25000.00,M,M,KLGA 290851Z 19006KT 10SM FEW038 SCT160 SCT250 23/18 A2952 RMK AO2 SLP996 T02280183 53007
LGA,2013-06-29T09:51:00Z,73.04,64.94,75.75,200.00,8,0,29.55,1000.60,10,M,CLR,M,M,M,M,M,M,M,M,KLGA 290951Z 20008KT 10SM CLR 23/18 A2955 RMK AO2 SLP006 T02280183
LGA,2013-06-29T10:42:00Z,73.4,66.2,78.19,190.00,9,0,29.56,M,10,M,BKN,BKN,BKN,M,2000.00,15000.00,25000.00,M,M,KLGA 291042Z 19009KT 10SM BKN020 BKN150 BKN250 23/19 A2956 RMK AO2
LGA,2013-06-29T10:51:00Z,73.04,66.02,78.65,190.00,9,0,29.56,1001.00,10,M,BKN,BKN,BKN,M,2000.00,15000.00,25000.00,M,M,KLGA 291051Z 19009KT 10SM BKN020 BKN150 BKN250 23/19 A2956 RMK AO2 SLP010 T02280189
LGA,2013-06-29T11:51:00Z,73.04,64.94,75.75,220.00,7,0,29.57,1001.40,10,M,OVC,M,M,M,1600.00,M,M,M,M,KLGA 291151Z 22007KT 10SM OVC016 23/18 A2957 RMK AO2 SLP014 T02280183 10239 20222 51019
LGA,2013-06-29T12:51:00Z,73.94,66.02,76.31,200.00,8,0,29.58,1001.70,9,M,SCT,BKN,BKN,M,1600.00,2400.00,15000.00,M,M,KLGA 291251Z 20008KT 9SM SCT016 BKN024 BKN150 23/19 A2958 RMK AO2 SLP017 T02330189
LGA,2013-06-29T13:18:00Z,75.2,66.2,73.61,200.00,9,0,29.59,M,10,M,SCT,SCT,BKN,M,1500.00,2600.00,15000.00,M,M,KLGA 291318Z 20009KT 10SM SCT015 SCT026 BKN150 24/19 A2959
LGA,2013-06-29T13:48:00Z,75.2,66.2,73.61,200.00,10,0,29.59,M,10,M,BKN,BKN,M,M,2600.00,15000.00,M,M,M,KLGA 291348Z 20010KT 10SM BKN026 BKN150 24/19 A2959 RMK AO2
LGA,2013-06-29T13:51:00Z,75.92,66.02,71.42,200.00,8,0,29.59,1002.10,10,M,BKN,BKN,M,M,2600.00,15000.00,M,M,M,KLGA 291351Z 20008KT 10SM BKN026 BKN150 24/19 A2959 RMK AO2 SLP021 T02440189
LGA,2013-06-29T14:20:00Z,77,64.4,65.12,200.00,9,0,29.59,M,10,M,SCT,BKN,BKN,M,2200.00,3000.00,15000.00,M,M,KLGA 291420Z 20009KT 10SM SCT022 BKN030 BKN150 25/18 A2959 RMK AO2
LGA,2013-06-29T14:46:00Z,78.8,64.4,61.36,220.00,6,0,29.59,M,10,M,BKN,BKN,M,M,2700.00,15000.00,M,M,M,KLGA 291446Z 22006KT 10SM BKN027 BKN150 26/18 A2959 RMK AO2
LGA,2013-06-29T14:51:00Z,78.08,64.04,62.05,240.00,8,0,29.59,1002.10,10,M,BKN,BKN,M,M,2700.00,15000.00,M,M,M,KLGA 291451Z 24008KT 10SM BKN027 BKN150 26/18 A2959 RMK AO2 SLP021 T02560178 51004
LGA,2013-06-29T15:01:00Z,78.8,62.6,57.6,230.00,5,0,29.59,M,10,M,SCT,BKN,M,M,2700.00,15000.00,M,M,M,KLGA 291501Z 23005KT 10SM SCT027 BKN150 26/17 A2959 RMK AO2
LGA,2013-06-29T15:51:00Z,80.96,64.04,56.45,200.00,7,0,29.59,1002.10,10,15.00,FEW,SCT,M,M,2700.00,15000.00,M,M,M,KLGA 291551Z 20007G15KT 10SM FEW027 SCT150 27/18 A2959 RMK AO2 SLP021 T02720178
LGA,2013-06-29T16:51:00Z,82.94,60.98,47.52,210.00,10,0,29.59,1002.10,10,16.00,SCT,SCT,M,M,3500.00,13000.00,M,M,M,KLGA 291651Z 21010G16KT 10SM SCT035 SCT130 28/16 A2959 RMK AO2 SLP021 T02830161
LGA,2013-06-29T17:51:00Z,84.02,64.94,52.75,170.00,14,0,29.59,1002.20,10,M,SCT,BKN,M,M,4300.00,20000.00,M,M,M,KLGA 291751Z 17014KT 10SM SCT043 BKN200 29/18 A2959 RMK AO2 SLP022 T02890183 10289 20228 53001
LGA,2013-06-29T18:51:00Z,82.04,66.02,58.4,170.00,16,0,29.6,1002.40,10,22.00,FEW,SCT,SCT,M,2000.00,4100.00,20000.00,M,M,KLGA 291851Z 17016G22KT 10SM FEW020 SCT041 SCT200 28/19 A2960 RMK AO2 SLP024 CB DSNT N-NW T02780189
LGA,2013-06-29T19:51:00Z,84.02,64.94,52.75,160.00,16,0,29.6,1002.50,10,M,SCT,SCT,M,M,4000.00,20000.00,M,M,M,KLGA 291951Z 16016KT 10SM SCT040 SCT200 29/18 A2960 RMK AO2 SLP025 T02890183
LGA,2013-06-29T20:51:00Z,82.94,64.04,52.93,160.00,14,0,29.62,1002.90,10,22.00,FEW,SCT,BKN,M,4000.00,6000.00,20000.00,M,M,KLGA 292051Z 16014G22KT 10SM FEW040 SCT060 BKN200 28/18 A2962 RMK AO2 SLP029 TCU DSNT SW T02830178 53007
LGA,2013-06-29T21:51:00Z,80.06,66.92,64.26,180.00,14,0,29.61,1002.80,10,19.00,FEW,SCT,SCT,M,4000.00,6000.00,20000.00,M,M,KLGA 292151Z 18014G19KT 10SM FEW040 SCT060 SCT200 27/19 A2961 RMK AO2 SLP028 T02670194
LGA,2013-06-29T22:51:00Z,80.06,66.92,64.26,170.00,10,0,29.62,1003.10,10,M,FEW,SCT,SCT,BKN,2000.00,4000.00,6000.00,20000.00,M,KLGA 292251Z 17010KT 10SM FEW020 SCT040 SCT060 BKN200 BKN250 27/19 A2962 RMK AO2 SLP031 T02670194
LGA,2013-06-29T23:51:00Z,77,68,73.78,170.00,10,0,29.64,1003.60,10,M,FEW,SCT,SCT,BKN,4000.00,6000.00,15000.00,25000.00,M,KLGA 292351Z 17010KT 10SM FEW040 SCT060 SCT150 BKN250 25/20 A2964 RMK AO2 SLP036 T02500200 10294 20250 53007
LGA,2013-06-30T00:51:00Z,77,69.08,76.57,180.00,5,0,29.65,1004.10,10,M,FEW,SCT,BKN,M,6000.00,15000.00,25000.00,M,M,KLGA 300051Z 18005KT 10SM FEW060 SCT150 BKN250 25/21 A2965 RMK AO2 SLP041 T02500206
LGA,2013-06-30T01:51:00Z,78.98,69.08,71.72,180.00,5,0,29.68,1004.90,10,M,FEW,SCT,SCT,BKN,5000.00,9000.00,15000.00,25000.00,M,KLGA 300151Z 18005KT 10SM FEW050 SCT090 SCT150 BKN250 26/21 A2968 RMK AO2 SLP049 T02610206
LGA,2013-06-30T02:51:00Z,78.08,69.08,73.88,180.00,7,0,29.68,1005.10,10,M,FEW,SCT,SCT,BKN,5000.00,9000.00,15000.00,25000.00,M,KLGA 300251Z 18007KT 10SM FEW050 SCT090 SCT150 BKN250 26/21 A2968 RMK AO2 SLP051 T02560206 51015
LGA,2013-06-30T03:51:00Z,78.08,69.98,76.19,190.00,6,0,29.69,1005.40,10,M,FEW,SCT,BKN,M,9000.00,15000.00,25000.00,M,M,KLGA 300351Z 19006KT 10SM FEW090 SCT150 BKN250 26/21 A2969 RMK AO2 SLP054 T02560211
LGA,2013-06-30T04:51:00Z,78.08,69.08,73.88,190.00,7,0,29.7,1005.80,10,M,FEW,SCT,M,M,15000.00,25000.00,M,M,M,KLGA 300451Z 19007KT 10SM FEW150 SCT250 26/21 A2970 RMK AO2 SLP058 T02560206 402940222
LGA,2013-06-30T05:51:00Z,77,69.08,76.57,180.00,6,0,29.72,1006.30,10,M,FEW,BKN,M,M,15000.00,25000.00,M,M,M,KLGA 300551Z 18006KT 10SM FEW150 BKN250 25/21 A2972 RMK AO2 SLP063 T02500206 10261 20244 53012
LGA,2013-06-30T06:51:00Z,75.02,68,78.81,190.00,5,0,29.72,1006.40,10,M,CLR,M,M,M,M,M,M,M,M,KLGA 300651Z 19005KT 10SM CLR 24/20 A2972 RMK AO2 SLP064 T02390200
LGA,2013-06-30T07:51:00Z,73.94,68,81.71,170.00,6,0,29.72,1006.30,10,M,BKN,M,M,M,25000.00,M,M,M,M,KLGA 300751Z 17006KT 10SM BKN250 23/20 A2972 RMK AO2 SLP063 T02330200
LGA,2013-06-30T08:51:00Z,73.94,68,81.71,180.00,4,0,29.74,1006.90,10,M,BKN,M,M,M,25000.00,M,M,M,M,KLGA 300851Z 18004KT 10SM BKN250 23/20 A2974 RMK AO2 SLP069 T02330200 53006
LGA,2013-06-30T09:51:00Z,73.94,68,81.71,150.00,4,0,29.75,1007.40,10,M,BKN,M,M,M,25000.00,M,M,M,M,KLGA 300951Z 15004KT 10SM BKN250 23/20 A2975 RMK AO2 SLP074 T02330200
LGA,2013-06-30T10:51:00Z,73.94,68,81.71,180.00,6,0,29.78,1008.50,10,M,FEW,BKN,M,M,15000.00,25000.00,M,M,M,KLGA 301051Z 18006KT 10SM FEW150 BKN250 23/20 A2978 RMK AO2 SLP085 T02330200
LGA,2013-06-30T11:31:00Z,73.4,68,83.21,170.00,4,0,29.8,M,10,M,BKN,OVC,M,M,1700.00,25000.00,M,M,M,KLGA 301131Z 17004KT 10SM BKN017 OVC250 23/20 A2980 RMK AO2
LGA,2013-06-30T11:51:00Z,75.92,69.08,79.37,190.00,5,0,29.81,1009.30,10,M,BKN,OVC,M,M,1500.00,25000.00,M,M,M,KLGA 301151Z 19005KT 10SM BKN015 OVC250 24/21 A2981 RMK AO2 SLP093 T02440206 10250 20228 53024
LGA,2013-06-30T12:51:00Z,78.98,69.98,73.97,0.00,0,0,29.81,1009.40,10,M,OVC,M,M,M,1500.00,M,M,M,M,KLGA 301251Z 00000KT 10SM OVC015 26/21 A2981 RMK AO2 SLP094 T02610211
LGA,2013-06-30T13:51:00Z,78.98,69.08,71.72,40.00,6,0,29.81,1009.40,10,M,OVC,M,M,M,1900.00,M,M,M,M,KLGA 301351Z 04006KT 10SM OVC019 26/21 A2981 RMK AO2 SLP094 T02610206
LGA,2013-06-30T14:51:00Z,78.98,69.98,73.97,40.00,8,0,29.81,1009.50,10,M,BKN,OVC,M,M,2100.00,2600.00,M,M,M,KLGA 301451Z 04008KT 10SM BKN021 OVC026 26/21 A2981 RMK AO2 SLP095 T02610211 52002
LGA,2013-06-30T15:51:00Z,84.02,69.98,62.77,M,6,0,29.81,1009.60,10,M,FEW,BKN,BKN,M,2300.00,3400.00,25000.00,M,M,KLGA 301551Z VRB06KT 10SM FEW023 BKN034 BKN250 29/21 A2981 RMK AO2 SLP096 T02890211
LGA,2013-06-30T16:51:00Z,84.92,69.08,59.14,150.00,13,0,29.82,1009.60,10,M,FEW,BKN,OVC,M,3000.00,15000.00,25000.00,M,M,KLGA 301651Z 15013KT 10SM FEW030 BKN150 OVC250 29/21 A2982 RMK AO2 SLP096 T02940206
LGA,2013-06-30T17:51:00Z,82.04,69.98,66.93,160.00,13,0,29.82,1009.60,10,16.00,FEW,SCT,BKN,OVC,1500.00,3000.00,13000.00,25000.00,M,KLGA 301751Z 16013G16KT 10SM FEW015 SCT030 BKN130 OVC250 28/21 A2982 RMK AO2 SLP096 T02780211 10306 20261 51001
LGA,2013-06-30T18:30:00Z,78.8,71.6,78.62,160.00,13,0,29.83,M,7,18.00,BKN,BKN,BKN,OVC,1200.00,3000.00,13000.00,25000.00,-RA,KLGA 301830Z 16013G18KT 7SM -RA BKN012 BKN030 BKN130 OVC250 26/22 A2983 RMK AO2 RAB13 P0000
LGA,2013-06-30T18:43:00Z,77,69.8,78.48,170.00,12,0,29.83,M,7,M,BKN,BKN,BKN,OVC,800.00,1200.00,3000.00,13000.00,-RA,KLGA 301843Z 17012KT 7SM -RA BKN008 BKN012 BKN030 OVC130 25/21 A2983 RMK AO2 RAB13 P0000
LGA,2013-06-30T18:51:00Z,78.08,71.06,79.05,160.00,10,0,29.83,1010.10,7,M,BKN,BKN,BKN,OVC,800.00,1200.00,3000.00,13000.00,-RA,KLGA 301851Z 16010KT 7SM -RA BKN008 BKN012 BKN030 OVC130 26/22 A2983 RMK AO2 RAB13 SLP101 P0000 T02560217
LGA,2013-06-30T19:51:00Z,77,69.98,78.96,150.00,10,0,29.83,1010.20,7,M,BKN,BKN,OVC,M,800.00,1000.00,2300.00,M,-RA,KLGA 301951Z 15010KT 7SM -RA BKN008 BKN010 OVC023 25/21 A2983 RMK AO2 SLP102 P0000 T02500211
LGA,2013-06-30T20:11:00Z,75.2,71.6,88.59,170.00,12,0,29.83,M,3,18.00,BKN,BKN,OVC,M,600.00,1000.00,1700.00,M,-RA,KLGA 302011Z 17012G18KT 130V190 3SM -RA BKN006 BKN010 OVC017 24/22 A2983 RMK AO2 SFC VIS 5 P0000
LGA,2013-06-30T20:51:00Z,75.92,71.06,84.92,170.00,12,0,29.83,1010.10,3,M,BKN,BKN,OVC,M,600.00,1000.00,1700.00,M,-RA,KLGA 302051Z 17012KT 3SM -RA BKN006 BKN010 OVC017 24/22 A2983 RMK AO2 SFC VIS 5 SLP101 P0000 60000 T02440217 50004
LGA,2013-06-30T21:36:00Z,78.8,69.8,73.95,160.00,12,0,29.83,M,7,M,SCT,BKN,BKN,BKN,600.00,800.00,2500.00,14000.00,M,KLGA 302136Z 16012KT 7SM SCT006 BKN008 BKN025 BKN140 26/21 A2983 RMK AO2 RAE29 P0000
LGA,2013-06-30T21:45:00Z,78.8,69.8,73.95,170.00,10,0,29.83,M,8,M,FEW,SCT,BKN,BKN,600.00,800.00,2500.00,14000.00,M,KLGA 302145Z 17010KT 8SM FEW006 SCT008 BKN025 BKN140 26/21 A2983 RMK AO2 RAE29 P0000
LGA,2013-06-30T21:51:00Z,78.08,69.98,76.19,160.00,10,0,29.83,1010.20,8,M,FEW,SCT,BKN,BKN,600.00,1100.00,2500.00,14000.00,M,KLGA 302151Z 16010KT 8SM FEW006 SCT011 BKN025 BKN140 26/21 A2983 RMK AO2 RAE29 SLP102 P0000 T02560211
LGA,2013-06-30T22:22:00Z,75.2,69.8,83.32,180.00,9,0,29.84,M,8,M,FEW,BKN,BKN,BKN,600.00,1100.00,3500.00,14000.00,M,KLGA 302222Z 18009KT 8SM FEW006 BKN011 BKN035 BKN140 24/21 A2984 RMK AO2
LGA,2013-06-30T22:51:00Z,77,69.98,78.96,170.00,5,0,29.85,1010.70,10,M,FEW,BKN,BKN,BKN,600.00,1100.00,3500.00,14000.00,M,KLGA 302251Z 17005KT 10SM FEW006 BKN011TCU BKN035 BKN140 25/21 A2985 RMK AO2 SLP107 TCU NW-N T02500211
LGA,2013-06-30T23:35:00Z,75.2,69.8,83.32,170.00,11,0,29.87,M,8,M,BKN,BKN,BKN,M,900.00,3500.00,14000.00,M,M,KLGA 302335Z 17011KT 8SM BKN009TCU BKN035 BKN140 24/21 A2987 RMK AO2 TCU NW-N
LGA,2013-06-30T23:51:00Z,75.92,69.98,81.85,160.00,11,0,29.87,1011.40,8,M,BKN,BKN,BKN,M,900.00,3500.00,14000.00,M,M,KLGA 302351Z 16011KT 8SM BKN009TCU BKN035 BKN140 24/21 A2987 RMK AO2 SLP114 TCU NW-N 60000 T02440211 10272 20239 53013
LGA,2013-07-01T00:51:00Z,75.02,69.08,81.79,180.00,12,0,29.89,1012.00,8,17.00,BKN,BKN,BKN,BKN,900.00,1100.00,2000.00,14000.00,M,KLGA 010051Z 18012G17KT 8SM BKN009TCU BKN011 BKN020 BKN140 24/21 A2989 RMK AO2 SLP120 TCU NW-N T02390206
LGA,2013-07-01T01:05:00Z,73.4,69.8,88.51,170.00,9,0,29.89,M,8,M,BKN,BKN,BKN,BKN,700.00,900.00,2000.00,14000.00,M,KLGA 010105Z 17009KT 8SM BKN007 BKN009 BKN020 BKN140 23/21 A2989 RMK AO2
LGA,2013-07-01T01:51:00Z,73.94,69.08,84.8,170.00,10,0,29.9,1012.40,8,18.00,BKN,BKN,BKN,BKN,700.00,900.00,3600.00,14000.00,M,KLGA 010151Z 17010G18KT 8SM BKN007 BKN009 BKN036 BKN140 23/21 A2990 RMK AO2 SLP124 T02330206
LGA,2013-07-01T01:56:00Z,75.2,69.8,83.32,170.00,11,0,29.9,M,8,17.00,FEW,BKN,BKN,BKN,300.00,500.00,3600.00,14000.00,M,KLGA 010156Z 17011G17KT 8SM FEW003 BKN005 BKN036 BKN140 24/21 A2990 RMK AO2
LGA,2013-07-01T02:51:00Z,73.94,69.08,84.8,180.00,9,0,29.91,1012.60,9,M,FEW,BKN,BKN,BKN,300.00,500.00,3600.00,14000.00,M,KLGA 010251Z 18009KT 9SM FEW003 BKN005 BKN036 BKN140 23/21 A2991 RMK AO2 SLP126 T02330206 51013
LGA,2013-07-01T03:27:00Z,73.4,69.8,88.51,170.00,7,0,29.91,M,9,M,SCT,BKN,BKN,M,700.00,3600.00,14000.00,M,M,KLGA 010327Z 17007KT 9SM SCT007 BKN036 BKN140 23/21 A2991 RMK AO2
LGA,2013-07-01T03:51:00Z,73.94,69.08,84.8,160.00,6,0,29.91,1012.70,10,M,SCT,BKN,BKN,M,700.00,3600.00,14000.00,M,M,KLGA 010351Z 16006KT 10SM SCT007 BKN036 BKN140 23/21 A2991 RMK AO2 SLP127 T02330206
LGA,2013-07-01T04:15:00Z,73.4,69.8,88.51,170.00,7,0,29.91,M,10,M,FEW,BKN,OVC,M,700.00,1500.00,14000.00,M,M,KLGA 010415Z 17007KT 10SM FEW007 BKN015 OVC140 23/21 A2991 RMK AO2
LGA,2013-07-01T04:51:00Z,73.94,69.08,84.8,180.00,6,0,29.91,1012.90,10,M,FEW,BKN,OVC,M,700.00,1500.00,14000.00,M,M,KLGA 010451Z 18006KT 10SM FEW007 BKN015 OVC140 23/21 A2991 RMK AO2 SLP129 T02330206 403060228
LGA,2013-07-01T05:51:00Z,73.94,69.08,84.8,150.00,7,0,29.92,1013.00,10,M,FEW,OVC,M,M,700.00,1500.00,M,M,M,KLGA 010551Z 15007KT 10SM FEW007 OVC015 23/21 A2992 RMK AO2 SLP130 T02330206 10244 20233 52004
LGA,2013-07-01T06:44:00Z,73.4,69.8,88.51,170.00,6,0,29.91,M,10,M,BKN,OVC,M,M,1200.00,1800.00,M,M,M,KLGA 010644Z 17006KT 10SM BKN012 OVC018 23/21 A2991 RMK AO2
LGA,2013-07-01T06:51:00Z,73.94,69.08,84.8,150.00,6,0,29.91,1012.70,10,M,BKN,OVC,M,M,1200.00,1800.00,M,M,M,KLGA 010651Z 15006KT 10SM BKN012 OVC018 23/21 A2991 RMK AO2 SLP127 T02330206
LGA,2013-07-01T07:51:00Z,73.94,69.08,84.8,170.00,7,0,29.9,1012.60,10,M,BKN,OVC,M,M,1200.00,1800.00,M,M,M,KLGA 010751Z 17007KT 10SM BKN012 OVC018 23/21 A2990 RMK AO2 SLP126 T02330206
LGA,2013-07-01T08:51:00Z,73.94,69.08,84.8,150.00,5,0,29.91,1012.80,10,M,OVC,M,M,M,1000.00,M,M,M,M,KLGA 010851Z 15005KT 10SM OVC010 23/21 A2991 RMK AO2 SLP128 T02330206 55002
LGA,2013-07-01T09:51:00Z,73.94,69.08,84.8,150.00,5,0,29.93,1013.40,7,M,OVC,M,M,M,1000.00,M,M,M,M,KLGA 010951Z 15005KT 7SM OVC010 23/21 A2993 RMK AO2 SLP134 T02330206
LGA,2013-07-01T10:51:00Z,75.92,69.98,81.85,M,4,0,29.93,1013.60,10,M,OVC,M,M,M,1000.00,M,M,M,M,KLGA 011051Z VRB04KT 10SM OVC010 24/21 A2993 RMK AO2 SLP136 T02440211
LGA,2013-07-01T11:51:00Z,75.92,69.98,81.85,170.00,8,0,29.94,1013.80,10,M,OVC,M,M,M,1000.00,M,M,M,M,KLGA 011151Z 17008KT 10SM OVC010 24/21 A2994 RMK AO2 SLP138 T02440211 10250 20233 51010
LGA,2013-07-01T12:09:00Z,75.2,69.8,83.32,170.00,7,0,29.95,M,10,M,OVC,M,M,M,800.00,M,M,M,M,KLGA 011209Z 17007KT 10SM OVC008 24/21 A2995 RMK AO2
LGA,2013-07-01T12:51:00Z,75.92,69.98,81.85,170.00,7,0,29.95,1014.10,10,M,OVC,M,M,M,800.00,M,M,M,M,KLGA 011251Z 17007KT 10SM OVC008 24/21 A2995 RMK AO2 SLP141 T02440211
LGA,2013-07-01T13:51:00Z,77,71.06,81.92,160.00,12,0,29.93,1013.60,10,18.00,OVC,M,M,M,800.00,M,M,M,M,KLGA 011351Z 16012G18KT 10SM OVC008 25/22 A2993 RMK AO2 SLP136 T02500217
LGA,2013-07-01T14:17:00Z,75.2,71.6,88.59,250.00,14,0.02,29.97,M,1.5,22.00,BKN,BKN,OVC,M,800.00,2300.00,2800.00,M,-RA BR,KLGA 011417Z 25014G22KT 1 1/2SM R04/4000VP6000FT -RA BR BKN008 BKN023 OVC028 24/22 A2997 RMK AO2 VIS 1/2V5 RAB06 PRESRR P0002
LGA,2013-07-01T14:20:00Z,75.2,71.6,88.59,220.00,16,0,29.97,M,0.25,23.00,BKN,BKN,OVC,M,800.00,1600.00,2800.00,M,-RA FG,KLGA 011420Z 22016G23KT 1/4SM R04/1600VP6000FT -RA FG BKN008 BKN016 OVC028 24/22 A2997
LGA,2013-07-01T14:27:00Z,73.4,69.8,88.51,220.00,10,0.41,29.97,M,5,23.00,SCT,BKN,OVC,M,800.00,1700.00,5000.00,M,-RA BR,KLGA 011427Z 22010G23KT 5SM R04/1600VP6000FT -RA BR SCT008 BKN017 OVC050 23/21 A2997 RMK AO2 WSHFT 1404 RAB06 P0041 $
LGA,2013-07-01T14:51:00Z,78.08,69.98,76.19,230.00,8,0.41,29.97,1014.80,10,14.00,FEW,BKN,OVC,M,1700.00,2600.00,5000.00,M,M,KLGA 011451Z 23008G14KT 10SM FEW017 BKN026 OVC050 26/21 A2997 RMK AO2 WSHFT 1404 RAB06E44 SLP148 P0041 60041 T02560211 53009
LGA,2013-07-01T15:13:00Z,75.2,69.8,83.32,250.00,8,0,29.98,M,2,M,FEW,BKN,OVC,M,1700.00,2500.00,4300.00,M,-TSRA,KLGA 011513Z 25008KT 2SM R04/3500VP6000FT -TSRA FEW017 BKN025CB OVC043 24/21 A2998 RMK AO2 TSB11RAB11 OCNL LTGIC OHD-W TS OHD-W MOV NE P0000
LGA,2013-07-01T15:41:00Z,73.4,69.8,88.51,190.00,4,0.21,29.97,M,7,M,FEW,BKN,OVC,M,1700.00,4500.00,8000.00,M,-RA,KLGA 011541Z 19004KT 7SM -RA FEW017 BKN045 OVC080 23/21 A2997 RMK AO2 TSB11E39RAB11 OCNL LTGIC OHD-W TS OHD-W MOV NE P0021
LGA,2013-07-01T15:51:00Z,73.94,71.06,90.73,180.00,5,0.22,29.98,1015.10,10,M,FEW,BKN,BKN,OVC,1700.00,4700.00,8000.00,14000.00,-RA,KLGA 011551Z 18005KT 10SM -RA FEW017 BKN047 BKN080 OVC140 23/22 A2998 RMK AO2 TSB11E39RAB11 SLP151 P0022 T02330217
LGA,2013-07-01T16:51:00Z,73.94,69.98,87.45,150.00,7,0.02,29.98,1015.10,10,M,FEW,SCT,BKN,OVC,1800.00,5000.00,8500.00,14000.00,M,KLGA 011651Z 15007KT 10SM FEW018 SCT050 BKN085 OVC140 23/21 A2998 RMK AO2 RAE42 SLP151 P0002 T02330211
LGA,2013-07-01T17:32:00Z,75.2,71.6,88.59,150.00,9,0.01,29.98,M,10,M,FEW,SCT,BKN,OVC,700.00,2600.00,4500.00,14000.00,-RA,KLGA 011732Z 15009KT 10SM -RA FEW007 SCT026 BKN045 OVC140 24/22 A2998 RMK AO2 RAB1656 P0001
LGA,2013-07-01T17:51:00Z,75.92,71.06,84.92,170.00,9,0.01,29.98,1015.30,10,M,FEW,BKN,OVC,M,700.00,3200.00,4700.00,M,M,KLGA 011751Z 17009KT 10SM FEW007 BKN032 OVC047 24/22 A2998 RMK AO2 RAB1656E38 SLP153 P0001 60066 T02440217 10256 20233 51005
LGA,2013-07-01T18:00:00Z,75.2,71.6,88.59,170.00,9,0.02,29.98,M,2.5,M,SCT,BKN,OVC,M,900.00,2600.00,3300.00,M,+RA BR,KLGA 011800Z 17009KT 2 1/2SM R04/4000VP6000FT +RA BR SCT009 BKN026 OVC033 24/22 A2998 RMK AO2 RAB1758 P0002
LGA,2013-07-01T18:16:00Z,75.2,71.6,88.59,170.00,5,0.06,29.98,M,10,M,FEW,SCT,BKN,OVC,1200.00,2800.00,3700.00,14000.00,M,KLGA 011816Z 17005KT 10SM FEW012 SCT028 BKN037 OVC140 24/22 A2998 RMK AO2 RAB1758E11 P0006
LGA,2013-07-01T18:51:00Z,75.92,71.06,84.92,180.00,6,0.06,29.98,1015.20,10,M,FEW,SCT,BKN,OVC,1200.00,2800.00,3700.00,14000.00,-RA,KLGA 011851Z 18006KT 10SM -RA FEW012 SCT028 BKN037 OVC140 24/22 A2998 RMK AO2 RAB1758E11B50 SLP152 P0006 T02440217
LGA,2013-07-01T19:12:00Z,75.2,71.6,88.59,170.00,9,0.01,29.99,M,7,M,SCT,BKN,OVC,M,800.00,2500.00,10000.00,M,-RA,KLGA 011912Z 17009KT 7SM -RA SCT008 BKN025 OVC100 24/22 A2999 RMK AO2 P0001
LGA,2013-07-01T19:47:00Z,75.2,71.6,88.59,160.00,10,0.01,29.97,M,10,M,BKN,BKN,OVC,M,600.00,4000.00,13000.00,M,M,KLGA 011947Z 16010KT 10SM BKN006 BKN040 OVC130 24/22 A2997 RMK AO2 RAE44 P0001
LGA,2013-07-01T19:51:00Z,75.02,71.06,87.5,160.00,8,0.01,29.97,1014.90,9,M,BKN,BKN,OVC,M,600.00,4000.00,13000.00,M,M,KLGA 011951Z 16008KT 9SM BKN006 BKN040 OVC130 24/22 A2997 RMK AO2 RAE44 SLP149 P0001 T02390217
LGA,2013-07-01T20:20:00Z,75.2,71.6,88.59,180.00,9,0,29.97,M,10,M,SCT,BKN,OVC,M,900.00,2700.00,10000.00,M,-RA,KLGA 012020Z 18009KT 10SM -RA SCT009 BKN027 OVC100 24/22 A2997
LGA,2013-07-01T20:32:00Z,75.2,71.6,88.59,170.00,9,0,29.97,M,10,M,FEW,SCT,BKN,M,1100.00,2600.00,3600.00,M,-RA,KLGA 012032Z 17009KT 10SM -RA FEW011 SCT026 BKN036 24/22 A2997
LGA,2013-07-01T20:51:00Z,75.92,71.06,84.92,170.00,12,0,29.98,1015.10,10,21.00,SCT,SCT,OVC,M,1000.00,3000.00,10000.00,M,-RA,KLGA 012051Z 17012G21KT 10SM -RA SCT010 SCT030 OVC100 24/22 A2998 RMK AO2 RAB1952 SLP151 P0000 60007 T02440217 55002
LGA,2013-07-01T21:28:00Z,75.2,71.6,88.59,170.00,13,0,29.98,M,10,19.00,FEW,BKN,BKN,OVC,800.00,3500.00,5000.00,13000.00,-RA,KLGA 012128Z 17013G19KT 10SM -RA FEW008 BKN035 BKN050 OVC130 24/22 A2998 RMK AO2 P0000
LGA,2013-07-01T21:46:00Z,75.2,69.8,83.32,170.00,12,0,29.98,M,6,19.00,BKN,BKN,OVC,M,800.00,2500.00,3500.00,M,-RA,KLGA 012146Z 17012G19KT 6SM -RA BKN008 BKN025 OVC035 24/21 A2998 RMK AO2 P0000
LGA,2013-07-01T21:51:00Z,73.94,71.06,90.73,170.00,11,0,29.98,1015.10,10,19.00,BKN,BKN,OVC,M,800.00,2500.00,3500.00,M,-RA,KLGA 012151Z 17011G19KT 10SM -RA BKN008 BKN025 OVC035 23/22 A2998 RMK AO2 SLP151 P0000 T02330217
LGA,2013-07-01T22:06:00Z,73.4,69.8,88.51,180.00,11,0,29.98,M,10,18.00,OVC,M,M,M,600.00,M,M,M,M,KLGA 012206Z 18011G18KT 10SM OVC006 23/21 A2998 RMK AO2 RAE2155 P0000
LGA,2013-07-01T22:37:00Z,73.4,69.8,88.51,180.00,8,0,29.99,M,10,M,BKN,M,M,M,800.00,M,M,M,M,KLGA 012237Z 18008KT 10SM BKN008 23/21 A2999 RMK AO2 RAE2155 P0000
LGA,2013-07-01T22:51:00Z,73.94,69.08,84.8,180.00,8,0,29.99,1015.60,10,M,SCT,OVC,M,M,800.00,25000.00,M,M,M,KLGA 012251Z 18008KT 10SM SCT008 OVC250 23/21 A2999 RMK AO2 RAE2155 SLP156 P0000 T02330206
LGA,2013-07-01T23:34:00Z,75.2,69.8,83.32,180.00,8,0,30.01,M,10,M,BKN,OVC,M,M,2000.00,25000.00,M,M,M,KLGA 012334Z 18008KT 10SM BKN020 OVC250 24/21 A3001 RMK AO2
LGA,2013-07-01T23:51:00Z,75.02,69.98,84.34,170.00,9,0,30.02,1016.40,10,M,BKN,OVC,M,M,2000.00,25000.00,M,M,M,KLGA 012351Z 17009KT 10SM BKN020 OVC250 24/21 A3002 RMK AO2 SLP164 60007 T02390211 10250 20233 53014
LGA,2013-07-02T00:51:00Z,73.94,69.08,84.8,160.00,8,0,30.02,1016.50,10,M,BKN,BKN,M,M,1600.00,2100.00,M,M,M,KLGA 020051Z 16008KT 10SM BKN016 BKN021 23/21 A3002 RMK AO2 SLP165 T02330206
LGA,2013-07-02T01:11:00Z,73.4,69.8,88.51,170.00,6,0,30.03,M,10,M,BKN,OVC,M,M,1400.00,25000.00,M,M,M,KLGA 020111Z 17006KT 10SM BKN014 OVC250 23/21 A3003 RMK AO2
LGA,2013-07-02T01:23:00Z,73.4,69.8,88.51,170.00,7,0,30.03,M,10,M,SCT,OVC,M,M,900.00,1400.00,M,M,M,KLGA 020123Z 17007KT 10SM SCT009 OVC014 23/21 A3003 RMK AO2
LGA,2013-07-02T01:51:00Z,73.94,69.08,84.8,180.00,7,0,30.04,1017.20,10,M,SCT,OVC,M,M,900.00,1400.00,M,M,M,KLGA 020151Z 18007KT 10SM SCT009 OVC014 23/21 A3004 RMK AO2 SLP172 T02330206
LGA,2013-07-02T02:51:00Z,73.94,69.08,84.8,180.00,6,0,30.04,1017.30,10,M,OVC,M,M,M,1200.00,M,M,M,M,KLGA 020251Z 18006KT 10SM OVC012 23/21 A3004 RMK AO2 SLP173 T02330206 51008
LGA,2013-07-02T03:51:00Z,73.94,69.08,84.8,170.00,7,0,30.05,1017.60,10,M,OVC,M,M,M,1400.00,M,M,M,M,KLGA 020351Z 17007KT 10SM OVC014 23/21 A3005 RMK AO2 SLP176 T02330206
LGA,2013-07-02T04:51:00Z,73.04,69.08,87.41,170.00,5,0,30.06,1017.80,10,M,BKN,M,M,M,1400.00,M,M,M,M,KLGA 020451Z 17005KT 10SM BKN014 23/21 A3006 RMK AO2 SLP178 T02280206 402560228
LGA,2013-07-02T05:31:00Z,73.4,69.8,88.51,160.00,5,0,30.06,M,10,M,SCT,M,M,M,1600.00,M,M,M,M,KLGA 020531Z 16005KT 10SM SCT016 23/21 A3006 RMK AO2
LGA,2013-07-02T05:46:00Z,73.4,69.8,88.51,150.00,5,0,30.05,M,10,M,BKN,OVC,M,M,1600.00,15000.00,M,M,M,KLGA 020546Z 15005KT 10SM BKN016 OVC150 23/21 A3005 RMK AO2
LGA,2013-07-02T05:51:00Z,73.94,69.08,84.8,150.00,6,0,30.06,1017.70,10,M,BKN,OVC,M,M,1600.00,15000.00,M,M,M,KLGA 020551Z 15006KT 10SM BKN016 OVC150 23/21 A3006 RMK AO2 SLP177 T02330206 10239 20228 51001
LGA,2013-07-02T06:20:00Z,73.4,69.8,88.51,160.00,6,0,30.05,M,9,M,OVC,M,M,M,1400.00,M,M,M,M,KLGA 020620Z 16006KT 9SM OVC014 23/21 A3005 RMK AO2
LGA,2013-07-02T06:29:00Z,73.4,69.8,88.51,170.00,9,0,30.06,M,8,M,SCT,OVC,M,M,600.00,1400.00,M,M,M,KLGA 020629Z 17009KT 8SM SCT006 OVC014 23/21 A3006 RMK AO2
LGA,2013-07-02T06:46:00Z,73.4,69.8,88.51,170.00,7,0,30.06,M,7,M,BKN,OVC,M,M,600.00,1200.00,M,M,M,KLGA 020646Z 17007KT 7SM BKN006 OVC012 23/21 A3006 RMK AO2
LGA,2013-07-02T06:51:00Z,73.04,69.98,90.14,160.00,9,0,30.05,1017.70,7,M,OVC,M,M,M,400.00,M,M,M,M,KLGA 020651Z 16009KT 7SM OVC004 23/21 A3005 RMK AO2 SLP177 T02280211
LGA,2013-07-02T07:47:00Z,73.4,69.8,88.51,180.00,8,0,30.05,M,10,M,SCT,OVC,M,M,600.00,1800.00,M,M,M,KLGA 020747Z 18008KT 10SM SCT006 OVC018 23/21 A3005 RMK AO2
LGA,2013-07-02T07:51:00Z,73.04,69.08,87.41,170.00,7,0,30.05,1017.50,10,M,SCT,OVC,M,M,600.00,1800.00,M,M,M,KLGA 020751Z 17007KT 10SM SCT006 OVC018 23/21 A3005 RMK AO2 SLP175 T02280206
LGA,2013-07-02T08:07:00Z,73.4,69.8,88.51,170.00,8,0,30.06,M,10,M,OVC,M,M,M,1400.00,M,M,M,M,KLGA 020807Z 17008KT 10SM OVC014 23/21 A3006 RMK AO2
LGA,2013-07-02T08:51:00Z,73.04,69.08,87.41,190.00,7,0,30.07,1018.30,10,M,OVC,M,M,M,1200.00,M,M,M,M,KLGA 020851Z 19007KT 10SM OVC012 23/21 A3007 RMK AO2 SLP183 T02280206 53006
LGA,2013-07-02T09:51:00Z,73.94,69.08,84.8,170.00,7,0,30.08,1018.40,10,M,BKN,BKN,M,M,1600.00,11000.00,M,M,-RA,KLGA 020951Z 17007KT 10SM -RA BKN016 BKN110 23/21 A3008 RMK AO2 RAB15 SLP184 P0000 T02330206
LGA,2013-07-02T09:59:00Z,73.4,69.8,88.51,170.00,7,0,30.08,M,10,M,SCT,BKN,M,M,1600.00,11000.00,M,M,M,KLGA 020959Z 17007KT 10SM SCT016 BKN110 23/21 A3008 RMK AO2 RAE52
LGA,2013-07-02T10:51:00Z,73.04,69.08,87.41,170.00,8,0,30.09,1018.90,10,M,FEW,SCT,BKN,M,1500.00,11000.00,22000.00,M,M,KLGA 021051Z 17008KT 10SM FEW015 SCT110 BKN220 23/21 A3009 RMK AO2 RAE0952 SLP189 T02280206
LGA,2013-07-02T11:07:00Z,73.4,69.8,88.51,190.00,5,0,30.1,M,10,M,BKN,BKN,OVC,M,1500.00,11000.00,22000.00,M,M,KLGA 021107Z 19005KT 10SM BKN015 BKN110 OVC220 23/21 A3010 RMK AO2
LGA,2013-07-02T12:51:00Z,75.02,69.98,84.34,170.00,6,0,30.12,1020.00,10,M,OVC,M,M,M,2500.00,M,M,M,M,KLGA 021251Z 17006KT 10SM OVC025 24/21 A3012 RMK AO2 SLP200 T02390211
LGA,2013-07-02T13:51:00Z,75.92,69.98,81.85,170.00,9,0,30.12,1020.10,10,M,OVC,M,M,M,2500.00,M,M,M,M,KLGA 021351Z 17009KT 10SM OVC025 24/21 A3012 RMK A02 SLP201 T02440211
LGA,2013-07-02T14:42:00Z,77,69.8,78.48,180.00,6,0,30.13,M,10,M,SCT,OVC,M,M,2700.00,13000.00,M,M,M,KLGA 021442Z 18006KT 10SM SCT027 OVC130 25/21 A3013 RMK AO2
LGA,2013-07-02T14:51:00Z,78.08,69.98,76.19,170.00,7,0,30.13,1020.20,10,M,FEW,SCT,OVC,M,1300.00,2700.00,15000.00,M,M,KLGA 021451Z 17007KT 10SM FEW013 SCT027 OVC150 26/21 A3013 RMK AO2 SLP202 T02560211 51005
LGA,2013-07-02T15:15:00Z,78.8,69.8,73.95,170.00,10,0,30.13,M,10,M,BKN,BKN,OVC,M,1800.00,2800.00,15000.00,M,M,KLGA 021515Z 17010KT 10SM BKN018 BKN028 OVC150 26/21 A3013 RMK AO2
LGA,2013-07-02T15:51:00Z,77,69.98,78.96,160.00,10,0,30.14,1020.60,10,M,FEW,BKN,OVC,M,1700.00,2300.00,15000.00,M,M,KLGA 021551Z 16010KT 10SM FEW017 BKN023 OVC150 25/21 A3014 RMK AO2 SLP206 T02500211
LGA,2013-07-02T16:51:00Z,78.98,71.06,76.74,160.00,8,0,30.14,1020.50,10,M,SCT,BKN,OVC,M,1600.00,2800.00,14000.00,M,M,KLGA 021651Z 16008KT 10SM SCT016 BKN028 OVC140 26/22 A3014 RMK AO2 RAB28E45 SLP205 P0000 T02610217
LGA,2013-07-02T17:40:00Z,78.8,71.6,78.62,140.00,8,0,30.13,M,10,M,FEW,SCT,BKN,M,1600.00,3400.00,13000.00,M,M,KLGA 021740Z 14008KT 090V160 10SM FEW016 SCT034 BKN130 26/22 A3013
LGA,2013-07-02T17:51:00Z,80.06,71.06,74.07,160.00,7,0,30.13,1020.10,10,M,FEW,SCT,BKN,BKN,1900.00,3400.00,13000.00,25000.00,-RA,KLGA 021751Z 16007KT 10SM -RA FEW019 SCT034 BKN130 BKN250 27/22 A3013 RMK AO2 RAB02E26B48 SLP201 P0000 60000 T02670217 10267 20239 50000
LGA,2013-07-02T18:51:00Z,82.94,71.06,67.44,180.00,10,0,30.11,1019.50,10,M,SCT,SCT,BKN,BKN,2100.00,2700.00,13000.00,25000.00,M,KLGA 021851Z 18010KT 10SM SCT021 SCT027 BKN130 BKN250 28/22 A3011 RMK AO2 RAE1757 SLP195 P0000 T02830217
LGA,2013-07-02T19:51:00Z,80.06,69.98,71.39,160.00,12,0,30.1,1019.40,10,M,SCT,SCT,BKN,BKN,3500.00,5500.00,13000.00,25000.00,M,KLGA 021951Z 16012KT 10SM SCT035TCU SCT055 BKN130 BKN250 27/21 A3010 RMK AO2 SLP194 TCU N CB DSNT NW MOV NE T02670211
LGA,2013-07-02T20:51:00Z,80.96,69.98,69.32,170.00,14,0,30.1,1019.10,10,M,FEW,BKN,BKN,M,5000.00,18000.00,25000.00,M,M,KLGA 022051Z 17014KT 10SM FEW050 BKN180 BKN250 27/21 A3010 RMK AO2 SLP191 60000 T02720211 56010
LGA,2013-07-02T21:51:00Z,80.96,69.98,69.32,170.00,10,0,30.1,1019.30,10,M,FEW,BKN,BKN,M,4000.00,14000.00,25000.00,M,M,KLGA 022151Z 17010KT 10SM FEW040 BKN140 BKN250 27/21 A3010 RMK AO2 SLP193 T02720211
LGA,2013-07-02T22:51:00Z,80.96,69.98,69.32,170.00,10,0,30.12,1020.00,10,M,SCT,BKN,BKN,M,4000.00,14000.00,25000.00,M,M,KLGA 022251Z 17010KT 10SM SCT040 BKN140 BKN250 27/21 A3012 RMK AO2 SLP200 T02720211
LGA,2013-07-02T23:51:00Z,78.98,69.98,73.97,180.00,9,0,30.14,1020.40,10,15.00,SCT,BKN,BKN,M,4000.00,14000.00,25000.00,M,M,KLGA 022351Z 18009G15KT 10SM SCT040TCU BKN140 BKN250 26/21 A3014 RMK AO2 SLP204 TCU E-SE CB DSNT SW MOV NE 60000 T02610211 10283 20261 53013
LGA,2013-07-03T00:37:00Z,78.8,71.6,78.62,210.00,13,0.03,30.16,M,6,19.00,SCT,BKN,BKN,BKN,3100.00,8000.00,14000.00,25000.00,TSRA,KLGA 030037Z 21013G19KT 6SM TSRA SCT031CB BKN080 BKN140 BKN250 26/22 A3016 RMK AO2 TSB37RAB2353 OCNL LTGIC SE-S TS SE-S MOV NE P0003
LGA,2013-07-03T00:51:00Z,77,71.06,81.92,210.00,14,0.05,30.16,1021.40,7,20.00,SCT,BKN,BKN,BKN,3100.00,8500.00,12000.00,25000.00,TSRA,KLGA 030051Z 21014G20KT 7SM TSRA SCT031CB BKN085 BKN120 BKN250 25/22 A3016 RMK AO2 TSB37RAB2353 SLP214 OCNL LTGIC E-SE TS E-SE MOV NE P0005 T02500217
LGA,2013-07-03T01:13:00Z,75.2,71.6,88.59,200.00,8,0.01,30.17,M,10,M,FEW,SCT,SCT,OVC,2000.00,8000.00,11000.00,15000.00,-RA,KLGA 030113Z 20008KT 10SM -RA FEW020 SCT080 SCT110 OVC150 24/22 A3017 RMK AO2 TSE13 CB DSNT E AND DSNT S MOV NE P0001
LGA,2013-07-03T01:51:00Z,75.92,69.98,81.85,210.00,9,0.01,30.17,1021.70,10,M,FEW,SCT,BKN,BKN,3000.00,8000.00,15000.00,25000.00,-RA,KLGA 030151Z 21009KT 10SM -RA FEW030 SCT080 BKN150 BKN250 24/21 A3017 RMK AO2 TSE13 SLP217 P0001 T02440211
LGA,2013-07-03T02:51:00Z,77,69.98,78.96,220.00,9,0,30.18,1022.00,10,M,BKN,OVC,M,M,12000.00,15000.00,M,M,M,KLGA 030251Z 22009KT 10SM BKN120 OVC150 25/21 A3018 RMK AO2 RAE46 SLP220 P0000 60006 T02500211 51015
LGA,2013-07-03T03:51:00Z,77,69.08,76.57,200.00,7,0,30.18,1021.90,10,M,SCT,SCT,M,M,12000.00,15000.00,M,M,M,KLGA 030351Z 20007KT 10SM SCT120 SCT150 25/21 A3018 RMK AO2 SLP219 T02500206
LGA,2013-07-03T04:51:00Z,75.92,68,76.48,210.00,10,0,30.18,1021.80,10,M,FEW,SCT,SCT,M,11000.00,15000.00,25000.00,M,M,KLGA 030451Z 21010KT 10SM FEW110 SCT150 SCT250 24/20 A3018 RMK AO2 SLP218 T02440200 402830228
LGA,2013-07-03T05:51:00Z,75.92,66.92,73.68,220.00,12,0,30.18,1021.90,10,18.00,SCT,BKN,M,M,15000.00,22000.00,M,M,M,KLGA 030551Z 22012G18KT 10SM SCT150 BKN220 24/19 A3018 RMK AO2 SLP219 60006 T02440194 10261 20244 55000
LGA,2013-07-03T06:51:00Z,75.02,66.92,75.93,220.00,11,0,30.18,1021.90,10,M,SCT,BKN,M,M,10000.00,20000.00,M,M,M,KLGA 030651Z 22011KT 10SM SCT100 BKN200 24/19 A3018 RMK AO2 SLP219 T02390194
LGA,2013-07-03T07:51:00Z,75.02,66.92,75.93,210.00,9,0,30.19,1022.20,10,M,CLR,M,M,M,M,M,M,M,M,KLGA 030751Z 21009KT 10SM CLR 24/19 A3019 RMK AO2 SLP222 T02390194
LGA,2013-07-03T08:51:00Z,73.94,66.92,78.72,210.00,7,0,30.2,1022.60,10,M,SCT,SCT,BKN,M,10000.00,15000.00,22000.00,M,M,KLGA 030851Z 21007KT 10SM SCT100 SCT150 BKN220 23/19 A3020 RMK AO2 SLP226 T02330194 53006
LGA,2013-07-03T09:51:00Z,75.02,68,78.81,210.00,6,0,30.21,1022.90,10,M,BKN,M,M,M,18000.00,M,M,M,M,KLGA 030951Z 21006KT 10SM BKN180 24/20 A3021 RMK AO2 SLP229 T02390200
LGA,2013-07-03T10:51:00Z,75.02,69.08,81.79,230.00,7,0,30.23,1023.50,10,M,FEW,SCT,BKN,M,1200.00,5000.00,19000.00,M,M,KLGA 031051Z 23007KT 10SM FEW012 SCT050 BKN190 24/21 A3023 RMK AO2 SLP235 T02390206
LGA,2013-07-03T11:51:00Z,75.92,69.08,79.37,210.00,7,0,30.23,1023.60,10,M,FEW,BKN,M,M,1300.00,15000.00,M,M,M,KLGA 031151Z 21007KT 10SM FEW013 BKN150 24/21 A3023 RMK AO2 SLP236 70006 T02440206 10244 20233 51010
LGA,2013-07-03T12:51:00Z,78.08,69.08,73.88,190.00,6,0,30.24,1023.90,10,M,FEW,BKN,M,M,3200.00,14000.00,M,M,M,KLGA 031251Z 19006KT 10SM FEW032 BKN140 26/21 A3024 RMK AO2 SLP239 T02560206
LGA,2013-07-03T13:51:00Z,78.98,69.08,71.72,210.00,7,0,30.24,1024.10,10,M,FEW,BKN,M,M,3200.00,14000.00,M,M,M,KLGA 031351Z 21007KT 10SM FEW032 BKN140 26/21 A3024 RMK AO2 SLP241 T02610206
LGA,2013-07-03T14:51:00Z,80.96,68,64.77,250.00,8,0,30.24,1024.00,10,M,FEW,SCT,SCT,BKN,3800.00,11000.00,14000.00,19000.00,M,KLGA 031451Z 25008KT 10SM FEW038 SCT110 SCT140 BKN190 27/20 A3024 RMK AO2 RAB02E14 SLP240 P0000 60000 T02720200 50004
LGA,2013-07-03T15:51:00Z,82.04,69.08,64.9,230.00,9,0,30.23,1023.70,10,M,FEW,SCT,BKN,M,2600.00,11000.00,15000.00,M,M,KLGA 031551Z 23009KT 10SM FEW026 SCT110 BKN150 28/21 A3023 RMK AO2 SLP237 T02780206
LGA,2013-07-03T16:26:00Z,82.4,69.8,65.74,200.00,8,0,30.23,M,10,M,BKN,BKN,BKN,M,2800.00,11000.00,15000.00,M,M,KLGA 031626Z 20008KT 170V240 10SM BKN028 BKN110 BKN150 28/21 A3023 RMK AO2
LGA,2013-07-03T16:51:00Z,84.02,69.08,60.87,M,6,0,30.23,1023.60,10,M,BKN,BKN,BKN,M,2800.00,15000.00,25000.00,M,M,KLGA 031651Z VRB06KT 10SM BKN028 BKN150 BKN250 29/21 A3023 RMK AO2 SLP236 T02890206
LGA,2013-07-03T17:23:00Z,84.2,69.8,62.03,210.00,8,0,30.22,M,10,14.00,SCT,BKN,BKN,BKN,2800.00,3700.00,4600.00,15000.00,M,KLGA 031723Z 21008G14KT 10SM SCT028 BKN037 BKN046 BKN150 BKN250 29/21 A3022 RMK AO2
LGA,2013-07-03T17:51:00Z,80.96,69.98,69.32,180.00,16,0,30.22,1023.40,10,M,BKN,BKN,BKN,BKN,3200.00,4500.00,15000.00,25000.00,M,KLGA 031751Z 18016KT 10SM BKN032 BKN045TCU BKN150 BKN250 27/21 A3022 RMK AO2 SLP234 TCU NE AND W VCSH W 60000 T02720211 10294 20244 56006
LGA,2013-07-03T18:44:00Z,78.8,73.4,83.55,250.00,7,0,30.22,M,2,M,SCT,BKN,OVC,M,4900.00,7500.00,10000.00,M,+RA,KLGA 031844Z 25007KT 2SM +RA SCT049 BKN075 OVC100 26/23 A3022
LGA,2013-07-03T18:51:00Z,78.98,73.04,82.06,200.00,8,0.07,30.21,1023.00,1.5,M,FEW,BKN,OVC,M,4700.00,6500.00,8000.00,M,+RA,KLGA 031851Z 20008KT 1 1/2SM +RA FEW047 BKN065 OVC080 26/23 A3021 RMK AO2 RAB37 SLP230 P0007 T02610228
LGA,2013-07-03T19:02:00Z,78.8,73.4,83.55,170.00,9,0.07,30.2,M,2.5,M,SCT,BKN,OVC,M,4600.00,5500.00,8500.00,M,+RA,KLGA 031902Z 17009KT 2 1/2SM +RA SCT046 BKN055 OVC085 26/23 A3020 RMK AO2 P0007
LGA,2013-07-03T19:08:00Z,78.8,73.4,83.55,170.00,11,0.1,30.2,M,1.75,M,SCT,BKN,OVC,M,4200.00,5500.00,8500.00,M,+RA,KLGA 031908Z 17011KT 1 3/4SM R04/3000VP6000FT +RA SCT042 BKN055 OVC085 26/23 A3020 RMK AO2 VIS 1V4 P0010
LGA,2013-07-03T19:18:00Z,78.8,71.6,78.62,200.00,7,0,30.2,M,2.5,M,SCT,BKN,OVC,M,4200.00,5500.00,7000.00,M,RA,KLGA 031918Z 20007KT 2 1/2SM RA SCT042 BKN055 OVC070 26/22 A3020
LGA,2013-07-03T19:25:00Z,78.8,71.6,78.62,180.00,9,0.18,30.2,M,8,M,FEW,BKN,OVC,M,4000.00,5000.00,8000.00,M,-RA,KLGA 031925Z 18009KT 8SM -RA FEW040 BKN050 OVC080 26/22 A3020 RMK AO2 P0018
LGA,2013-07-03T19:51:00Z,82.04,71.96,71.59,170.00,11,0.18,30.18,1022.00,10,M,FEW,BKN,M,M,5500.00,9000.00,M,M,M,KLGA 031951Z 17011KT 10SM FEW055 BKN090 28/22 A3018 RMK AO2 RAE30 SLP220 P0018 T02780222
LGA,2013-07-03T20:51:00Z,84.02,71.06,65.13,150.00,10,0,30.18,1021.80,10,M,FEW,SCT,SCT,BKN,5500.00,10000.00,13000.00,25000.00,M,KLGA 032051Z 15010KT 10SM FEW055 SCT100 SCT130 BKN250 29/22 A3018 RMK AO2 SLP218 60025 T02890217 56016
LGA,2013-07-03T21:51:00Z,82.94,71.06,67.44,170.00,9,0,30.17,1021.50,10,15.00,FEW,SCT,SCT,BKN,6000.00,10000.00,13000.00,25000.00,M,KLGA 032151Z 17009G15KT 10SM FEW060 SCT100 SCT130 BKN250 28/22 A3017 RMK AO2 SLP215 T02830217 $
LGA,2013-07-03T22:51:00Z,82.04,71.06,69.43,180.00,7,0,30.17,1021.60,10,M,FEW,BKN,OVC,M,4200.00,6500.00,9500.00,M,-RA,KLGA 032251Z 18007KT 10SM -RA FEW042 BKN065 OVC095 28/22 A3017 RMK AO2 RAB43 CIG 050 R22 SW SLP216 P0000 T02780217 $
LGA,2013-07-03T23:10:00Z,80.6,73.4,78.76,250.00,6,0.01,30.18,M,1.5,M,FEW,BKN,OVC,M,2700.00,4500.00,6500.00,M,+RA,KLGA 032310Z 25006KT 1 1/2SM R04/4500VP6000FT +RA FEW027 BKN045 OVC065 27/23 A3018 RMK AO2 VIS 1/2V5 P0001 $
LGA,2013-07-03T23:17:00Z,78.8,73.4,83.55,0.00,0,0.1,30.18,M,4,M,FEW,BKN,OVC,M,2300.00,4500.00,5500.00,M,-RA,KLGA 032317Z 00000KT 4SM R04/4500VP6000FT -RA FEW023 BKN045 OVC055 26/23 A3018 RMK AO2 CIG 032 R22 SW P0010 $
LGA,2013-07-03T23:25:00Z,80.6,73.4,78.76,190.00,16,0.12,30.19,M,1.5,M,FEW,BKN,OVC,M,2000.00,3300.00,5000.00,M,+RA,KLGA 032325Z 19016KT 1 1/2SM R04/1400VP6000FT +RA FEW020 BKN033 OVC050 27/23 A3019 RMK AO2 P0012 $
LGA,2013-07-03T23:27:00Z,78.8,73.4,83.55,190.00,11,0.16,30.19,M,0.75,18.00,FEW,BKN,OVC,M,1500.00,3300.00,4600.00,M,+RA,KLGA 032327Z 19011G18KT 3/4SM R04/1400VP6000FT +RA FEW015 BKN033 OVC046 26/23 A3019 RMK AO2 P0016 $
LGA,2013-07-03T23:31:00Z,77,73.4,88.67,200.00,5,0.42,30.19,M,0.5,18.00,SCT,BKN,OVC,M,1500.00,3300.00,4600.00,M,+TSRA FG,KLGA 032331Z 20005G18KT 1/2SM R04/1400VP6000FT +TSRA FG SCT015 BKN033CB OVC046 25/23 A3019 RMK AO2 TSB31 OCNL LTGICCC OHD TS OHD MOV NE P0042 $
LGA,2013-07-03T23:37:00Z,78.8,73.4,83.55,210.00,5,0.49,30.19,M,1.25,M,SCT,BKN,OVC,M,1500.00,3300.00,4600.00,M,+TSRA BR,KLGA 032337Z 21005KT 1 1/4SM +TSRA BR SCT015 BKN033CB OVC046 26/23 A3019 RMK AO2 VIS 1/4V5 TSB31 OCNL LTGICCC OHD TS OHD MOV NE P0049 $
LGA,2013-07-03T23:39:00Z,78.8,73.4,83.55,200.00,7,0.51,30.19,M,2,M,SCT,BKN,OVC,M,1500.00,3300.00,4600.00,M,TSRA BR,KLGA 032339Z 20007KT 2SM TSRA BR SCT015 BKN033CB OVC046 26/23 A3019 RMK AO2 VIS 1V5 TSB31 OCNL LTGICCC OHD TS OHD MOV NE P0051 $
LGA,2013-07-03T23:43:00Z,78.8,73.4,83.55,200.00,9,0.51,30.19,M,3,M,SCT,BKN,OVC,M,1500.00,3300.00,4600.00,M,-TSRA,KLGA 032343Z 20009KT 3SM -TSRA SCT015 BKN033CB OVC046 26/23 A3019 RMK AO2 TSB31 OCNL LTGICCC OHD TS OHD MOV NE P0051 $
LGA,2013-07-03T23:51:00Z,78.08,73.94,87.12,200.00,12,0.54,30.19,1022.30,2.5,M,SCT,BKN,OVC,M,1500.00,3300.00,4600.00,M,TSRA BR,KLGA 032351Z 20012KT 2 1/2SM R04/5000VP6000FT TSRA BR SCT015 BKN033CB OVC046 26/23 A3019 RMK AO2 TSB31 SLP223 OCNL LTGICCC OHD TS OHD MOV NE P0054 60079 T02560233 10289 20250 53005 $
LGA,2013-07-03T23:53:00Z,78.8,73.4,83.55,200.00,12,0.01,30.19,M,2,M,FEW,BKN,OVC,M,1900.00,3500.00,5000.00,M,+TSRA BR,KLGA 032353Z 20012KT 2SM R04/4500VP6000FT +TSRA BR FEW019 BKN035CB OVC050 26/23 A3019 RMK AO2 P0001 $
LGA,2013-07-04T00:19:00Z,78.8,73.4,83.55,190.00,8,0.17,30.18,M,10,M,SCT,OVC,M,M,4500.00,7000.00,M,M,M,KLGA 040019Z 19008KT 10SM SCT045 OVC070 26/23 A3018 RMK AO2 TSE13RAE18 P0017 $
LGA,2013-07-04T00:51:00Z,78.98,73.94,84.58,190.00,6,0.17,30.19,1022.30,10,M,FEW,SCT,BKN,BKN,4000.00,7000.00,13000.00,25000.00,M,KLGA 040051Z 19006KT 10SM FEW040 SCT070 BKN130 BKN250 26/23 A3019 RMK AO2 TSE13RAE18 SLP223 P0017 T02610233 $
LGA,2013-07-04T01:51:00Z,78.08,73.94,87.12,200.00,5,0,30.21,1023.00,10,M,FEW,BKN,BKN,M,5000.00,10000.00,25000.00,M,M,KLGA 040151Z 20005KT 10SM FEW050 BKN100 BKN250 26/23 A3021 RMK AO2 SLP230 T02560233 $
LGA,2013-07-04T02:51:00Z,77,73.04,87.6,190.00,7,0,30.21,1023.00,10,M,FEW,SCT,M,M,10000.00,25000.00,M,M,M,KLGA 040251Z 19007KT 10SM FEW100 SCT250 25/23 A3021 RMK AO2 SLP230 60017 T02500228 50007 $
LGA,2013-07-04T03:51:00Z,78.98,73.94,84.58,210.00,7,0,30.22,1023.30,10,M,SCT,BKN,M,M,14000.00,25000.00,M,M,M,KLGA 040351Z 21007KT 10SM SCT140 BKN250 26/23 A3022 RMK AO2 SLP233 T02610233 $
LGA,2013-07-04T04:51:00Z,78.08,73.94,87.12,190.00,6,0,30.21,1023.10,10,M,SCT,BKN,M,M,14000.00,25000.00,M,M,M,KLGA 040451Z 19006KT 10SM SCT140 BKN250 26/23 A3021 RMK AO2 SLP231 T02560233 402940233 $
LGA,2013-07-04T05:51:00Z,78.08,73.04,84.53,210.00,7,0,30.21,1023.00,10,M,FEW,SCT,M,M,10000.00,25000.00,M,M,M,KLGA 040551Z 21007KT 10SM FEW100 SCT250 26/23 A3021 RMK AO2 SLP230 60017 T02560228 10261 20244 50001 $
LGA,2013-07-04T06:51:00Z,78.08,73.04,84.53,220.00,7,0,30.2,1022.80,10,M,FEW,SCT,M,M,1100.00,25000.00,M,M,M,KLGA 040651Z 22007KT 10SM FEW011 SCT250 26/23 A3020 RMK AO2 SLP228 T02560228 $
LGA,2013-07-04T07:51:00Z,77,73.04,87.6,210.00,7,0,30.2,1022.70,10,M,FEW,SCT,M,M,1000.00,25000.00,M,M,M,KLGA 040751Z 21007KT 10SM FEW010 SCT250 25/23 A3020 RMK AO2 SLP227 T02500228 $
LGA,2013-07-04T08:51:00Z,77,73.04,87.6,210.00,8,0,30.21,1023.00,10,M,FEW,SCT,M,M,1000.00,25000.00,M,M,M,KLGA 040851Z 21008KT 10SM FEW010 SCT250 25/23 A3021 RMK AO2 SLP230 T02500228 55001 $
LGA,2013-07-04T09:51:00Z,77,71.96,84.46,220.00,6,0,30.22,1023.20,10,M,FEW,SCT,M,M,1000.00,25000.00,M,M,M,KLGA 040951Z 22006KT 10SM FEW010 SCT250 25/22 A3022 RMK AO2 SLP232 T02500222 $
LGA,2013-07-04T10:51:00Z,77,71.96,84.46,220.00,9,0,30.23,1023.80,10,M,BKN,BKN,M,M,1200.00,25000.00,M,M,M,KLGA 041051Z 22009KT 10SM BKN012 BKN250 25/22 A3023 RMK AO2 SLP238 T02500222 $
LGA,2013-07-04T11:51:00Z,78.08,71.96,81.5,220.00,8,0,30.24,1024.10,10,M,BKN,BKN,M,M,1700.00,25000.00,M,M,M,KLGA 041151Z 22008KT 10SM BKN017 BKN250 26/22 A3024 RMK AO2 SLP241 70096 T02560222 10256 20244 53012 $
LGA,2013-07-04T12:51:00Z,80.06,71.96,76.36,210.00,9,0,30.25,1024.30,10,M,BKN,M,M,M,1700.00,M,M,M,M,KLGA 041251Z 21009KT 10SM BKN017 27/22 A3025 RMK AO2 SLP243 T02670222 $
LGA,2013-07-04T13:51:00Z,82.94,71.06,67.44,220.00,8,0,30.24,1024.10,10,M,SCT,BKN,M,M,2100.00,3000.00,M,M,M,KLGA 041351Z 22008KT 10SM SCT021 BKN030 28/22 A3024 RMK AO2 SLP241 T02830217 $
LGA,2013-07-04T14:51:00Z,84.02,71.06,65.13,220.00,7,0,30.24,1023.90,10,M,FEW,SCT,BKN,M,2500.00,3000.00,3500.00,M,M,KLGA 041451Z 22007KT 10SM FEW025 SCT030 BKN035 29/22 A3024 RMK AO2 SLP239 T02890217 58002 $
LGA,2013-07-04T15:51:00Z,86,69.08,57.12,220.00,11,0,30.23,1023.60,10,18.00,FEW,SCT,BKN,M,3000.00,3500.00,4500.00,M,M,KLGA 041551Z 22011G18KT 10SM FEW030 SCT035 BKN045 30/21 A3023 RMK AO2 SLP236 T03000206 $
LGA,2013-07-04T16:51:00Z,87.08,69.08,55.19,230.00,9,0,30.21,1023.10,10,17.00,FEW,SCT,SCT,M,3500.00,4500.00,5500.00,M,M,KLGA 041651Z 23009G17KT 10SM FEW035 SCT045 SCT055 31/21 A3021 RMK AO2 SLP231 T03060206 $
LGA,2013-07-04T17:51:00Z,87.98,69.98,55.31,210.00,11,0,30.2,1022.60,10,17.00,SCT,BKN,M,M,3700.00,4500.00,M,M,M,KLGA 041751Z 21011G17KT 10SM SCT037 BKN045 31/21 A3020 RMK AO2 SLP226 T03110211 10311 20256 58013 $
LGA,2013-07-04T18:51:00Z,87.08,71.06,59.05,170.00,12,0,30.18,1022.10,10,19.00,BKN,BKN,M,M,3500.00,5000.00,M,M,M,KLGA 041851Z 17012G19KT 10SM BKN035 BKN050 31/22 A3018 RMK AO2 SLP221 T03060217 $
LGA,2013-07-04T19:51:00Z,89.96,69.08,50.39,230.00,11,0,30.17,1021.50,10,M,SCT,BKN,M,M,5000.00,10000.00,M,M,M,KLGA 041951Z 23011KT 10SM SCT050 BKN100 32/21 A3017 RMK AO2 SLP215 T03220206 $
LGA,2013-07-04T20:51:00Z,91.04,66.92,45.22,240.00,11,0,30.16,1021.20,10,18.00,FEW,BKN,M,M,3000.00,6000.00,M,M,M,KLGA 042051Z 24011G18KT 10SM FEW030 BKN060 33/19 A3016 RMK AO2 SLP212 T03280194 56014 $
LGA,2013-07-04T21:51:00Z,89.96,68,48.55,220.00,13,0,30.15,1020.90,10,20.00,SCT,M,M,M,6000.00,M,M,M,M,KLGA 042151Z 22013G20KT 10SM SCT060 32/20 A3015 RMK AO2 SLP209 T03220200 $
LGA,2013-07-04T22:51:00Z,89.06,68,49.95,230.00,11,0,30.15,1020.90,10,M,SCT,M,M,M,6000.00,M,M,M,M,KLGA 042251Z 23011KT 10SM SCT060 32/20 A3015 RMK AO2 SLP209 T03170200 $
LGA,2013-07-04T23:51:00Z,87.98,66.92,49.79,220.00,12,0,30.15,1021.00,10,18.00,FEW,M,M,M,6000.00,M,M,M,M,KLGA 042351Z 22012G18KT 10SM FEW060 31/19 A3015 RMK AO2 SLP210 T03110194 10328 20300 55002 $
LGA,2013-07-05T00:51:00Z,86,68,55.04,210.00,12,0,30.16,1021.40,10,M,FEW,BKN,M,M,4500.00,25000.00,M,M,M,KLGA 050051Z 21012KT 10SM FEW045 BKN250 30/20 A3016 RMK AO2 SLP214 T03000200 $
LGA,2013-07-05T01:51:00Z,84.92,68,56.98,210.00,10,0,30.18,1022.00,10,M,FEW,SCT,M,M,4500.00,25000.00,M,M,M,KLGA 050151Z 21010KT 10SM FEW045 SCT250 29/20 A3018 RMK AO2 SLP220 T02940200 $
LGA,2013-07-05T02:51:00Z,84.02,69.08,60.87,210.00,11,0,30.19,1022.30,10,M,CLR,M,M,M,M,M,M,M,M,KLGA 050251Z 21011KT 10SM CLR 29/21 A3019 RMK AO2 SLP223 T02890206 51013 $
LGA,2013-07-05T03:51:00Z,82.04,69.08,64.9,220.00,7,0,30.2,1022.50,10,M,CLR,M,M,M,M,M,M,M,M,KLGA 050351Z 22007KT 10SM CLR 28/21 A3020 RMK AO2 SLP225 T02780206 $
LGA,2013-07-05T04:51:00Z,80.96,69.98,69.32,230.00,10,0,30.2,1022.60,10,M,CLR,M,M,M,M,M,M,M,M,KLGA 050451Z 23010KT 10SM CLR 27/21 A3020 RMK AO2 SLP226 T02720211 403280244 $
LGA,2013-07-05T05:51:00Z,78.98,69.98,73.97,230.00,8,0,30.19,1022.40,10,M,CLR,M,M,M,M,M,M,M,M,KLGA 050551Z 23008KT 10SM CLR 26/21 A3019 RMK AO2 SLP224 T02610211 10311 20261 50001 $
LGA,2013-07-05T06:51:00Z,78.98,71.06,76.74,230.00,12,0,30.19,1022.30,10,M,CLR,M,M,M,M,M,M,M,M,KLGA 050651Z 23012KT 10SM CLR 26/22 A3019 RMK AO2 SLP223 T02610217 $
LGA,2013-07-05T07:51:00Z,78.08,71.06,79.05,210.00,8,0,30.19,1022.30,10,M,CLR,M,M,M,M,M,M,M,M,KLGA 050751Z 21008KT 10SM CLR 26/22 A3019 RMK AO2 SLP223 T02560217 $
LGA,2013-07-05T08:51:00Z,78.08,71.06,79.05,230.00,6,0,30.19,1022.30,10,M,CLR,M,M,M,M,M,M,M,M,KLGA 050851Z 23006KT 10SM CLR 26/22 A3019 RMK AO2 SLP223 T02560217 55001 $
LGA,2013-07-05T09:51:00Z,77,71.06,81.92,220.00,7,0,30.2,1022.70,10,M,FEW,M,M,M,1000.00,M,M,M,M,KLGA 050951Z 22007KT 10SM FEW010 25/22 A3020 RMK AO2 SLP227 T02500217 $
LGA,2013-07-05T10:51:00Z,78.08,71.06,79.05,220.00,7,0,30.21,1022.80,10,M,FEW,M,M,M,2000.00,M,M,M,M,KLGA 051051Z 22007KT 10SM FEW020 26/22 A3021 RMK AO2 SLP228 T02560217 $
LGA,2013-07-05T11:51:00Z,80.06,71.06,74.07,260.00,6,0,30.21,1022.90,10,M,FEW,M,M,M,2000.00,M,M,M,M,KLGA 051151Z 26006KT 10SM FEW020 27/22 A3021 RMK AO2 SLP229 T02670217 10267 20250 51006 $
LGA,2013-07-05T12:51:00Z,82.04,69.98,66.93,270.00,10,0,30.21,1022.90,10,M,FEW,M,M,M,2000.00,M,M,M,M,KLGA 051251Z 27010KT 10SM FEW020 28/21 A3021 RMK AO2 SLP229 T02780211
LGA,2013-07-05T13:51:00Z,84.02,71.06,65.13,230.00,4,0,30.19,1022.30,10,M,FEW,M,M,M,2000.00,M,M,M,M,KLGA 051351Z 23004KT 10SM FEW020 29/22 A3019 RMK AO2 SLP223 T02890217
LGA,2013-07-05T14:51:00Z,84.92,69.98,60.98,M,3,0,30.19,1022.20,10,M,FEW,M,M,M,3000.00,M,M,M,M,KLGA 051451Z VRB03KT 10SM FEW030 29/21 A3019 RMK AO2 SLP222 T02940211 58007
LGA,2013-07-05T15:51:00Z,87.98,69.08,53.64,240.00,9,0,30.18,1021.90,10,15.00,FEW,M,M,M,3000.00,M,M,M,M,KLGA 051551Z 24009G15KT 10SM FEW030 31/21 A3018 RMK AO2 SLP219 T03110206
LGA,2013-07-05T16:51:00Z,89.06,66.92,48.12,220.00,5,0,30.17,1021.60,10,15.00,FEW,SCT,M,M,3000.00,4500.00,M,M,M,KLGA 051651Z 22005G15KT 10SM FEW030 SCT045 32/19 A3017 RMK AO2 SLP216 T03170194
LGA,2013-07-05T17:51:00Z,89.96,68,48.55,240.00,8,0,30.15,1021.00,10,16.00,FEW,M,M,M,4600.00,M,M,M,M,KLGA 051751Z 24008G16KT 10SM FEW046 32/20 A3015 RMK AO2 SLP210 T03220200 10328 20267 58012
LGA,2013-07-05T18:51:00Z,89.06,71.06,55.46,170.00,13,0,30.14,1020.70,10,19.00,SCT,SCT,M,M,4600.00,6500.00,M,M,M,KLGA 051851Z 17013G19KT 10SM SCT046 SCT065 32/22 A3014 RMK AO2 SLP207 T03170217
LGA,2013-07-05T19:51:00Z,89.06,71.06,55.46,160.00,13,0,30.13,1020.10,10,M,SCT,M,M,M,4600.00,M,M,M,M,KLGA 051951Z 16013KT 10SM SCT046 32/22 A3013 RMK AO2 SLP201 T03170217
LGA,2013-07-05T20:51:00Z,89.96,69.98,51.96,160.00,13,0,30.1,1019.20,10,17.00,SCT,M,M,M,5000.00,M,M,M,M,KLGA 052051Z 16013G17KT 10SM SCT050 32/21 A3010 RMK AO2 SLP192 T03220211 58019
LGA,2013-07-05T21:51:00Z,91.94,66.92,43.96,230.00,11,0,30.08,1018.70,10,18.00,FEW,M,M,M,5000.00,M,M,M,M,KLGA 052151Z 23011G18KT 10SM FEW050 33/19 A3008 RMK AO2 SLP187 T03330194
LGA,2013-07-05T22:51:00Z,91.94,66.02,42.61,210.00,11,0,30.08,1018.60,10,M,FEW,SCT,M,M,5000.00,25000.00,M,M,M,KLGA 052251Z 21011KT 10SM FEW050 SCT250 33/19 A3008 RMK AO2 SLP186 T03330189
LGA,2013-07-05T23:51:00Z,89.96,66.02,45.34,230.00,11,0,30.08,1018.60,10,M,FEW,SCT,M,M,5000.00,25000.00,M,M,M,KLGA 052351Z 23011KT 10SM FEW050 SCT250 32/19 A3008 RMK AO2 SLP186 T03220189 10339 20311 55005
LGA,2013-07-06T00:51:00Z,87.98,66.92,49.79,230.00,10,0,30.09,1018.80,10,M,FEW,SCT,M,M,5000.00,25000.00,M,M,M,KLGA 060051Z 23010KT 10SM FEW050 SCT250 31/19 A3009 RMK AO2 SLP188 T03110194
LGA,2013-07-06T01:51:00Z,87.08,68,53.18,230.00,9,0,30.11,1019.50,10,M,FEW,M,M,M,25000.00,M,M,M,M,KLGA 060151Z 23009KT 10SM FEW250 31/20 A3011 RMK AO2 SLP195 T03060200
LGA,2013-07-06T02:51:00Z,86,68,55.04,220.00,10,0,30.12,1019.90,10,M,FEW,SCT,M,M,16000.00,25000.00,M,M,M,KLGA 060251Z 22010KT 10SM FEW160 SCT250 30/20 A3012 RMK AO2 SLP199 T03000200 53013
LGA,2013-07-06T03:51:00Z,84.92,69.08,59.14,230.00,7,0,30.13,1020.20,10,M,FEW,M,M,M,25000.00,M,M,M,M,KLGA 060351Z 23007KT 10SM FEW250 29/21 A3013 RMK AO2 SLP202 T02940206
LGA,2013-07-06T04:51:00Z,84.02,69.98,62.77,220.00,10,0,30.12,1020.00,10,M,FEW,SCT,M,M,16000.00,25000.00,M,M,M,KLGA 060451Z 22010KT 10SM FEW160 SCT250 29/21 A3012 RMK AO2 SLP200 T02890211 403390250
LGA,2013-07-06T05:51:00Z,82.94,69.98,65,230.00,10,0,30.12,1020.00,10,M,FEW,M,M,M,25000.00,M,M,M,M,KLGA 060551Z 23010KT 10SM FEW250 28/21 A3012 RMK AO2 SLP200 T02830211 10322 20283 50000
LGA,2013-07-06T06:51:00Z,82.04,69.98,66.93,220.00,9,0,30.12,1020.00,10,M,FEW,M,M,M,25000.00,M,M,M,M,KLGA 060651Z 22009KT 10SM FEW250 28/21 A3012 RMK AO2 SLP200 T02780211
LGA,2013-07-06T07:51:00Z,80.96,69.98,69.32,220.00,7,0,30.12,1019.80,10,M,CLR,M,M,M,M,M,M,M,M,KLGA 060751Z 22007KT 10SM CLR 27/21 A3012 RMK AO2 SLP198 T02720211
LGA,2013-07-06T08:51:00Z,80.06,69.98,71.39,230.00,6,0,30.12,1019.90,10,M,CLR,M,M,M,M,M,M,M,M,KLGA 060851Z 23006KT 10SM CLR 27/21 A3012 RMK AO2 SLP199 T02670211 55000
LGA,2013-07-06T09:51:00Z,78.98,71.06,76.74,220.00,7,0,30.12,1019.90,10,M,FEW,M,M,M,25000.00,M,M,M,M,KLGA 060951Z 22007KT 10SM FEW250 26/22 A3012 RMK AO2 SLP199 T02610217
LGA,2013-07-06T10:51:00Z,80.06,71.06,74.07,220.00,7,0,30.13,1020.20,10,M,FEW,M,M,M,25000.00,M,M,M,M,KLGA 061051Z 22007KT 10SM FEW250 27/22 A3013 RMK AO2 SLP202 T02670217
LGA,2013-07-06T11:51:00Z,82.04,71.06,69.43,240.00,9,0,30.13,1020.20,10,M,SCT,M,M,M,25000.00,M,M,M,M,KLGA 061151Z 24009KT 10SM SCT250 28/22 A3013 RMK AO2 SLP202 T02780217 10283 20261 52002
LGA,2013-07-06T12:51:00Z,84.02,69.98,62.77,260.00,8,0,30.13,1020.10,10,M,FEW,SCT,M,M,3000.00,25000.00,M,M,M,KLGA 061251Z 26008KT 10SM FEW030 SCT250 29/21 A3013 RMK AO2 SLP201 T02890211
LGA,2013-07-06T13:51:00Z,86,69.98,58.91,M,5,0,30.11,1019.70,10,M,FEW,SCT,M,M,3000.00,25000.00,M,M,M,KLGA 061351Z VRB05KT 10SM FEW030 SCT250 30/21 A3011 RMK AO2 SLP197 T03000211
LGA,2013-07-06T14:51:00Z,87.98,68,51.68,220.00,6,0,30.1,1019.20,10,M,FEW,SCT,M,M,3000.00,25000.00,M,M,M,KLGA 061451Z 22006KT 10SM FEW030 SCT250 31/20 A3010 RMK AO2 SLP192 T03110200 58009
LGA,2013-07-06T15:51:00Z,89.96,66.92,46.77,270.00,10,0,30.1,1019.10,10,M,FEW,SCT,M,M,3000.00,25000.00,M,M,M,KLGA 061551Z 27010KT 10SM FEW030 SCT250 32/19 A3010 RMK AO2 SLP191 T03220194
LGA,2013-07-06T16:51:00Z,91.94,66.92,43.96,270.00,13,0,30.09,1018.90,10,17.00,SCT,SCT,M,M,4800.00,25000.00,M,M,M,KLGA 061651Z 27013G17KT 10SM SCT048 SCT250 33/19 A3009 RMK AO2 SLP189 T03330194
LGA,2013-07-06T17:51:00Z,91.94,66.92,43.96,260.00,10,0,30.08,1018.40,10,M,SCT,BKN,M,M,4900.00,25000.00,M,M,M,KLGA 061751Z 26010KT 10SM SCT049 BKN250 33/19 A3008 RMK AO2 SLP184 T03330194 10339 20278 58008
LGA,2013-07-06T18:51:00Z,93.92,66.02,40.07,250.00,12,0,30.07,1018.10,10,18.00,SCT,SCT,M,M,5500.00,25000.00,M,M,M,KLGA 061851Z 25012G18KT 10SM SCT055 SCT250 34/19 A3007 RMK AO2 SLP181 T03440189
LGA,2013-07-06T19:51:00Z,93.92,64.94,38.59,270.00,12,0,30.05,1017.60,10,M,SCT,SCT,M,M,5500.00,25000.00,M,M,M,KLGA 061951Z 27012KT 10SM SCT055 SCT250 34/18 A3005 RMK AO2 SLP176 T03440183
LGA,2013-07-06T20:51:00Z,95,64.94,37.33,270.00,10,0,30.04,1017.20,10,19.00,SCT,SCT,M,M,5500.00,25000.00,M,M,M,KLGA 062051Z 27010G19KT 10SM SCT055 SCT250 35/18 A3004 RMK AO2 SLP172 T03500183 58012
LGA,2013-07-06T21:51:00Z,93.92,64.94,38.59,260.00,12,0,30.03,1016.80,10,M,SCT,SCT,M,M,6000.00,25000.00,M,M,M,KLGA 062151Z 26012KT 10SM SCT060 SCT250 34/18 A3003 RMK AO2 SLP168 T03440183
LGA,2013-07-06T22:51:00Z,93.02,66.02,41.2,260.00,14,0,30.02,1016.50,10,M,FEW,SCT,M,M,6000.00,25000.00,M,M,M,KLGA 062251Z 26014KT 10SM FEW060 SCT250 34/19 A3002 RMK AO2 SLP165 T03390189
LGA,2013-07-06T23:51:00Z,91.94,66.92,43.96,260.00,9,0,30.01,1016.20,10,M,FEW,SCT,M,M,6000.00,25000.00,M,M,M,KLGA 062351Z 26009KT 10SM FEW060 SCT250 33/19 A3001 RMK AO2 SLP162 T03330194 10350 20328 56010
LGA,2013-07-07T00:51:00Z,91.04,66.92,45.22,260.00,8,0,30.02,1016.50,10,M,FEW,SCT,M,M,6000.00,25000.00,M,M,M,KLGA 070051Z 26008KT 10SM FEW060 SCT250 33/19 A3002 RMK AO2 SLP165 T03280194
LGA,2013-07-07T01:51:00Z,91.04,66.92,45.22,240.00,6,0,30.03,1017.00,10,M,FEW,SCT,M,M,6000.00,25000.00,M,M,M,KLGA 070151Z 24006KT 10SM FEW060 SCT250 33/19 A3003 RMK AO2 SLP170 T03280194
LGA,2013-07-07T02:51:00Z,89.96,66.92,46.77,240.00,6,0,30.04,1017.30,10,M,FEW,M,M,M,25000.00,M,M,M,M,KLGA 070251Z 24006KT 10SM FEW250 32/19 A3004 RMK AO2 SLP173 T03220194 53011
LGA,2013-07-07T03:51:00Z,87.98,69.98,55.31,230.00,8,0,30.05,1017.60,10,M,FEW,M,M,M,25000.00,M,M,M,M,KLGA 070351Z 23008KT 10SM FEW250 31/21 A3005 RMK AO2 SLP176 T03110211
LGA,2013-07-07T04:51:00Z,87.08,69.98,56.92,240.00,9,0,30.05,1017.50,10,M,FEW,M,M,M,25000.00,M,M,M,M,KLGA 070451Z 24009KT 10SM FEW250 31/21 A3005 RMK AO2 SLP175 T03060211 403500261
LGA,2013-07-07T05:51:00Z,86,69.98,58.91,250.00,13,0,30.04,1017.30,10,M,FEW,M,M,M,25000.00,M,M,M,M,KLGA 070551Z 25013KT 10SM FEW250 30/21 A3004 RMK AO2 SLP173 T03000211 10333 20300 58000
LGA,2013-07-07T06:51:00Z,84.92,69.98,60.98,250.00,9,0,30.04,1017.10,10,M,CLR,M,M,M,M,M,M,M,M,KLGA 070651Z 25009KT 10SM CLR 29/21 A3004 RMK AO2 SLP171 T02940211
LGA,2013-07-07T07:51:00Z,84.02,69.98,62.77,260.00,12,0,30.03,1016.80,10,18.00,CLR,M,M,M,M,M,M,M,M,KLGA 070751Z 26012G18KT 10SM CLR 29/21 A3003 RMK AO2 SLP168 T02890211
LGA,2013-07-07T08:51:00Z,84.02,69.98,62.77,240.00,9,0,30.03,1016.80,10,M,CLR,M,M,M,M,M,M,M,M,KLGA 070851Z 24009KT 10SM CLR 29/21 A3003 RMK AO2 SLP168 T02890211 56005
LGA,2013-07-07T09:51:00Z,82.04,69.98,66.93,230.00,6,0,30.03,1017.00,10,M,SCT,M,M,M,25000.00,M,M,M,M,KLGA 070951Z 23006KT 10SM SCT250 28/21 A3003 RMK AO2 SLP170 T02780211
LGA,2013-07-07T10:51:00Z,82.04,69.98,66.93,230.00,9,0,30.04,1017.20,10,M,FEW,BKN,M,M,18000.00,25000.00,M,M,M,KLGA 071051Z 23009KT 10SM FEW180 BKN250 28/21 A3004 RMK AO2 SLP172 T02780211
LGA,2013-07-07T11:51:00Z,82.94,69.08,63.03,220.00,7,0,30.05,1017.40,10,M,FEW,SCT,M,M,18000.00,25000.00,M,M,M,KLGA 071151Z 22007KT 10SM FEW180 SCT250 28/21 A3005 RMK AO2 SLP174 T02830206 10300 20278 53006
LGA,2013-07-07T12:51:00Z,84.02,69.08,60.87,210.00,7,0,30.05,1017.50,10,M,FEW,SCT,M,M,17000.00,25000.00,M,M,M,KLGA 071251Z 21007KT 10SM FEW170 SCT250 29/21 A3005 RMK AO2 SLP175 T02890206
LGA,2013-07-07T13:51:00Z,86,69.98,58.91,220.00,7,0,30.03,1016.90,10,M,FEW,SCT,M,M,17000.00,25000.00,M,M,M,KLGA 071351Z 22007KT 10SM FEW170 SCT250 30/21 A3003 RMK AO2 SLP169 T03000211
LGA,2013-07-07T14:51:00Z,89.06,69.08,51.83,190.00,6,0,30.02,1016.60,10,M,FEW,SCT,BKN,M,4000.00,17000.00,25000.00,M,M,KLGA 071451Z 19006KT 10SM FEW040TCU SCT170 BKN250 32/21 A3002 RMK AO2 SLP166 TCU N T03170206 58008
LGA,2013-07-07T15:51:00Z,91.04,66.92,45.22,240.00,8,0,30.01,1016.10,10,M,FEW,SCT,BKN,M,5000.00,17000.00,27000.00,M,M,KLGA 071551Z 24008KT 10SM FEW050TCU SCT170 BKN270 33/19 A3001 RMK AO2 SLP161 TCU NW-NE T03280194
LGA,2013-07-07T16:51:00Z,93.02,68,44.12,250.00,8,0,29.99,1015.60,10,M,FEW,SCT,BKN,M,5500.00,17000.00,25000.00,M,M,KLGA 071651Z 25008KT 10SM FEW055TCU SCT170 BKN250 34/20 A2999 RMK AO2 SLP156 TCU NW-NE T03390200
LGA,2013-07-07T17:51:00Z,93.92,66.92,41.34,240.00,8,0,29.98,1015.30,10,M,FEW,SCT,BKN,M,4900.00,17000.00,25000.00,M,M,KLGA 071751Z 24008KT 10SM FEW049TCU SCT170 BKN250 34/19 A2998 RMK AO2 SLP153 TCU NW-N CB DSNT NW MOV NE T03440194 10344 20283 56013
LGA,2013-07-07T18:51:00Z,93.02,69.98,47.22,170.00,13,0,29.96,1014.40,10,17.00,FEW,SCT,BKN,M,5000.00,15000.00,25000.00,M,M,KLGA 071851Z 17013G17KT 10SM FEW050 SCT150 BKN250 34/21 A2996 RMK AO2 SLP144 T03390211
LGA,2013-07-07T19:51:00Z,93.92,71.06,47.64,140.00,11,0,29.94,1013.90,10,19.00,SCT,SCT,SCT,BKN,5500.00,6500.00,15000.00,25000.00,M,KLGA 071951Z 14011G19KT 10SM SCT055 SCT065 SCT150 BKN250 34/22 A2994 RMK AO2 SLP139 T03440217
LGA,2013-07-07T20:51:00Z,91.94,69.98,48.84,170.00,12,0,29.92,1013.30,10,M,BKN,BKN,BKN,M,6500.00,15000.00,25000.00,M,M,KLGA 072051Z 17012KT 10SM BKN065 BKN150 BKN250 33/21 A2992 RMK AO2 SLP133 T03330211 56020
LGA,2013-07-07T21:51:00Z,95,66.92,39.98,260.00,9,0,29.92,1013.10,10,18.00,SCT,BKN,BKN,M,5500.00,15000.00,25000.00,M,M,KLGA 072151Z 26009G18KT 10SM SCT055 BKN150 BKN250 35/19 A2992 RMK AO2 SLP131 T03500194
LGA,2013-07-07T22:51:00Z,96.08,66.02,37.49,270.00,11,0,29.93,1013.40,10,18.00,SCT,BKN,M,M,5500.00,25000.00,M,M,M,KLGA 072251Z 27011G18KT 10SM SCT055 BKN250 36/19 A2993 RMK AO2 SLP134 T03560189
LGA,2013-07-07T23:51:00Z,91.94,68,45.63,270.00,9,0,29.93,1013.50,10,17.00,FEW,BKN,M,M,5500.00,25000.00,M,M,M,KLGA 072351Z 27009G17KT 10SM FEW055 BKN250 33/20 A2993 RMK AO2 SLP135 T03330200 10367 20333 53002
LGA,2013-07-08T00:51:00Z,91.04,68,46.93,260.00,14,0,29.96,1014.50,10,22.00,SCT,BKN,BKN,M,5500.00,10000.00,25000.00,M,TS,KLGA 080051Z 26014G22KT 10SM TS SCT055CB BKN100 BKN250 33/20 A2996 RMK AO2 TSB49 SLP145 FRQ LTGICCCCG W TS W MOV NE T03280200
LGA,2013-07-08T01:51:00Z,84.92,62.96,47.82,350.00,7,0,29.94,1013.70,10,M,SCT,BKN,BKN,M,5000.00,10000.00,25000.00,M,M,KLGA 080151Z 35007KT 330V050 10SM SCT050 BKN100 BKN250 29/17 A2994 RMK AO2 TSE49 SLP137 T02940172
LGA,2013-07-08T02:51:00Z,86,62.96,46.19,240.00,8,0,29.95,1014.10,10,M,FEW,SCT,M,M,5000.00,20000.00,M,M,M,KLGA 080251Z 24008KT 10SM FEW050 SCT200 30/17 A2995 RMK AO2 SLP141 T03000172 51006
LGA,2013-07-08T03:51:00Z,82.04,62.06,50.84,270.00,11,0,29.98,1015.20,10,M,SCT,SCT,M,M,17000.00,25000.00,M,M,M,KLGA 080351Z 27011KT 10SM SCT170 SCT250 28/17 A2998 RMK AO2 SLP152 T02780167
LGA,2013-07-08T04:51:00Z,82.04,62.06,50.84,250.00,8,0,29.98,1015.20,10,M,SCT,BKN,M,M,17000.00,25000.00,M,M,M,KLGA 080451Z 25008KT 10SM SCT170 BKN250 28/17 A2998 RMK AO2 SLP152 T02780167 403670278
LGA,2013-07-08T05:51:00Z,80.06,62.96,55.97,260.00,12,0,29.98,1015.30,10,M,FEW,BKN,M,M,17000.00,25000.00,M,M,M,KLGA 080551Z 26012KT 10SM FEW170 BKN250 27/17 A2998 RMK AO2 SLP153 T02670172 10356 20267 51012
LGA,2013-07-08T06:51:00Z,78.08,64.04,62.05,260.00,7,0,29.97,1014.90,10,M,CLR,M,M,M,M,M,M,M,M,KLGA 080651Z 26007KT 10SM CLR 26/18 A2997 RMK AO2 SLP149 T02560178
LGA,2013-07-08T07:51:00Z,77,64.94,66.36,250.00,9,0,29.97,1014.90,10,M,SCT,BKN,M,M,15000.00,25000.00,M,M,M,KLGA 080751Z 25009KT 10SM SCT150 BKN250 25/18 A2997 RMK AO2 SLP149 T02500183
LGA,2013-07-08T08:51:00Z,75.92,64.94,68.78,260.00,9,0,29.98,1015.30,10,M,SCT,BKN,M,M,15000.00,25000.00,M,M,M,KLGA 080851Z 26009KT 10SM SCT150 BKN250 24/18 A2998 RMK AO2 SLP153 T02440183 55000
LGA,2013-07-08T09:51:00Z,75.92,64.94,68.78,260.00,8,0,30,1015.90,10,M,SCT,BKN,M,M,15000.00,25000.00,M,M,M,KLGA 080951Z 26008KT 10SM SCT150 BKN250 24/18 A3000 RMK AO2 SLP159 T02440183
LGA,2013-07-08T10:51:00Z,75.92,64.94,68.78,240.00,6,0,30.02,1016.40,10,M,SCT,BKN,M,M,15000.00,25000.00,M,M,M,KLGA 081051Z 24006KT 10SM SCT150 BKN250 24/18 A3002 RMK AO2 SLP164 T02440183
LGA,2013-07-08T11:51:00Z,77,66.02,68.9,280.00,7,0,30.02,1016.60,10,M,SCT,BKN,M,M,15000.00,25000.00,M,M,M,KLGA 081151Z 28007KT 10SM SCT150 BKN250 25/19 A3002 RMK AO2 SLP166 T02500189 10267 20239 51013
LGA,2013-07-08T12:51:00Z,78.98,66.02,64.54,310.00,9,0,30.02,1016.50,10,M,CLR,M,M,M,M,M,M,M,M,KLGA 081251Z 31009KT 10SM CLR 26/19 A3002 RMK AO2 SLP165 T02610189
LGA,2013-07-08T13:51:00Z,80.96,66.02,60.49,320.00,5,0,30.01,1016.30,10,M,FEW,SCT,M,M,15000.00,25000.00,M,M,M,KLGA 081351Z 32005KT 10SM FEW150 SCT250 27/19 A3001 RMK AO2 SLP163 T02720189
LGA,2013-07-08T14:51:00Z,84.92,64.04,49.66,270.00,6,0,30.02,1016.50,10,M,FEW,SCT,M,M,15000.00,25000.00,M,M,M,KLGA 081451Z 27006KT 10SM FEW150 SCT250 29/18 A3002 RMK AO2 SLP165 T02940178 55000
LGA,2013-07-08T15:51:00Z,87.08,62.06,43.23,260.00,10,0,30.02,1016.40,10,M,FEW,SCT,SCT,M,4000.00,15000.00,25000.00,M,M,KLGA 081551Z 26010KT 10SM FEW040 SCT150 SCT250 31/17 A3002 RMK AO2 SLP164 T03060167
LGA,2013-07-08T16:51:00Z,87.08,62.96,44.63,260.00,10,0,30.01,1016.20,10,M,BKN,BKN,M,M,4500.00,25000.00,M,M,M,KLGA 081651Z 26010KT 10SM BKN045 BKN250 31/17 A3001 RMK AO2 SLP162 T03060172
LGA,2013-07-08T17:51:00Z,87.98,62.06,42.02,250.00,10,0,30,1015.90,10,M,FEW,BKN,M,M,5500.00,25000.00,M,M,M,KLGA 081751Z 25010KT 10SM FEW055 BKN250 31/17 A3000 RMK AO2 SLP159 T03110167 10311 20250 58006
LGA,2013-07-08T18:51:00Z,89.06,62.96,41.91,290.00,7,0,29.99,1015.40,10,M,SCT,SCT,M,M,5500.00,20000.00,M,M,M,KLGA 081851Z 29007KT 10SM SCT055 SCT200 32/17 A2999 RMK AO2 SLP154 T03170172
LGA,2013-07-08T19:51:00Z,89.06,62.06,40.6,250.00,7,0,29.98,1015.10,10,M,SCT,SCT,M,M,5500.00,25000.00,M,M,M,KLGA 081951Z 25007KT 10SM SCT055TCU SCT250 32/17 A2998 RMK AO2 SLP151 TCU OHD T03170167
LGA,2013-07-08T20:51:00Z,89.96,62.06,39.47,210.00,10,0,29.97,1014.70,10,M,SCT,SCT,SCT,M,5500.00,18000.00,25000.00,M,M,KLGA 082051Z 21010KT 10SM SCT055 SCT180 SCT250 32/17 A2997 RMK AO2 SLP147 T03220167 56012
LGA,2013-07-08T21:51:00Z,87.98,62.06,42.02,220.00,12,0,29.96,1014.40,10,M,BKN,BKN,BKN,M,5500.00,11000.00,25000.00,M,M,KLGA 082151Z 22012KT 10SM BKN055TCU BKN110 BKN250 31/17 A2996 RMK AO2 SLP144 TCU OHD-W T03110167
LGA,2013-07-08T22:10:00Z,87.8,62.6,43.07,220.00,10,0,29.96,M,10,M,SCT,BKN,BKN,M,6000.00,8000.00,25000.00,M,TS,KLGA 082210Z 22010KT 10SM TS SCT060CB BKN080 BKN250 31/17 A2996 RMK AO2 TSB10 OCNL LTGCG OHD TS OHD MOV NE
LGA,2013-07-08T22:28:00Z,87.8,62.6,43.07,210.00,11,0,29.95,M,10,17.00,BKN,BKN,BKN,M,5500.00,8000.00,25000.00,M,M,KLGA 082228Z 21011G17KT 10SM BKN055TCU BKN080 BKN250 31/17 A2995
LGA,2013-07-08T22:51:00Z,87.98,64.04,45.04,220.00,11,0,29.96,1014.40,10,M,BKN,BKN,BKN,M,5500.00,7500.00,25000.00,M,M,KLGA 082251Z 22011KT 10SM BKN055TCU BKN075 BKN250 31/18 A2996 RMK AO2 TSB10E28 SLP144 TCU NE T03110178
LGA,2013-07-08T23:51:00Z,84.92,66.92,54.9,210.00,14,0,29.98,1015.20,10,19.00,BKN,BKN,BKN,M,5500.00,7500.00,25000.00,M,M,KLGA 082351Z 21014G19KT 10SM BKN055TCU BKN075 BKN250 29/19 A2998 RMK AO2 SLP152 TCU SW-NE T02940194 10328 20294 53005
LGA,2013-07-09T00:20:00Z,82.4,66.2,58.08,290.00,11,0,29.99,M,10,24.00,SCT,BKN,M,M,3800.00,5000.00,M,M,TS,KLGA 090020Z 29011G24KT 10SM TS SCT038 BKN050CB 28/19 A2999 RMK AO2 WSHFT 0005 TSB20 OCNL LTICCA VC N TS N MOV NE
LGA,2013-07-09T00:36:00Z,78.8,68,69.52,M,3,0,30,M,9,M,SCT,BKN,M,M,3800.00,5000.00,M,M,TS,KLGA 090036Z VRB03KT 9SM TS SCT038 BKN050CB 26/20 A3000 RMK AO2 WSHFT 0005 TSB20 OCNL LTGCG VC N TS N MOV NE
LGA,2013-07-09T00:51:00Z,84.92,64.04,49.66,260.00,9,0,30.01,1016.00,10,M,SCT,SCT,SCT,M,5000.00,7500.00,25000.00,M,M,KLGA 090051Z 26009KT 10SM SCT050CB SCT075 SCT250 29/18 A3001 RMK AO2 WSHFT 0005 TSB20E51 SLP160 OCNL LTGICCA VC NE CB N MOV NE T02940178
LGA,2013-07-09T01:51:00Z,84.02,64.94,52.75,260.00,7,0,30.03,1016.90,10,M,SCT,SCT,M,M,16000.00,25000.00,M,M,M,KLGA 090151Z 26007KT 10SM SCT160 SCT250 29/18 A3003 RMK AO2 SLP169 T02890183
LGA,2013-07-09T02:51:00Z,82.94,62.96,50.97,230.00,9,0,30.03,1016.70,10,M,SCT,M,M,M,25000.00,M,M,M,M,KLGA 090251Z 23009KT 10SM SCT250 28/17 A3003 RMK AO2 SLP167 T02830172 50015
LGA,2013-07-09T03:51:00Z,82.04,64.04,54.5,250.00,7,0,30.03,1017.00,10,M,FEW,BKN,M,M,10000.00,25000.00,M,M,M,KLGA 090351Z 25007KT 10SM FEW100 BKN250 28/18 A3003 RMK AO2 SLP170 T02780178
LGA,2013-07-09T04:51:00Z,80.06,64.04,58.14,250.00,5,0,30.03,1016.80,10,M,FEW,BKN,M,M,10000.00,25000.00,M,M,M,KLGA 090451Z 25005KT 10SM FEW100 BKN250 27/18 A3003 RMK AO2 SLP168 T02670178 403280239
LGA,2013-07-09T05:51:00Z,80.06,62.96,55.97,240.00,6,0,30.03,1016.90,10,M,CLR,M,M,M,M,M,M,M,M,KLGA 090551Z 24006KT 10SM CLR 27/17 A3003 RMK AO2 SLP169 T02670172 10294 20256 51002
LGA,2013-07-09T06:51:00Z,78.98,64.04,60.23,230.00,4,0,30.03,1016.90,10,M,FEW,SCT,M,M,12000.00,25000.00,M,M,M,KLGA 090651Z 23004KT 10SM FEW120 SCT250 26/18 A3003 RMK AO2 SLP169 T02610178
LGA,2013-07-09T07:51:00Z,78.08,64.04,62.05,0.00,0,0,30.03,1016.70,10,M,SCT,M,M,M,25000.00,M,M,M,M,KLGA 090751Z 00000KT 10SM SCT250 26/18 A3003 RMK AO2 SLP167 T02560178
LGA,2013-07-09T08:51:00Z,77,64.94,66.36,220.00,6,0,30.04,1017.20,10,M,SCT,M,M,M,25000.00,M,M,M,M,KLGA 090851Z 22006KT 10SM SCT250 25/18 A3004 RMK AO2 SLP172 T02500183 53003
LGA,2013-07-09T09:51:00Z,78.08,64.04,62.05,210.00,4,0,30.05,1017.40,10,M,FEW,SCT,M,M,10000.00,25000.00,M,M,M,KLGA 090951Z 21004KT 10SM FEW100 SCT250 26/18 A3005 RMK AO2 SLP174 T02560178
LGA,2013-07-09T10:51:00Z,78.08,64.94,64.03,210.00,5,0,30.05,1017.70,10,M,FEW,SCT,SCT,M,5000.00,10000.00,25000.00,M,M,KLGA 091051Z 21005KT 10SM FEW050 SCT100 SCT250 26/18 A3005 RMK AO2 SLP177 CB DSNT SW T02560183
LGA,2013-07-09T11:51:00Z,78.08,64.94,64.03,0.00,0,0,30.07,1018.10,10,M,BKN,BKN,M,M,14000.00,25000.00,M,M,M,KLGA 091151Z 00000KT 10SM BKN140 BKN250 26/18 A3007 RMK AO2 SLP181 T02560183 10267 20250 53009
LGA,2013-07-09T12:51:00Z,80.96,64.94,58.25,0.00,0,0,30.06,1018.00,9,M,FEW,SCT,M,M,14000.00,25000.00,M,M,M,KLGA 091251Z 00000KT 9SM FEW140 SCT250 27/18 A3006 RMK AO2 SLP180 T02720183
LGA,2013-07-09T13:51:00Z,84.02,66.02,54.77,0.00,0,0,30.05,1017.70,9,M,FEW,SCT,SCT,M,3900.00,14000.00,25000.00,M,M,KLGA 091351Z 00000KT 9SM FEW039 SCT140 SCT250 29/19 A3005 RMK AO2 SLP177 T02890189
LGA,2013-07-09T14:51:00Z,82.94,64.94,54.63,340.00,4,0,30.05,1017.60,10,M,CLR,SCT,BKN,M,M,14000.00,25000.00,M,M,KLGA 091451Z 34004KT 10SM CLR SCT140 BKN250 28/18 A3005 RMK AO2 SLP176 T02830183 58005
LGA,2013-07-09T15:51:00Z,87.08,64.94,47.83,230.00,8,0,30.05,1017.50,10,M,SCT,BKN,BKN,M,4300.00,14000.00,25000.00,M,M,KLGA 091551Z 23008KT 10SM SCT043 BKN140 BKN250 31/18 A3005 RMK AO2 SLP175 T03060183
LGA,2013-07-09T16:51:00Z,89.96,64.94,43.67,230.00,11,0,30.04,1017.10,10,14.00,SCT,BKN,BKN,BKN,4700.00,6000.00,14000.00,25000.00,M,KLGA 091651Z 23011G14KT 10SM SCT047 BKN060 BKN140 BKN250 32/18 A3004 RMK AO2 SLP171 T03220183
LGA,2013-07-09T17:51:00Z,87.08,68,53.18,190.00,13,0,30.03,1016.80,10,21.00,SCT,BKN,BKN,BKN,4700.00,6000.00,14000.00,25000.00,M,KLGA 091751Z 19013G21KT 10SM SCT047CB BKN060 BKN140 BKN250 31/20 A3003 RMK AO2 SLP168 CB OHD-N-NE MOV E T03060200 10322 20250 58008
LGA,2013-07-09T18:51:00Z,87.98,69.08,53.64,160.00,13,0,30.01,1016.30,10,17.00,FEW,SCT,M,M,4200.00,5500.00,M,M,M,KLGA 091851Z 16013G17KT 10SM FEW042 SCT055 31/21 A3001 RMK AO2 SLP163 T03110206
LGA,2013-07-09T19:51:00Z,82.94,66.92,58.51,0.00,0,0.06,30,1015.90,6,M,SCT,BKN,BKN,BKN,4500.00,7000.00,8500.00,15000.00,-RA,KLGA 091951Z 00000KT 6SM R04/4500VP6000FT -RA SCT045CB BKN070 BKN085 BKN150 BKN250 28/19 A3000 RMK AO2 PK WND 25032/1938 RAB36 SLP159 CB OHD MOV E TCU N AND E P0006 T02830194
LGA,2013-07-09T20:51:00Z,84.02,68,58.65,250.00,7,0,30,1016.00,9,26.00,BKN,BKN,BKN,BKN,5500.00,7500.00,15000.00,25000.00,-RA,KLGA 092051Z 25007G26KT 9SM -RA BKN055CB BKN075 BKN150 BKN250 29/20 A3000 RMK AO2 PK WND 27026/2042 RAE1957B45 SLP160 CB E MOV E TCU N-E P0000 60006 T02890200 55008
LGA,2013-07-09T21:51:00Z,87.08,64.94,47.83,210.00,9,0,29.99,1015.40,10,M,SCT,BKN,BKN,M,5500.00,15000.00,25000.00,M,M,KLGA 092151Z 21009KT 10SM SCT055TCU BKN150 BKN250 31/18 A2999 RMK AO2 RAE10 SLP154 TCU E P0000 T03060183
LGA,2013-07-09T22:51:00Z,87.08,66.92,51.24,190.00,9,0,29.98,1015.10,9,M,SCT,BKN,BKN,M,5500.00,15000.00,25000.00,M,M,KLGA 092251Z 19009KT 9SM SCT055TCU BKN150 BKN250 31/19 A2998 RMK AO2 SLP151 TCU OHD-N T03060194
LGA,2013-07-09T23:51:00Z,87.08,66.92,51.24,200.00,8,0,29.99,1015.40,10,M,SCT,BKN,BKN,M,5000.00,14000.00,25000.00,M,M,KLGA 092351Z 20008KT 10SM SCT050TCU BKN140 BKN250 31/19 A2999 RMK AO2 SLP154 TCU N AND DSNT SW 60006 T03060194 10322 20272 55005
LGA,2013-07-10T00:51:00Z,84.92,69.08,59.14,180.00,9,0,29.99,1015.40,10,M,SCT,SCT,BKN,BKN,4800.00,6000.00,11000.00,25000.00,M,KLGA 100051Z 18009KT 10SM SCT048CB SCT060 BKN110 BKN250 29/21 A2999 RMK AO2 SLP154 CB SW AND NW-NE MOV E T02940206
LGA,2013-07-10T01:07:00Z,84.2,69.8,62.03,200.00,9,0,30,M,10,M,SCT,SCT,BKN,BKN,5000.00,7000.00,11000.00,25000.00,TS,KLGA 100107Z 20009KT 10SM TS SCT050CB SCT070 BKN110 BKN250 29/21 A3000 RMK AO2 TSB07 OCNL LTGIC NE TS NE MOV E
LGA,2013-07-10T01:51:00Z,82.04,66.92,60.25,240.00,8,0,30.02,1016.40,10,M,FEW,SCT,BKN,BKN,4500.00,7000.00,12000.00,25000.00,TS,KLGA 100151Z 24008KT 10SM TS FEW045CB SCT070 BKN120 BKN250 28/19 A3002 RMK AO2 TSB07RAB15E31 SLP164 OCNL LTGIC VC NE TS NE MOV E P0000 T02780194
LGA,2013-07-10T02:32:00Z,82.4,66.2,58.08,230.00,6,0,30.02,M,10,M,FEW,M,M,M,8000.00,M,M,M,M,KLGA 100232Z 23006KT 10SM FEW080 28/19 A3002 RMK AO2 TSE31
LGA,2013-07-10T02:51:00Z,82.04,64.94,56.24,230.00,7,0,30.02,1016.70,10,M,FEW,OVC,M,M,8000.00,14000.00,M,M,M,KLGA 100251Z 23007KT 10SM FEW080 OVC140 28/18 A3002 RMK AO2 TSE31 SLP167 60000 T02780183 53012
LGA,2013-07-10T03:51:00Z,82.04,66.02,58.4,230.00,5,0,30.02,1016.40,10,M,OVC,M,M,M,9500.00,M,M,M,M,KLGA 100351Z 23005KT 10SM OVC095 28/19 A3002 RMK AO2 SLP164 T02780189
LGA,2013-07-10T04:51:00Z,80.96,66.02,60.49,220.00,10,0,30,1016.00,10,M,BKN,OVC,M,M,8000.00,10000.00,M,M,M,KLGA 100451Z 22010KT 10SM BKN080 OVC100 27/19 A3000 RMK AO2 SLP160 T02720189 403220250
LGA,2013-07-10T05:51:00Z,75.92,69.98,81.85,170.00,8,0.02,29.99,1015.60,8,M,SCT,OVC,M,M,3200.00,5000.00,M,M,-RA,KLGA 100551Z 17008KT 8SM -RA SCT032 OVC050 24/21 A2999 RMK AO2 RAB35 SLP156 P0002 60002 T02440211 10306 20239 58011
LGA,2013-07-10T06:51:00Z,77,69.98,78.96,200.00,7,0,29.98,1015.10,8,M,SCT,SCT,M,M,4200.00,10000.00,M,M,M,KLGA 100651Z 20007KT 8SM SCT042 SCT100 25/21 A2998 RMK AO2 RAE0554 SLP151 P0000 T02500211
LGA,2013-07-10T07:51:00Z,75.92,69.98,81.85,180.00,6,0,29.97,1014.90,8,M,SCT,SCT,M,M,4700.00,16000.00,M,M,M,KLGA 100751Z 18006KT 8SM SCT047 SCT160 24/21 A2997 RMK AO2 SLP149 T02440211
LGA,2013-07-10T08:51:00Z,75.92,69.08,79.37,180.00,6,0,29.96,1014.50,8,M,CLR,M,M,M,M,M,M,M,M,KLGA 100851Z 18006KT 8SM CLR 24/21 A2996 RMK AO2 SLP145 60000 T02440206 56011
LGA,2013-07-10T09:51:00Z,75.02,69.08,81.79,180.00,6,0,29.97,1014.70,8,M,SCT,SCT,SCT,M,4600.00,9000.00,25000.00,M,M,KLGA 100951Z 18006KT 8SM SCT046 SCT090 SCT250 24/21 A2997 RMK AO2 SLP147 T02390206
LGA,2013-07-10T10:51:00Z,75.92,69.98,81.85,180.00,6,0,29.96,1014.30,8,M,SCT,SCT,SCT,BKN,4000.00,10000.00,15000.00,25000.00,M,KLGA 101051Z 18006KT 8SM SCT040 SCT100 SCT150 BKN250 24/21 A2996 RMK AO2 SLP143 T02440211
LGA,2013-07-10T11:51:00Z,78.08,69.98,76.19,180.00,7,0,29.96,1014.40,8,M,SCT,SCT,BKN,OVC,1000.00,4000.00,15000.00,25000.00,M,KLGA 101151Z 18007KT 8SM SCT010 SCT040 BKN150 OVC250 26/21 A2996 RMK AO2 SLP144 60000 70008 T02560211 10256 20239 58001
LGA,2013-07-10T12:03:00Z,78.8,71.6,78.62,190.00,7,0,29.96,M,8,M,SCT,BKN,OVC,M,1000.00,2500.00,25000.00,M,M,KLGA 101203Z 19007KT 8SM SCT010 BKN025 OVC250 26/22 A2996 RMK AO2
LGA,2013-07-10T12:51:00Z,78.98,71.06,76.74,190.00,8,0,29.94,1013.90,8,M,FEW,BKN,BKN,M,1500.00,2500.00,25000.00,M,M,KLGA 101251Z 19008KT 8SM FEW015 BKN025 BKN250 26/22 A2994 RMK AO2 SLP139 T02610217
LGA,2013-07-10T13:38:00Z,80.6,71.6,74.11,170.00,7,0,29.93,M,8,M,SCT,SCT,BKN,M,1500.00,2500.00,10000.00,M,M,KLGA 101338Z 17007KT 8SM SCT015 SCT025 BKN100 27/22 A2993 RMK AO2
LGA,2013-07-10T13:51:00Z,80.96,71.06,71.92,170.00,7,0,29.93,1013.40,8,M,FEW,SCT,BKN,M,1500.00,2500.00,10000.00,M,M,KLGA 101351Z 17007KT 8SM FEW015 SCT025 BKN100 27/22 A2993 RMK AO2 SLP134 T02720217
LGA,2013-07-10T14:37:00Z,82.4,71.6,69.9,240.00,11,0,29.93,M,7,15.00,BKN,BKN,M,M,2500.00,25000.00,M,M,M,KLGA 101437Z 24011G15KT 7SM BKN025 BKN250 28/22 A2993 RMK AO2
LGA,2013-07-10T14:51:00Z,82.94,71.06,67.44,240.00,11,0,29.93,1013.30,8,M,BKN,BKN,M,M,2500.00,25000.00,M,M,M,KLGA 101451Z 24011KT 8SM BKN025 BKN250 28/22 A2993 RMK AO2 SLP133 T02830217 56010
LGA,2013-07-10T15:17:00Z,84.2,69.8,62.03,230.00,9,0,29.92,M,9,M,SCT,BKN,BKN,M,2000.00,7000.00,25000.00,M,M,KLGA 101517Z 23009KT 9SM SCT020 BKN070 BKN250 29/21 A2992 RMK AO2
LGA,2013-07-10T15:51:00Z,86,71.06,61.12,240.00,9,0,29.91,1012.90,9,16.00,BKN,BKN,BKN,M,3500.00,7000.00,25000.00,M,M,KLGA 101551Z 24009G16KT 9SM BKN035 BKN070 BKN250 30/22 A2991 RMK AO2 SLP129 T03000217
LGA,2013-07-10T16:51:00Z,87.08,69.98,56.92,230.00,10,0,29.89,1012.10,9,18.00,FEW,SCT,BKN,BKN,2500.00,4000.00,7500.00,25000.00,M,KLGA 101651Z 23010G18KT 9SM FEW025 SCT040 BKN075 BKN250 31/21 A2989 RMK AO2 SLP121 T03060211
LGA,2013-07-10T17:23:00Z,82.4,71.6,69.9,210.00,16,0,29.89,M,7,22.00,SCT,SCT,BKN,M,4000.00,9000.00,25000.00,M,-TSRA,KLGA 101723Z 21016G22KT 7SM -TSRA SCT040CB SCT090 BKN250 28/22 A2989 RMK AO2 TSB17RAB11 OCNL LTGIC SW TS SW MOV E P0000
LGA,2013-07-10T17:51:00Z,80.96,69.98,69.32,210.00,11,0,29.88,1011.70,10,M,SCT,SCT,BKN,OVC,4000.00,6000.00,10000.00,25000.00,M,KLGA 101751Z 21011KT 10SM SCT040CB SCT060 BKN100 OVC250 27/21 A2988 RMK AO2 TSB17E48RAB11E47 SLP117 CB E MOV E P0000 60000 T02720211 10311 20256 58017
LGA,2013-07-10T18:51:00Z,84.92,71.96,65.23,220.00,11,0,29.85,1010.70,8,M,BKN,BKN,BKN,OVC,3000.00,4700.00,10000.00,25000.00,M,KLGA 101851Z 22011KT 8SM BKN030TCU BKN047 BKN100 OVC250 29/22 A2985 RMK AO2 RAB1753E03 SLP107 TCU OHD P0000 T02940222
LGA,2013-07-10T19:51:00Z,87.98,66.92,49.79,230.00,15,0,29.84,1010.40,10,20.00,SCT,SCT,BKN,BKN,3500.00,4500.00,14000.00,25000.00,M,KLGA 101951Z 23015G20KT 10SM SCT035TCU SCT045 BKN140 BKN250 31/19 A2984 RMK AO2 SLP104 TCU NE AND S T03110194
LGA,2013-07-10T20:51:00Z,87.08,69.08,55.19,200.00,14,0,29.82,1009.70,10,18.00,SCT,SCT,BKN,M,3500.00,15000.00,25000.00,M,M,KLGA 102051Z 20014G18KT 10SM SCT035 SCT150 BKN250 31/21 A2982 RMK AO2 SLP097 TCU DSNT SE 60000 T03060206 56019
LGA,2013-07-10T21:51:00Z,87.08,66.92,51.24,220.00,13,0,29.8,1009.10,10,M,SCT,SCT,BKN,BKN,4400.00,5500.00,7000.00,15000.00,M,KLGA 102151Z 22013KT 10SM SCT044TCU SCT055 BKN070 BKN150 BKN250 31/19 A2980 RMK AO2 SLP091 TCU NE-SE T03060194
LGA,2013-07-10T22:51:00Z,91.04,66.92,45.22,220.00,10,0,29.82,1009.70,10,17.00,BKN,BKN,BKN,BKN,4900.00,7500.00,15000.00,25000.00,M,KLGA 102251Z 22010G17KT 10SM BKN049 BKN075 BKN150 BKN250 33/19 A2982 RMK AO2 SLP097 T03280194
LGA,2013-07-10T23:51:00Z,87.98,66.02,48.26,250.00,14,0,29.83,1010.10,10,19.00,SCT,SCT,BKN,M,4900.00,7500.00,25000.00,M,M,KLGA 102351Z 25014G19KT 10SM SCT049 SCT075 BKN250 31/19 A2983 RMK AO2 SLP101 60000 T03110189 10328 20272 53004
LGA,2013-07-11T00:51:00Z,86,68,55.04,230.00,8,0,29.83,1010.00,10,M,FEW,SCT,SCT,BKN,4500.00,8000.00,15000.00,25000.00,M,KLGA 110051Z 23008KT 10SM FEW045 SCT080 SCT150 BKN250 30/20 A2983 RMK AO2 SLP100 T03000200
LGA,2013-07-11T01:51:00Z,87.08,68,53.18,240.00,7,0,29.84,1010.50,10,M,FEW,SCT,BKN,M,4500.00,15000.00,25000.00,M,M,KLGA 110151Z 24007KT 10SM FEW045 SCT150 BKN250 31/20 A2984 RMK AO2 SLP105 T03060200
LGA,2013-07-11T02:51:00Z,84.92,69.08,59.14,220.00,6,0,29.83,1010.20,10,M,SCT,BKN,M,M,15000.00,25000.00,M,M,M,KLGA 110251Z 22006KT 10SM SCT150 BKN250 29/21 A2983 RMK AO2 SLP102 T02940206 50001
LGA,2013-07-11T03:51:00Z,84.02,69.08,60.87,230.00,9,0,29.82,1009.70,10,M,BKN,BKN,M,M,18000.00,25000.00,M,M,M,KLGA 110351Z 23009KT 10SM BKN180 BKN250 29/21 A2982 RMK AO2 SLP097 T02890206
LGA,2013-07-11T04:51:00Z,84.02,69.98,62.77,240.00,12,0,29.8,1009.10,10,M,SCT,OVC,M,M,5500.00,18000.00,M,M,M,KLGA 110451Z 24012KT 10SM SCT055 OVC180 29/21 A2980 RMK AO2 SLP091 T02890211 403280239
LGA,2013-07-11T05:51:00Z,82.94,71.06,67.44,230.00,9,0,29.8,1009.20,10,19.00,FEW,SCT,SCT,M,6500.00,9000.00,18000.00,M,M,KLGA 110551Z 23009G19KT 10SM FEW065 SCT090 SCT180 28/22 A2980 RMK AO2 SLP092 T02830217 10311 20283 55010
LGA,2013-07-11T06:51:00Z,82.04,71.06,69.43,220.00,10,0,29.81,1009.40,10,15.00,SCT,SCT,SCT,M,8500.00,18000.00,25000.00,M,M,KLGA 110651Z 22010G15KT 10SM SCT085 SCT180 SCT250 28/22 A2981 RMK AO2 SLP094 T02780217
LGA,2013-07-11T07:51:00Z,80.96,71.96,74.15,230.00,6,0,29.8,1009.20,10,M,BKN,OVC,M,M,10000.00,16000.00,M,M,M,KLGA 110751Z 23006KT 10SM BKN100 OVC160 27/22 A2980 RMK AO2 SLP092 T02720222
LGA,2013-07-11T08:51:00Z,80.96,71.96,74.15,210.00,9,0,29.79,1008.80,10,M,OVC,M,M,M,11000.00,M,M,M,M,KLGA 110851Z 21009KT 10SM OVC110 27/22 A2979 RMK AO2 SLP088 T02720222 58003
LGA,2013-07-11T09:51:00Z,80.96,69.08,67.22,230.00,8,0,29.81,1009.50,10,M,SCT,OVC,M,M,5000.00,10000.00,M,M,M,KLGA 110951Z 23008KT 10SM SCT050 OVC100 27/21 A2981 RMK AO2 SLP095 T02720206
LGA,2013-07-11T10:51:00Z,78.98,69.98,73.97,210.00,9,0,29.83,1010.00,10,M,FEW,BKN,OVC,M,2400.00,3500.00,11000.00,M,-RA,KLGA 111051Z 21009KT 10SM -RA FEW024 BKN035 OVC110 26/21 A2983 RMK AO2 RAB12 SLP100 P0000 T02610211
LGA,2013-07-11T11:28:00Z,80.6,69.8,69.71,210.00,9,0,29.83,M,10,M,SCT,BKN,OVC,M,2400.00,2800.00,4200.00,M,M,KLGA 111128Z 21009KT 10SM SCT024 BKN028 OVC042 27/21 A2983 RMK AO2 RAE1052
LGA,2013-07-11T11:51:00Z,80.06,69.98,71.39,220.00,8,0,29.84,1010.30,10,M,BKN,BKN,M,M,2600.00,4200.00,M,M,M,KLGA 111151Z 22008KT 10SM BKN026 BKN042 27/21 A2984 RMK AO2 RAE1052 SLP103 60000 T02670211 10283 20261 51015
LGA,2013-07-11T12:51:00Z,80.06,69.98,71.39,290.00,5,0,29.84,1010.40,10,M,BKN,OVC,M,M,2400.00,3000.00,M,M,M,KLGA 111251Z 29005KT 10SM BKN024 OVC030 27/21 A2984 RMK AO2 SLP104 T02670211
LGA,2013-07-11T13:44:00Z,80.6,64.4,57.84,310.00,10,0,29.85,M,10,M,FEW,OVC,M,M,2600.00,4700.00,M,M,M,KLGA 111344Z 31010KT 10SM FEW026 OVC047 27/18 A2985 RMK AO2 RAB29E38 P0000
LGA,2013-07-11T13:51:00Z,78.98,64.94,62.16,310.00,10,0,29.85,1010.80,10,M,FEW,OVC,M,M,2800.00,4700.00,M,M,M,KLGA 111351Z 31010KT 10SM FEW028 OVC047 26/18 A2985 RMK AO2 RAB29E38 SLP108 P0000 T02610183
LGA,2013-07-11T14:51:00Z,77,66.02,68.9,310.00,10,0,29.86,1011.10,10,M,FEW,OVC,M,M,3800.00,9500.00,M,M,M,KLGA 111451Z 31010KT 10SM FEW038 OVC095 25/19 A2986 RMK AO2 RAB18E36 SLP111 P0000 60000 T02500189 53008
LGA,2013-07-11T15:51:00Z,78.08,64.04,62.05,310.00,11,0,29.85,1010.90,10,M,FEW,SCT,BKN,OVC,5000.00,9000.00,15000.00,25000.00,M,KLGA 111551Z 31011KT 10SM FEW050 SCT090 BKN150 OVC250 26/18 A2985 RMK AO2 SLP109 T02560178
LGA,2013-07-11T16:51:00Z,78.98,64.94,62.16,310.00,8,0,29.86,1011.10,10,M,FEW,SCT,BKN,OVC,5000.00,10000.00,15000.00,25000.00,M,KLGA 111651Z 31008KT 10SM FEW050 SCT100 BKN150 OVC250 26/18 A2986 RMK AO2 SLP111 T02610183
LGA,2013-07-11T17:51:00Z,80.96,64.94,58.25,320.00,3,0,29.86,1011.10,10,M,FEW,BKN,OVC,M,3500.00,15000.00,25000.00,M,M,KLGA 111751Z 32003KT 10SM FEW035 BKN150 OVC250 27/18 A2986 RMK AO2 SLP111 60000 T02720183 10283 20250 56001
LGA,2013-07-11T18:51:00Z,82.04,64.04,54.5,320.00,5,0,29.85,1010.90,10,M,FEW,SCT,BKN,M,3500.00,15000.00,25000.00,M,M,KLGA 111851Z 32005KT 10SM FEW035 SCT150 BKN250 28/18 A2985 RMK AO2 SLP109 T02780178
LGA,2013-07-11T19:51:00Z,84.02,64.04,51.12,80.00,4,0,29.85,1010.70,10,M,SCT,SCT,BKN,M,5000.00,19000.00,25000.00,M,M,KLGA 111951Z 08004KT 10SM SCT050 SCT190 BKN250 29/18 A2985 RMK AO2 SLP107 T02890178
LGA,2013-07-11T20:51:00Z,84.02,62.96,49.22,70.00,3,0,29.84,1010.50,10,M,SCT,SCT,SCT,BKN,4500.00,6500.00,18000.00,25000.00,M,KLGA 112051Z 07003KT 10SM SCT045 SCT065 SCT180 BKN250 29/17 A2984 RMK AO2 SLP105 T02890172 57006
LGA,2013-07-11T21:51:00Z,84.02,64.94,52.75,50.00,5,0,29.85,1010.70,10,M,SCT,SCT,BKN,M,4500.00,18000.00,25000.00,M,M,KLGA 112151Z 05005KT 10SM SCT045 SCT180 BKN250 29/18 A2985 RMK AO2 SLP107 T02890183
LGA,2013-07-11T22:51:00Z,84.02,64.04,51.12,50.00,5,0,29.86,1011.20,10,M,SCT,SCT,BKN,M,4500.00,18000.00,25000.00,M,M,KLGA 112251Z 05005KT 10SM SCT045TCU SCT180 BKN250 29/18 A2986 RMK AO2 SLP112 TCU NE-S T02890178
LGA,2013-07-11T23:51:00Z,82.04,60.08,47.39,320.00,9,0,29.88,1011.70,10,M,SCT,SCT,BKN,M,4500.00,18000.00,25000.00,M,M,KLGA 112351Z 32009KT 10SM SCT045TCU SCT180 BKN250 28/16 A2988 RMK AO2 SLP117 TCU SE T02780156 10300 20272 53012
LGA,2013-07-12T00:51:00Z,80.96,60.08,49.09,340.00,6,0,29.89,1012.10,10,M,SCT,SCT,BKN,M,4500.00,18000.00,25000.00,M,M,KLGA 120051Z 34006KT 10SM SCT045TCU SCT180 BKN250 27/16 A2989 RMK AO2 SLP121 TCU SE-S T02720156
LGA,2013-07-12T01:51:00Z,78.08,60.98,55.7,40.00,7,0,29.91,1013.00,10,M,FEW,SCT,BKN,M,4500.00,7000.00,25000.00,M,M,KLGA 120151Z 04007KT 10SM FEW045 SCT070 BKN250 26/16 A2991 RMK AO2 SLP130 T02560161
LGA,2013-07-12T02:51:00Z,77,60.98,57.73,50.00,6,0,29.91,1012.90,10,M,OVC,M,M,M,23000.00,M,M,M,M,KLGA 120251Z 05006KT 10SM OVC230 25/16 A2991 RMK AO2 SLP129 T02500161 50012
LGA,2013-07-12T03:51:00Z,77,60.08,55.91,80.00,4,0,29.92,1013.00,10,M,OVC,M,M,M,23000.00,M,M,M,M,KLGA 120351Z 08004KT 10SM OVC230 25/16 A2992 RMK AO2 SLP130 T02500156
LGA,2013-07-12T04:51:00Z,75.02,62.06,64.07,60.00,4,0,29.92,1013.10,10,M,BKN,M,M,M,23000.00,M,M,M,M,KLGA 120451Z 06004KT 10SM BKN230 24/17 A2992 RMK AO2 SLP131 T02390167 403000239
LGA,2013-07-12T05:51:00Z,75.02,60.98,61.66,50.00,5,0,29.93,1013.40,10,M,BKN,M,M,M,24000.00,M,M,M,M,KLGA 120551Z 05005KT 10SM BKN240 24/16 A2993 RMK AO2 SLP134 T02390161 10294 20239 53005
LGA,2013-07-12T06:51:00Z,73.94,60.08,61.92,70.00,6,0,29.93,1013.40,10,M,BKN,M,M,M,24000.00,M,M,M,M,KLGA 120651Z 07006KT 10SM BKN240 23/16 A2993 RMK AO2 SLP134 T02330156
LGA,2013-07-12T07:51:00Z,73.04,60.98,65.9,30.00,6,0,29.94,1013.80,10,M,BKN,OVC,M,M,8500.00,24000.00,M,M,M,KLGA 120751Z 03006KT 10SM BKN085 OVC240 23/16 A2994 RMK AO2 SLP138 T02280161
LGA,2013-07-12T08:51:00Z,73.04,60.98,65.9,30.00,8,0,29.95,1014.30,10,M,BKN,BKN,M,M,8500.00,24000.00,M,M,M,KLGA 120851Z 03008KT 10SM BKN085 BKN240 23/16 A2995 RMK AO2 SLP143 T02280161 53009
LGA,2013-07-12T09:51:00Z,73.04,60.08,63.83,30.00,6,0,29.97,1014.70,10,M,FEW,OVC,M,M,9000.00,25000.00,M,M,M,KLGA 120951Z 03006KT 10SM FEW090 OVC250 23/16 A2997 RMK AO2 SLP147 T02280156
LGA,2013-07-12T10:51:00Z,73.04,60.08,63.83,40.00,6,0,29.99,1015.50,10,M,SCT,OVC,M,M,8000.00,25000.00,M,M,M,KLGA 121051Z 04006KT 10SM SCT080 OVC250 23/16 A2999 RMK AO2 SLP155 T02280156
LGA,2013-07-12T11:51:00Z,73.04,60.98,65.9,40.00,10,0,29.99,1015.60,10,M,FEW,BKN,OVC,M,9000.00,15000.00,25000.00,M,M,KLGA 121151Z 04010KT 10SM FEW090 BKN150 OVC250 23/16 A2999 RMK AO2 SLP156 T02280161 10239 20222 51014
LGA,2013-07-12T12:51:00Z,73.94,60.98,63.94,40.00,14,0,30,1016.00,10,M,FEW,SCT,BKN,BKN,5000.00,9000.00,15000.00,25000.00,M,KLGA 121251Z 04014KT 10SM FEW050 SCT090 BKN150 BKN250 23/16 A3000 RMK AO2 SLP160 T02330161
LGA,2013-07-12T13:51:00Z,75.02,60.98,61.66,50.00,13,0,30.02,1016.40,10,M,FEW,SCT,SCT,BKN,2500.00,8000.00,15000.00,25000.00,M,KLGA 121351Z 05013KT 10SM FEW025 SCT080 SCT150 BKN250 24/16 A3002 RMK AO2 SLP164 T02390161
LGA,2013-07-12T14:51:00Z,75.02,62.06,64.07,50.00,15,0,30.03,1016.90,10,M,SCT,BKN,BKN,BKN,2500.00,9000.00,15000.00,25000.00,M,KLGA 121451Z 05015KT 10SM SCT025 BKN090 BKN150 BKN250 24/17 A3003 RMK AO2 SLP169 T02390167 53012
LGA,2013-07-12T15:51:00Z,77,62.96,61.91,60.00,15,0,30.04,1017.10,10,M,FEW,SCT,BKN,OVC,2500.00,10000.00,15000.00,25000.00,M,KLGA 121551Z 06015KT 10SM FEW025 SCT100 BKN150 OVC250 25/17 A3004 RMK AO2 SLP171 T02500172
LGA,2013-07-12T16:28:00Z,75.2,62.6,64.91,60.00,14,0,30.04,M,10,M,SCT,BKN,BKN,BKN,2200.00,2600.00,3100.00,15000.00,M,KLGA 121628Z 06014KT 10SM SCT022 BKN026 BKN031 BKN150 OVC250 24/17 A3004 RMK AO2
LGA,2013-07-12T16:51:00Z,75.92,62.96,64.17,50.00,14,0,30.04,1017.20,10,M,OVC,M,M,M,2000.00,M,M,M,M,KLGA 121651Z 05014KT 10SM OVC020 24/17 A3004 RMK AO2 SLP172 T02440172
LGA,2013-07-12T17:51:00Z,77,64.04,64.3,60.00,14,0,30.04,1017.10,10,M,OVC,M,M,M,2200.00,M,M,M,M,KLGA 121751Z 06014KT 10SM OVC022 25/18 A3004 RMK AO2 RAB37E47 SLP171 P0000 60000 T02500178 10256 20228 50002
LGA,2013-07-12T18:51:00Z,75.92,64.94,68.78,70.00,13,0,30.04,1017.10,10,M,FEW,BKN,OVC,M,1500.00,2400.00,8000.00,M,-RA,KLGA 121851Z 07013KT 10SM -RA FEW015 BKN024 OVC080 24/18 A3004 RMK AO2 RAB16 SLP171 P0000 T02440183
LGA,2013-07-12T19:51:00Z,73.94,66.02,76.31,50.00,9,0,30.03,1017.00,10,M,FEW,BKN,OVC,M,2400.00,3100.00,8000.00,M,-RA,KLGA 121951Z 05009KT 10SM -RA FEW024 BKN031 OVC080 23/19 A3003 RMK AO2 RAE08B27 SLP170 P0000 T02330189
LGA,2013-07-12T20:51:00Z,73.94,66.02,76.31,50.00,10,0,30.03,1017.00,10,19.00,FEW,BKN,OVC,M,2400.00,3100.00,4000.00,M,M,KLGA 122051Z 05010G19KT 10SM FEW024 BKN031 OVC040 23/19 A3003 RMK AO2 RAE08 SLP170 P0000 60000 T02330189 55001
LGA,2013-07-12T21:51:00Z,73.94,66.92,78.72,50.00,11,0,30.03,1017.00,10,M,FEW,BKN,OVC,M,2000.00,3900.00,6000.00,M,-RA,KLGA 122151Z 05011KT 10SM -RA FEW020 BKN039 OVC060 23/19 A3003 RMK AO2 RAB04E13B38 SLP170 P0000 T02330194
LGA,2013-07-12T22:51:00Z,73.04,68,84.22,50.00,8,0,30.05,1017.40,10,M,FEW,BKN,OVC,M,2000.00,3500.00,4400.00,M,M,KLGA 122251Z 05008KT 10SM FEW020 BKN035 OVC044 23/20 A3005 RMK AO2 RAE33 SLP174 P0000 T02280200
LGA,2013-07-12T23:20:00Z,73.4,68,83.21,50.00,7,0,30.05,M,5,M,SCT,BKN,OVC,M,2100.00,2600.00,4400.00,M,-RA,KLGA 122320Z 05007KT 5SM -RA SCT021 BKN026 OVC044 23/20 A3005
LGA,2013-07-12T23:51:00Z,73.04,68,84.22,70.00,8,0.03,30.06,1017.90,5,M,SCT,BKN,OVC,M,1500.00,2200.00,3700.00,M,-RA,KLGA 122351Z 07008KT 5SM -RA SCT015 BKN022 OVC037 23/20 A3006 RMK AO2 RAB2256 SLP179 P0003 60003 T02280200 10250 20222 53008
LGA,2013-07-13T00:26:00Z,71.6,66.2,83.09,70.00,12,0.04,30.07,M,2.5,20.00,FEW,BKN,OVC,M,800.00,2700.00,3400.00,M,+RA BR,KLGA 130026Z 07012G20KT 2 1/2SM +RA BR FEW008 BKN027 OVC034 22/19 A3007 RMK AO2 P0004
LGA,2013-07-13T00:40:00Z,71.6,66.2,83.09,60.00,14,0,30.07,M,3,20.00,FEW,BKN,OVC,M,1200.00,3100.00,4500.00,M,+RA BR,KLGA 130040Z 06014G20KT 3SM +RA BR FEW012 BKN031 OVC045 22/19 A3007
LGA,2013-07-13T00:42:00Z,71.6,66.2,83.09,60.00,15,0.1,30.07,M,3,20.00,FEW,BKN,OVC,M,1100.00,2400.00,4500.00,M,-RA BR,KLGA 130042Z 06015G20KT 3SM -RA BR FEW011 BKN024 OVC045 22/19 A3007 RMK AO2 P0010
LGA,2013-07-13T00:45:00Z,71.6,66.2,83.09,60.00,15,0.1,30.07,M,4,M,FEW,BKN,OVC,M,800.00,2400.00,4500.00,M,-RA BR,KLGA 130045Z 06015KT 4SM -RA BR FEW008 BKN024 OVC045 22/19 A3007 RMK AO2 P0010
LGA,2013-07-13T00:51:00Z,69.98,66.02,87.26,60.00,16,0.11,30.07,1018.20,4,M,FEW,BKN,OVC,M,800.00,2400.00,4500.00,M,-RA BR,KLGA 130051Z 06016KT 4SM -RA BR FEW008 BKN024 OVC045 21/19 A3007 RMK AO2 SLP182 P0011 T02110189
LGA,2013-07-13T01:51:00Z,69.98,66.02,87.26,60.00,15,0.01,30.08,1018.60,5,M,FEW,SCT,OVC,M,800.00,1500.00,2000.00,M,-RA BR,KLGA 130151Z 06015KT 5SM -RA BR FEW008 SCT015 OVC020 21/19 A3008 RMK AO2 SLP186 P0001 T02110189
LGA,2013-07-13T02:10:00Z,69.8,66.2,88.34,60.00,13,0,30.09,M,10,M,FEW,BKN,OVC,M,800.00,1400.00,1900.00,M,-RA,KLGA 130210Z 06013KT 10SM -RA FEW008 BKN014 OVC019 21/19 A3009
LGA,2013-07-13T02:51:00Z,69.08,66.02,89.98,60.00,15,0,30.09,1018.90,7,M,OVC,M,M,M,1000.00,M,M,M,-RA,KLGA 130251Z 06015KT 7SM -RA OVC010 21/19 A3009 RMK AO2 SLP189 P0000 60012 T02060189 51010
LGA,2013-07-13T03:04:00Z,69.8,66.2,88.34,60.00,13,0,30.09,M,4,M,SCT,OVC,M,M,600.00,1000.00,M,M,RA BR,KLGA 130304Z 06013KT 4SM RA BR SCT006 OVC010 21/19 A3009
LGA,2013-07-13T03:51:00Z,69.08,66.02,89.98,70.00,12,0.03,30.1,1019.40,8,M,OVC,M,M,M,1000.00,M,M,M,-RA,KLGA 130351Z 07012KT 8SM -RA OVC010 21/19 A3010 RMK AO2 SLP194 P0003 T02060189
LGA,2013-07-13T04:17:00Z,69.8,66.2,88.34,60.00,9,0.03,30.1,M,4,M,OVC,M,M,M,800.00,M,M,M,-RA BR,KLGA 130417Z 06009KT 4SM -RA BR OVC008 21/19 A3010 RMK AO2 P0003
LGA,2013-07-13T04:51:00Z,69.08,66.02,89.98,70.00,9,0.04,30.11,1019.60,10,M,OVC,M,M,M,800.00,M,M,M,M,KLGA 130451Z 07009KT 10SM OVC008 21/19 A3011 RMK AO2 RAE33 SLP196 P0004 T02060189 402560200
LGA,2013-07-13T05:18:00Z,69.8,66.2,88.34,70.00,9,0,30.11,M,10,M,OVC,M,M,M,600.00,M,M,M,M,KLGA 130518Z 07009KT 10SM OVC006 21/19 A3011 RMK AO2
LGA,2013-07-13T05:51:00Z,69.08,66.02,89.98,60.00,10,0,30.12,1019.80,8,M,OVC,M,M,M,600.00,M,M,M,-RA,KLGA 130551Z 06010KT 8SM -RA OVC006 21/19 A3012 RMK AO2 RAB50 SLP198 P0000 60019 T02060189 10233 20200 51009
LGA,2013-07-13T06:24:00Z,69.8,66.2,88.34,60.00,9,0,30.11,M,2.5,M,OVC,M,M,M,600.00,M,M,M,BR,KLGA 130624Z 06009KT 2 1/2SM BR OVC006 21/19 A3011 RMK AO2 RAE21 P0000
LGA,2013-07-13T06:35:00Z,69.8,66.2,88.34,60.00,9,0,30.11,M,2.5,M,OVC,M,M,M,400.00,M,M,M,-DZ BR,KLGA 130635Z 06009KT 2 1/2SM -DZ BR OVC004 21/19 A3011 RMK AO2 SFC VIS 3 RAE35DZB35 P0000
LGA,2013-07-13T06:51:00Z,69.08,66.92,92.83,60.00,9,0,30.11,1019.70,2.5,M,OVC,M,M,M,400.00,M,M,M,-DZ BR,KLGA 130651Z 06009KT 2 1/2SM -DZ BR OVC004 21/19 A3011 RMK AO2 SFC VIS 4 RAE35DZB35 SLP197 P0000 T02060194
LGA,2013-07-13T07:51:00Z,69.08,66.92,92.83,60.00,8,0,30.12,1020.00,2.5,M,OVC,M,M,M,400.00,M,M,M,BR,KLGA 130751Z 06008KT 2 1/2SM BR OVC004 21/19 A3012 RMK AO2 SFC VIS 4 DZE37 SLP200 P0000 T02060194
LGA,2013-07-13T08:51:00Z,69.08,66.92,92.83,70.00,6,0.01,30.14,1020.60,2.5,M,OVC,M,M,M,400.00,M,M,M,-RA BR,KLGA 130851Z 07006KT 2 1/2SM -RA BR OVC004 21/19 A3014 RMK AO2 SFC VIS 5 RAB0754 SLP206 P0001 60001 T02060194 53008
LGA,2013-07-13T09:51:00Z,69.08,66.92,92.83,40.00,6,0,30.15,1021.00,2.5,M,OVC,M,M,M,400.00,M,M,M,BR,KLGA 130951Z 04006KT 2 1/2SM BR OVC004 21/19 A3015 RMK AO2 SFC VIS 3 RAE39 SLP210 P0000 T02060194
LGA,2013-07-13T10:02:00Z,69.8,66.2,88.34,40.00,9,0,30.15,M,2,M,OVC,M,M,M,400.00,M,M,M,BR,KLGA 131002Z 04009KT 2SM BR OVC004 21/19 A3015 RMK AO2
LGA,2013-07-13T10:05:00Z,69.8,66.2,88.34,50.00,9,0,30.16,M,1,M,OVC,M,M,M,200.00,M,M,M,BR,KLGA 131005Z 05009KT 1SM BR OVC002 21/19 A3016 RMK AO2 SFC VIS 1 3/4
LGA,2013-07-13T10:48:00Z,69.8,66.2,88.34,50.00,8,0,30.18,M,0.75,M,OVC,M,M,M,200.00,M,M,M,BR,KLGA 131048Z 05008KT 3/4SM BR OVC002 21/19 A3018 RMK AO2 SFC VIS 2
LGA,2013-07-13T10:51:00Z,69.08,66.92,92.83,60.00,7,0,30.18,1021.80,0.75,M,OVC,M,M,M,200.00,M,M,M,BR,KLGA 131051Z 06007KT 3/4SM BR OVC002 21/19 A3018 RMK AO2 SFC VIS 2 SLP218 T02060194
LGA,2013-07-13T11:48:00Z,69.8,66.2,88.34,50.00,8,0,30.19,M,3,M,OVC,M,M,M,200.00,M,M,M,BR,KLGA 131148Z 05008KT 3SM BR OVC002 21/19 A3019 RMK AO2 SFC VIS 4
LGA,2013-07-13T11:51:00Z,69.08,66.92,92.83,50.00,8,0,30.19,1022.30,3,M,OVC,M,M,M,200.00,M,M,M,BR,KLGA 131151Z 05008KT 3SM BR OVC002 21/19 A3019 RMK AO2 SFC VIS 4 SLP223 60001 70023 T02060194 10211 20206 53017
LGA,2013-07-13T12:10:00Z,69.8,66.2,88.34,40.00,8,0,30.2,M,3,M,OVC,M,M,M,400.00,M,M,M,-RA BR,KLGA 131210Z 04008KT 3SM -RA BR OVC004 21/19 A3020
LGA,2013-07-13T12:49:00Z,69.8,68,94.01,40.00,10,0.01,30.22,M,2.5,M,BKN,OVC,M,M,400.00,700.00,M,M,BR,KLGA 131249Z 04010KT 2 1/2SM BR BKN004 OVC007 21/20 A3022 RMK AO2 SFC VIS 4 RAB1155E13 P0001
LGA,2013-07-13T12:51:00Z,69.98,68,93.44,40.00,11,0.01,30.22,1023.20,2.5,M,BKN,OVC,M,M,400.00,700.00,M,M,BR,KLGA 131251Z 04011KT 2 1/2SM BR BKN004 OVC007 21/20 A3022 RMK AO2 SFC VIS 4 RAB1155E13 SLP232 P0001 T02110200
LGA,2013-07-13T13:51:00Z,71.06,68,90.06,40.00,10,0,30.22,1023.40,2.5,M,BKN,OVC,M,M,400.00,700.00,M,M,BR,KLGA 131351Z 04010KT 2 1/2SM BR BKN004 OVC007 22/20 A3022 RMK AO2 SFC VIS 5 SLP234 T02170200
LGA,2013-07-13T14:51:00Z,71.96,68,87.35,40.00,11,0,30.24,1023.80,2.5,M,BKN,OVC,M,M,400.00,700.00,M,M,BR,KLGA 131451Z 04011KT 2 1/2SM BR BKN004 OVC007 22/20 A3024 RMK AO2 SFC VIS 5 SLP238 60001 T02220200 53006
LGA,2013-07-13T15:27:00Z,71.6,68,88.43,50.00,12,0,30.23,M,4,M,SCT,BKN,BKN,M,400.00,2100.00,3800.00,M,BR,KLGA 131527Z 05012KT 4SM BR SCT004 BKN021 BKN038 22/20 A3023 RMK AO2
LGA,2013-07-13T15:51:00Z,73.94,68,81.71,40.00,11,0,30.23,1023.60,6,M,FEW,BKN,BKN,M,400.00,2100.00,4500.00,M,HZ,KLGA 131551Z 04011KT 6SM HZ FEW004 BKN021 BKN045 23/20 A3023 RMK AO2 SLP236 T02330200
LGA,2013-07-13T16:49:00Z,73.4,68,83.21,40.00,13,0,30.24,M,6,M,FEW,BKN,BKN,M,400.00,3400.00,5000.00,M,HZ,KLGA 131649Z 04013KT 6SM HZ FEW004 BKN034 BKN050 23/20 A3024 RMK AO2
LGA,2013-07-13T16:51:00Z,75.02,68,78.81,40.00,13,0,30.24,1024.00,6,M,FEW,BKN,BKN,M,400.00,3400.00,5000.00,M,HZ,KLGA 131651Z 04013KT 6SM HZ FEW004 BKN034 BKN050 24/20 A3024 RMK AO2 SLP240 T02390200
LGA,2013-07-13T17:51:00Z,75.02,68,78.81,50.00,14,0,30.24,1023.90,9,M,FEW,SCT,BKN,BKN,400.00,3600.00,4700.00,25000.00,M,KLGA 131751Z 05014KT 9SM FEW004 SCT036 BKN047 BKN250 24/20 A3024 RMK AO2 SLP239 60001 T02390200 10244 20206 53001
LGA,2013-07-13T18:51:00Z,75.92,69.08,79.37,50.00,12,0,30.24,1024.00,10,M,FEW,BKN,BKN,BKN,900.00,2100.00,3600.00,15000.00,M,KLGA 131851Z 05012KT 10SM FEW009 BKN021 BKN036 BKN150 BKN250 24/21 A3024 RMK AO2 SLP240 CB DSNT SW-W T02440206
LGA,2013-07-13T19:41:00Z,73.4,69.8,88.51,40.00,14,0,30.23,M,10,M,FEW,SCT,SCT,BKN,500.00,2500.00,6000.00,15000.00,M,KLGA 131941Z 04014KT 10SM FEW005 SCT025 SCT060 BKN150 BKN250 23/21 A3023 RMK AO2 CB DSNT SW
LGA,2013-07-13T19:51:00Z,73.94,69.08,84.8,50.00,13,0,30.23,1023.70,10,M,FEW,SCT,SCT,BKN,500.00,2600.00,6000.00,15000.00,M,KLGA 131951Z 05013KT 10SM FEW005 SCT026 SCT060 BKN150 BKN250 23/21 A3023 RMK AO2 SLP237 CB DSNT SW T02330206
LGA,2013-07-13T20:51:00Z,73.94,69.08,84.8,40.00,13,0,30.24,1024.00,10,M,FEW,SCT,BKN,BKN,1000.00,3500.00,8000.00,15000.00,M,KLGA 132051Z 04013KT 10SM FEW010 SCT035 BKN080 BKN150 23/21 A3024 RMK AO2 SLP240 CB DSNT E T02330206 53001
LGA,2013-07-13T21:13:00Z,73.4,68,83.21,40.00,10,0,30.24,M,10,M,FEW,SCT,BKN,BKN,600.00,3500.00,8000.00,15000.00,M,KLGA 132113Z 04010KT 10SM FEW006 SCT035 BKN080 BKN150 23/20 A3024 RMK AO2 CB DSNT E
LGA,2013-07-13T21:51:00Z,73.94,69.08,84.8,40.00,10,0,30.25,1024.20,9,M,FEW,SCT,BKN,BKN,600.00,5500.00,9000.00,15000.00,-RA,KLGA 132151Z 04010KT 9SM -RA FEW006 SCT055 BKN090 BKN150 BKN250 23/21 A3025 RMK AO2 RAB46 SLP242 CB DSNT E P0000 T02330206
LGA,2013-07-13T22:35:00Z,73.4,69.8,88.51,50.00,7,0,30.25,M,10,M,BKN,BKN,BKN,BKN,1600.00,2900.00,4500.00,15000.00,-RA,KLGA 132235Z 05007KT 10SM -RA BKN016 BKN029 BKN045 BKN150 23/21 A3025 RMK AO2 RAE2158B32 P0000
LGA,2013-07-13T22:51:00Z,73.04,69.08,87.41,60.00,7,0,30.25,1024.30,10,M,BKN,BKN,BKN,BKN,1600.00,2800.00,4400.00,15000.00,M,KLGA 132251Z 06007KT 10SM BKN016 BKN028 BKN044 BKN150 23/21 A3025 RMK AO2 RAE2158B32E50 SLP243 P0000 T02280206
LGA,2013-07-13T23:11:00Z,73.4,69.8,88.51,60.00,5,0,30.26,M,10,M,SCT,BKN,BKN,BKN,1400.00,3700.00,7000.00,15000.00,M,KLGA 132311Z 06005KT 10SM SCT014 BKN037TCU BKN070 BKN150 BKN250 23/21 A3026 RMK AO2 TCU OHD-SE
LGA,2013-07-13T23:41:00Z,73.4,69.8,88.51,50.00,6,0,30.26,M,10,M,BKN,BKN,BKN,BKN,1400.00,2300.00,7000.00,15000.00,M,KLGA 132341Z 05006KT 10SM BKN014 BKN023 BKN070 BKN150 BKN250 23/21 A3026 RMK AO2
LGA,2013-07-13T23:51:00Z,75.02,69.08,81.79,40.00,7,0,30.26,1024.50,10,M,BKN,BKN,BKN,BKN,1400.00,1900.00,7000.00,15000.00,M,KLGA 132351Z 04007KT 10SM BKN014 BKN019 BKN070 BKN150 BKN250 24/21 A3026 RMK AO2 SLP245 60000 T02390206 10244 20228 53005
LGA,2013-07-14T00:07:00Z,73.4,69.8,88.51,40.00,4,0,30.26,M,10,M,FEW,BKN,BKN,BKN,1400.00,3000.00,8500.00,17000.00,M,KLGA 140007Z 04004KT 10SM FEW014 BKN030 BKN085 BKN170 BKN250 23/21 A3026 RMK AO2
LGA,2013-07-14T00:49:00Z,73.4,69.8,88.51,50.00,6,0,30.26,M,10,M,BKN,BKN,BKN,BKN,1400.00,2300.00,8500.00,17000.00,M,KLGA 140049Z 05006KT 10SM BKN014 BKN023 BKN085 BKN170 BKN250 23/21 A3026 RMK AO2
LGA,2013-07-14T00:51:00Z,73.94,69.08,84.8,50.00,6,0,30.26,1024.80,10,M,BKN,BKN,BKN,BKN,1400.00,2300.00,8500.00,17000.00,M,KLGA 140051Z 05006KT 10SM BKN014 BKN023 BKN085 BKN170 BKN250 23/21 A3026 RMK AO2 SLP248 T02330206
LGA,2013-07-14T01:51:00Z,73.04,69.08,87.41,60.00,6,0,30.27,1024.90,10,M,BKN,M,M,M,1400.00,M,M,M,M,KLGA 140151Z 06006KT 10SM BKN014 23/21 A3027 RMK AO2 SLP249 T02280206
LGA,2013-07-14T02:51:00Z,73.04,69.08,87.41,60.00,7,0,30.28,1025.30,10,M,BKN,BKN,M,M,1000.00,14000.00,M,M,M,KLGA 140251Z 06007KT 10SM BKN010 BKN140 23/21 A3028 RMK AO2 SLP253 T02280206 53005
LGA,2013-07-14T03:06:00Z,73.4,69.8,88.51,60.00,7,0,30.28,M,8,M,SCT,SCT,BKN,M,1000.00,7000.00,14000.00,M,M,KLGA 140306Z 06007KT 8SM SCT010 SCT070 BKN140 23/21 A3028 RMK AO2
LGA,2013-07-14T03:51:00Z,73.04,69.08,87.41,40.00,3,0,30.27,1025.10,9,M,FEW,SCT,BKN,M,1000.00,7000.00,14000.00,M,M,KLGA 140351Z 04003KT 9SM FEW010 SCT070 BKN140 23/21 A3027 RMK AO2 SLP251 T02280206
LGA,2013-07-14T04:51:00Z,73.04,69.98,90.14,70.00,3,0,30.28,1025.40,9,M,SCT,BKN,BKN,M,2000.00,3400.00,6000.00,M,-RA,KLGA 140451Z 07003KT 9SM -RA SCT020 BKN034 BKN060 23/21 A3028 RMK AO2 RAB42 SLP254 P0000 T02280211 402440206
LGA,2013-07-14T05:05:00Z,71.6,69.8,94.06,50.00,6,0,30.28,M,8,M,FEW,BKN,BKN,M,800.00,2100.00,3200.00,M,M,KLGA 140505Z 05006KT 8SM FEW008 BKN021 BKN032 22/21 A3028 RMK AO2 RAE00 P0000
LGA,2013-07-14T05:48:00Z,71.6,69.8,94.06,60.00,6,0,30.29,M,5,M,FEW,BKN,OVC,M,800.00,1300.00,3200.00,M,BR,KLGA 140548Z 06006KT 5SM BR FEW008 BKN013 OVC032 22/21 A3029 RMK AO2 RAE00 P0000
LGA,2013-07-14T05:51:00Z,71.96,69.98,93.49,60.00,6,0,30.29,1025.70,5,M,FEW,BKN,OVC,M,800.00,1300.00,3200.00,M,BR,KLGA 140551Z 06006KT 5SM BR FEW008 BKN013 OVC032 22/21 A3029 RMK AO2 RAE00 SLP257 P0000 60000 T02220211 10239 20222 53004
LGA,2013-07-14T06:51:00Z,73.04,71.06,93.52,0.00,0,0,30.3,1025.90,6,M,BKN,BKN,OVC,M,1300.00,2400.00,3200.00,M,-RA BR,KLGA 140651Z 00000KT 6SM -RA BR BKN013 BKN024 OVC032 23/22 A3030 RMK AO2 RAB49 SLP259 P0000 T02280217
LGA,2013-07-14T06:58:00Z,73.4,71.6,94.1,0.00,0,0,30.3,M,6,M,SCT,BKN,BKN,M,1600.00,2400.00,3200.00,M,-RA BR,KLGA 140658Z 00000KT 6SM -RA BR SCT016 BKN024 BKN032 23/22 A3030 RMK AO2 P0000
LGA,2013-07-14T07:39:00Z,71.6,69.8,94.06,60.00,5,0,30.3,M,6,M,FEW,BKN,BKN,M,400.00,2200.00,4400.00,M,BR,KLGA 140739Z 06005KT 6SM BR FEW004 BKN022 BKN044 22/21 A3030 RMK AO2 RAE02 P0000
LGA,2013-07-14T07:51:00Z,71.96,69.98,93.49,70.00,5,0,30.3,1026.00,6,M,FEW,BKN,BKN,M,400.00,2200.00,4400.00,M,BR,KLGA 140751Z 07005KT 6SM BR FEW004 BKN022 BKN044 22/21 A3030 RMK AO2 RAE02 SLP260 P0000 T02220211
LGA,2013-07-14T07:58:00Z,71.6,69.8,94.06,80.00,3,0,30.3,M,5,M,SCT,BKN,OVC,M,200.00,800.00,4400.00,M,BR,KLGA 140758Z 08003KT 5SM BR SCT002 BKN008 OVC044 22/21 A3030 RMK AO2 CIG 004 R22 SW
LGA,2013-07-14T08:13:00Z,71.6,69.8,94.06,0.00,0,0,30.3,M,5,M,SCT,SCT,BKN,M,400.00,1900.00,4100.00,M,BR,KLGA 140813Z 00000KT 5SM BR SCT004 SCT019 BKN041 22/21 A3030 RMK AO2
LGA,2013-07-14T08:51:00Z,71.96,69.98,93.49,0.00,0,0,30.3,1025.90,8,M,FEW,SCT,SCT,M,2300.00,6000.00,20000.00,M,M,KLGA 140851Z 00000KT 8SM FEW023 SCT060 SCT200 22/21 A3030 RMK AO2 SLP259 60000 T02220211 50002
LGA,2013-07-14T09:51:00Z,73.94,69.98,87.45,0.00,0,0,30.31,1026.20,7,M,FEW,SCT,BKN,M,2000.00,6000.00,25000.00,M,M,KLGA 140951Z 00000KT 7SM FEW020 SCT060 BKN250 23/21 A3031 RMK AO2 SLP262 T02330211
LGA,2013-07-14T10:51:00Z,75.02,69.98,84.34,60.00,3,0,30.32,1026.70,8,M,FEW,SCT,SCT,BKN,1000.00,6000.00,9000.00,25000.00,M,KLGA 141051Z 06003KT 8SM FEW010 SCT060 SCT090 BKN250 24/21 A3032 RMK AO2 SLP267 T02390211
LGA,2013-07-14T11:51:00Z,78.08,71.96,81.5,230.00,6,0,30.33,1027.00,8,M,FEW,SCT,SCT,BKN,1200.00,2000.00,3800.00,18000.00,M,KLGA 141151Z 23006KT 8SM FEW012 SCT020 SCT038 BKN180 BKN250 26/22 A3033 RMK AO2 SLP270 60000 70001 T02560222 10261 20222 53011
LGA,2013-07-14T12:51:00Z,80.06,71.06,74.07,260.00,8,0,30.33,1026.90,8,M,FEW,SCT,SCT,BKN,1500.00,1900.00,2400.00,18000.00,M,KLGA 141251Z 26008KT 8SM FEW015 SCT019 SCT024 BKN180 BKN250 27/22 A3033 RMK AO2 SLP269 T02670217
LGA,2013-07-14T13:51:00Z,82.04,71.06,69.43,290.00,8,0,30.32,1026.60,10,M,FEW,SCT,BKN,BKN,2100.00,2600.00,20000.00,26000.00,M,KLGA 141351Z 29008KT 10SM FEW021 SCT026 BKN200 BKN260 28/22 A3032 RMK AO2 SLP266 T02780217
LGA,2013-07-14T14:51:00Z,84.02,69.98,62.77,270.00,8,0,30.31,1026.40,10,M,FEW,SCT,BKN,BKN,2000.00,2700.00,19000.00,26000.00,M,KLGA 141451Z 27008KT 10SM FEW020 SCT027 BKN190 BKN260 29/21 A3031 RMK AO2 SLP264 T02890211 58006
LGA,2013-07-14T15:51:00Z,86,69.08,57.12,310.00,10,0,30.31,1026.20,10,M,SCT,BKN,BKN,M,3500.00,17000.00,25000.00,M,M,KLGA 141551Z 31010KT 10SM SCT035 BKN170 BKN250 30/21 A3031 RMK AO2 SLP262 T03000206
LGA,2013-07-14T16:51:00Z,87.08,69.98,56.92,290.00,6,0,30.29,1025.70,10,M,SCT,BKN,BKN,M,3700.00,17000.00,25000.00,M,M,KLGA 141651Z 29006KT 10SM SCT037 BKN170 BKN250 31/21 A3029 RMK AO2 SLP257 T03060211
LGA,2013-07-14T17:51:00Z,89.06,68,49.95,310.00,9,0,30.28,1025.40,10,M,SCT,SCT,BKN,BKN,4500.00,4900.00,17000.00,25000.00,M,KLGA 141751Z 31009KT 10SM SCT045 SCT049 BKN170 BKN250 32/20 A3028 RMK AO2 SLP254 T03170200 10322 20256 58010
LGA,2013-07-14T18:51:00Z,91.94,66.92,43.96,260.00,4,0,30.27,1025.00,10,M,SCT,BKN,BKN,M,5500.00,18000.00,25000.00,M,M,KLGA 141851Z 26004KT 10SM SCT055 BKN180 BKN250 33/19 A3027 RMK AO2 SLP250 T03330194
LGA,2013-07-14T19:51:00Z,91.94,68,45.63,220.00,8,0,30.25,1024.40,10,M,SCT,SCT,BKN,M,5000.00,18000.00,25000.00,M,M,KLGA 141951Z 22008KT 10SM SCT050 SCT180 BKN250 33/20 A3025 RMK AO2 SLP244 T03330200
LGA,2013-07-14T20:51:00Z,93.02,64.04,38.45,250.00,12,0,30.24,1023.90,10,M,SCT,SCT,BKN,M,5000.00,18000.00,25000.00,M,M,KLGA 142051Z 25012KT 10SM SCT050 SCT180 BKN250 34/18 A3024 RMK AO2 SLP239 T03390178 58015
LGA,2013-07-14T21:51:00Z,91.94,64.04,39.77,270.00,13,0,30.23,1023.60,10,M,SCT,SCT,M,M,5000.00,25000.00,M,M,M,KLGA 142151Z 27013KT 10SM SCT050 SCT250 33/18 A3023 RMK AO2 SLP236 T03330178
LGA,2013-07-14T22:51:00Z,91.04,64.94,42.21,290.00,7,0,30.23,1023.60,10,M,SCT,SCT,M,M,5000.00,25000.00,M,M,M,KLGA 142251Z 29007KT 10SM SCT050 SCT250 33/18 A3023 RMK AO2 SLP236 T03280183
LGA,2013-07-14T23:51:00Z,89.96,66.02,45.34,260.00,12,0,30.22,1023.40,10,16.00,FEW,SCT,M,M,5000.00,25000.00,M,M,M,KLGA 142351Z 26012G16KT 10SM FEW050 SCT250 32/19 A3022 RMK AO2 SLP234 T03220189 10344 20317 56004
LGA,2013-07-15T00:51:00Z,89.06,64.94,44.92,250.00,6,0,30.23,1023.70,10,M,FEW,SCT,M,M,5000.00,25000.00,M,M,M,KLGA 150051Z 25006KT 10SM FEW050 SCT250 32/18 A3023 RMK AO2 SLP237 T03170183
LGA,2013-07-15T01:51:00Z,87.98,64.94,46.48,230.00,8,0,30.24,1024.10,10,M,FEW,SCT,M,M,5000.00,25000.00,M,M,M,KLGA 150151Z 23008KT 10SM FEW050 SCT250 31/18 A3024 RMK AO2 SLP241 T03110183
LGA,2013-07-15T02:51:00Z,87.08,66.92,51.24,230.00,6,0,30.24,1024.10,10,M,SCT,SCT,M,M,5500.00,25000.00,M,M,M,KLGA 150251Z 23006KT 10SM SCT055 SCT250 31/19 A3024 RMK AO2 SLP241 T03060194 51007
LGA,2013-07-15T03:51:00Z,84.92,69.08,59.14,240.00,6,0,30.23,1023.70,10,M,FEW,SCT,M,M,5500.00,25000.00,M,M,M,KLGA 150351Z 24006KT 10SM FEW055 SCT250 29/21 A3023 RMK AO2 SLP237 T02940206
LGA,2013-07-15T04:51:00Z,84.92,66.92,54.9,250.00,10,0,30.23,1023.70,10,16.00,FEW,M,M,M,5500.00,M,M,M,M,KLGA 150451Z 25010G16KT 10SM FEW055 29/19 A3023 RMK AO2 SLP237 T02940194 403440222
LGA,2013-07-15T05:51:00Z,84.02,68,58.65,250.00,10,0,30.22,1023.40,10,M,FEW,M,M,M,5000.00,M,M,M,M,KLGA 150551Z 25010KT 10SM FEW050 29/20 A3022 RMK AO2 SLP234 T02890200 10322 20289 56007
LGA,2013-07-15T06:51:00Z,82.94,69.08,63.03,260.00,9,0,30.23,1023.50,10,M,CLR,M,M,M,M,M,M,M,M,KLGA 150651Z 26009KT 10SM CLR 28/21 A3023 RMK AO2 SLP235 T02830206
LGA,2013-07-15T07:51:00Z,82.04,69.08,64.9,270.00,11,0,30.22,1023.40,10,16.00,FEW,M,M,M,5000.00,M,M,M,M,KLGA 150751Z 27011G16KT 10SM FEW050 28/21 A3022 RMK AO2 SLP234 T02780206
LGA,2013-07-15T08:51:00Z,80.96,69.08,67.22,290.00,8,0,30.22,1023.40,10,M,FEW,SCT,M,M,5000.00,25000.00,M,M,M,KLGA 150851Z 29008KT 10SM FEW050 SCT250 27/21 A3022 RMK AO2 SLP234 T02720206 58001
LGA,2013-07-15T09:51:00Z,80.96,69.98,69.32,260.00,5,0,30.23,1023.60,10,M,FEW,SCT,SCT,M,5000.00,9500.00,25000.00,M,M,KLGA 150951Z 26005KT 10SM FEW050 SCT095 SCT250 27/21 A3023 RMK AO2 SLP236 T02720211
LGA,2013-07-15T10:51:00Z,80.06,69.08,69.23,280.00,3,0,30.24,1023.90,10,M,SCT,M,M,M,9500.00,M,M,M,M,KLGA 151051Z 28003KT 10SM SCT095 27/21 A3024 RMK AO2 SLP239 T02670206
LGA,2013-07-15T11:51:00Z,80.96,69.08,67.22,300.00,5,0,30.24,1023.90,10,M,FEW,M,M,M,9500.00,M,M,M,M,KLGA 151151Z 30005KT 10SM FEW095 27/21 A3024 RMK AO2 SLP239 T02720206 10289 20267 51005
LGA,2013-07-15T12:51:00Z,84.02,69.08,60.87,310.00,8,0,30.23,1023.70,10,M,FEW,M,M,M,10000.00,M,M,M,M,KLGA 151251Z 31008KT 10SM FEW100 29/21 A3023 RMK AO2 SLP237 T02890206
LGA,2013-07-15T13:51:00Z,86,68,55.04,320.00,8,0,30.22,1023.30,10,M,FEW,M,M,M,9500.00,M,M,M,M,KLGA 151351Z 32008KT 10SM FEW095 30/20 A3022 RMK AO2 SLP233 T03000200
LGA,2013-07-15T14:51:00Z,87.98,69.08,53.64,320.00,8,0,30.21,1022.80,10,M,FEW,M,M,M,9500.00,M,M,M,M,KLGA 151451Z 32008KT 10SM FEW095 31/21 A3021 RMK AO2 SLP228 T03110206 58010
LGA,2013-07-15T15:51:00Z,89.96,69.08,50.39,320.00,6,0,30.2,1022.50,10,M,FEW,SCT,M,M,5500.00,7000.00,M,M,M,KLGA 151551Z 32006KT 10SM FEW055 SCT070 32/21 A3020 RMK AO2 SLP225 T03220206
LGA,2013-07-15T16:51:00Z,93.02,69.08,45.79,10.00,4,0,30.18,1022.10,10,M,SCT,SCT,M,M,4900.00,25000.00,M,M,M,KLGA 151651Z 01004KT 10SM SCT049TCU SCT250 34/21 A3018 RMK AO2 SLP221 TCU SW-W T03390206
LGA,2013-07-15T17:51:00Z,91.94,68,45.63,50.00,8,0,30.17,1021.60,10,M,SCT,BKN,BKN,M,5500.00,8000.00,25000.00,M,M,KLGA 151751Z 05008KT 10SM SCT055TCU BKN080 BKN250 33/20 A3017 RMK AO2 SLP216 TCU OHD AND S-W T03330200 10339 20272 58013
LGA,2013-07-15T18:51:00Z,93.02,69.08,45.79,340.00,9,0,30.16,1021.30,10,M,FEW,BKN,BKN,BKN,5000.00,7000.00,9000.00,25000.00,M,KLGA 151851Z 34009KT 10SM FEW050 BKN070 BKN090 BKN250 34/21 A3016 RMK AO2 SLP213 TCU DSNT E T03390206
LGA,2013-07-15T19:51:00Z,93.92,66.92,41.34,330.00,7,0,30.14,1020.70,10,M,FEW,SCT,BKN,BKN,5000.00,7000.00,9000.00,25000.00,M,KLGA 151951Z 33007KT 10SM FEW050TCU SCT070 BKN090 BKN250 34/19 A3014 RMK AO2 SLP207 TCU N T03440194
LGA,2013-07-15T20:51:00Z,93.02,66.92,42.51,330.00,15,0,30.13,1020.20,10,M,FEW,SCT,BKN,BKN,5000.00,7000.00,9500.00,25000.00,M,KLGA 152051Z 33015KT 10SM FEW050 SCT070 BKN095 BKN250 34/19 A3013 RMK AO2 SLP202 T03390194 58014
LGA,2013-07-15T21:51:00Z,93.92,66.02,40.07,340.00,8,0,30.12,1020.00,10,M,FEW,SCT,SCT,BKN,5500.00,7000.00,9500.00,25000.00,M,KLGA 152151Z 34008KT 10SM FEW055TCU SCT070 SCT095 BKN250 34/19 A3012 RMK AO2 SLP200 TCU NE T03440189
LGA,2013-07-15T22:51:00Z,91.04,69.98,50.23,60.00,8,0,30.12,1019.90,10,M,FEW,SCT,BKN,M,6500.00,9000.00,25000.00,M,M,KLGA 152251Z 06008KT 10SM FEW065 SCT090 BKN250 33/21 A3012 RMK AO2 SLP199 CB DSNT S T03280211
LGA,2013-07-15T23:51:00Z,89.06,69.98,53.46,70.00,8,0,30.12,1020.10,10,M,FEW,BKN,BKN,M,6500.00,20000.00,25000.00,M,M,KLGA 152351Z 07008KT 10SM FEW065 BKN200 BKN250 32/21 A3012 RMK AO2 SLP201 TCU DSNT S T03170211 10344 20311 55001
LGA,2013-07-16T00:51:00Z,89.06,69.98,53.46,60.00,5,0,30.13,1020.20,10,M,FEW,SCT,BKN,M,6500.00,13000.00,25000.00,M,M,KLGA 160051Z 06005KT 10SM FEW065 SCT130 BKN250 32/21 A3013 RMK AO2 SLP202 T03170211
LGA,2013-07-16T01:51:00Z,87.98,69.98,55.31,60.00,5,0,30.14,1020.70,10,M,FEW,BKN,M,M,5500.00,25000.00,M,M,M,KLGA 160151Z 06005KT 10SM FEW055 BKN250 31/21 A3014 RMK AO2 SLP207 T03110211
LGA,2013-07-16T02:51:00Z,86,69.98,58.91,70.00,4,0,30.15,1020.90,10,M,BKN,M,M,M,25000.00,M,M,M,M,KLGA 160251Z 07004KT 10SM BKN250 30/21 A3015 RMK AO2 SLP209 T03000211 53008
LGA,2013-07-16T03:51:00Z,84.02,69.98,62.77,60.00,3,0,30.15,1021.00,10,M,FEW,BKN,M,M,5500.00,25000.00,M,M,M,KLGA 160351Z 06003KT 10SM FEW055 BKN250 29/21 A3015 RMK AO2 SLP210 T02890211
LGA,2013-07-16T04:51:00Z,82.04,69.98,66.93,0.00,0,0,30.15,1021.00,10,M,FEW,SCT,BKN,M,5500.00,14000.00,25000.00,M,M,KLGA 160451Z 00000KT 10SM FEW055 SCT140 BKN250 28/21 A3015 RMK AO2 SLP210 T02780211 403440267
LGA,2013-07-16T05:51:00Z,82.04,69.08,64.9,320.00,4,0,30.15,1020.80,10,M,FEW,BKN,M,M,5000.00,25000.00,M,M,M,KLGA 160551Z 32004KT 10SM FEW050 BKN250 28/21 A3015 RMK AO2 SLP208 T02780206 10317 20267 58001
LGA,2013-07-16T06:51:00Z,80.96,71.06,71.92,40.00,3,0,30.15,1020.90,10,M,FEW,BKN,M,M,5000.00,25000.00,M,M,M,KLGA 160651Z 04003KT 10SM FEW050 BKN250 27/22 A3015 RMK AO2 SLP209 T02720217
LGA,2013-07-16T07:51:00Z,80.96,69.08,67.22,350.00,5,0,30.15,1020.90,10,M,BKN,M,M,M,25000.00,M,M,M,M,KLGA 160751Z 35005KT 10SM BKN250 27/21 A3015 RMK AO2 SLP209 T02720206
LGA,2013-07-16T08:51:00Z,80.96,66.92,62.4,320.00,6,0,30.15,1021.00,10,M,SCT,M,M,M,25000.00,M,M,M,M,KLGA 160851Z 32006KT 10SM SCT250 27/19 A3015 RMK AO2 SLP210 T02720194 53002
LGA,2013-07-16T09:51:00Z,80.06,66.02,62.29,340.00,5,0,30.17,1021.50,10,M,FEW,SCT,M,M,15000.00,25000.00,M,M,M,KLGA 160951Z 34005KT 10SM FEW150 SCT250 27/19 A3017 RMK AO2 SLP215 T02670189
LGA,2013-07-16T10:51:00Z,80.06,66.02,62.29,330.00,8,0,30.18,1021.90,10,M,FEW,M,M,M,10000.00,M,M,M,M,KLGA 161051Z 33008KT 10SM FEW100 27/19 A3018 RMK AO2 SLP219 T02670189
LGA,2013-07-16T11:51:00Z,82.04,64.94,56.24,350.00,11,0,30.19,1022.30,10,M,CLR,M,M,M,M,M,M,M,M,KLGA 161151Z AUTO 35011KT 10SM CLR 28/18 A3019 RMK AO2 SLP223 T02780183 10283 20261 51013 TSNO
LGA,2013-07-16T12:51:00Z,84.02,64.94,52.75,340.00,8,0,30.19,1022.40,10,M,FEW,M,M,M,25000.00,M,M,M,M,KLGA 161251Z 34008KT 10SM FEW250 29/18 A3019 RMK AO2 SLP224 T02890183
LGA,2013-07-16T13:51:00Z,84.92,64.04,49.66,360.00,14,0,30.19,1022.20,10,18.00,FEW,M,M,M,25000.00,M,M,M,M,KLGA 161351Z 36014G18KT 10SM FEW250 29/18 A3019 RMK AO2 SLP222 T02940178
LGA,2013-07-16T14:51:00Z,87.98,64.04,45.04,360.00,10,0,30.18,1022.00,10,M,FEW,M,M,M,6000.00,M,M,M,M,KLGA 161451Z 36010KT 10SM FEW060 31/18 A3018 RMK AO2 SLP220 T03110178 58002
LGA,2013-07-16T15:51:00Z,89.06,62.96,41.91,20.00,10,0,30.17,1021.70,10,M,FEW,M,M,M,6000.00,M,M,M,M,KLGA 161551Z 02010KT 10SM FEW060 32/17 A3017 RMK AO2 SLP217 T03170172
LGA,2013-07-16T16:51:00Z,91.04,59,34.22,360.00,11,0,30.16,1021.40,10,M,FEW,M,M,M,6000.00,M,M,M,M,KLGA 161651Z 36011KT 10SM FEW060 33/15 A3016 RMK AO2 SLP214 T03280150
LGA,2013-07-16T17:51:00Z,91.94,60.08,34.58,330.00,13,0,30.15,1021.10,10,16.00,FEW,M,M,M,6000.00,M,M,M,M,KLGA 161751Z 33013G16KT 10SM FEW060 33/16 A3015 RMK AO2 SLP211 T03330156 10333 20278 57010
LGA,2013-07-16T18:51:00Z,93.02,55.94,28.82,330.00,12,0,30.15,1020.90,10,18.00,SCT,M,M,M,6500.00,M,M,M,M,KLGA 161851Z 33012G18KT 10SM SCT065 34/13 A3015 RMK AO2 SLP209 T03390133
LGA,2013-07-16T19:51:00Z,93.02,60.98,34.52,30.00,10,0,30.14,1020.50,10,17.00,SCT,M,M,M,8000.00,M,M,M,M,KLGA 161951Z 03010G17KT 10SM SCT080 34/16 A3014 RMK AO2 SLP205 T03390161
LGA,2013-07-16T20:51:00Z,93.02,59,32.17,350.00,13,0,30.13,1020.20,10,19.00,FEW,M,M,M,7500.00,M,M,M,M,KLGA 162051Z 35013G19KT 10SM FEW075 34/15 A3013 RMK AO2 SLP202 T03390150 58008
LGA,2013-07-16T21:51:00Z,91.94,59,33.27,330.00,12,0,30.12,1019.80,10,M,FEW,M,M,M,7500.00,M,M,M,M,KLGA 162151Z 33012KT 10SM FEW075 33/15 A3012 RMK AO2 SLP198 T03330150
LGA,2013-07-16T22:51:00Z,91.04,62.06,38.15,360.00,10,0,30.12,1019.90,10,M,FEW,M,M,M,7000.00,M,M,M,M,KLGA 162251Z 36010KT 10SM FEW070 33/17 A3012 RMK AO2 SLP199 T03280167
LGA,2013-07-16T23:51:00Z,89.06,60.98,39.08,360.00,10,0,30.13,1020.30,10,M,FEW,M,M,M,7000.00,M,M,M,M,KLGA 162351Z 36010KT 10SM FEW070 32/16 A3013 RMK AO2 SLP203 T03170161 10339 20317 53001
LGA,2013-07-17T00:51:00Z,87.08,62.06,43.23,360.00,7,0,30.14,1020.60,10,M,FEW,M,M,M,7000.00,M,M,M,M,KLGA 170051Z 36007KT 10SM FEW070 31/17 A3014 RMK AO2 SLP206 T03060167
LGA,2013-07-17T01:51:00Z,87.08,62.06,43.23,10.00,3,0,30.15,1021.00,10,M,FEW,M,M,M,7000.00,M,M,M,M,KLGA 170151Z 01003KT 10SM FEW070 31/17 A3015 RMK AO2 SLP210 T03060167
LGA,2013-07-17T02:51:00Z,86,62.96,46.19,20.00,4,0,30.16,1021.20,10,M,BKN,M,M,M,7500.00,M,M,M,M,KLGA 170251Z 02004KT 10SM BKN075 30/17 A3016 RMK AO2 SLP212 T03000172 51009
LGA,2013-07-17T03:51:00Z,84.92,64.04,49.66,0.00,0,0,30.15,1021.10,10,M,FEW,SCT,M,M,7500.00,10000.00,M,M,M,KLGA 170351Z 00000KT 10SM FEW075 SCT100 29/18 A3015 RMK AO2 SLP211 T02940178
LGA,2013-07-17T04:51:00Z,84.02,64.04,51.12,0.00,0,0,30.15,1021.00,10,M,FEW,SCT,M,M,10000.00,25000.00,M,M,M,KLGA 170451Z 00000KT 10SM FEW100 SCT250 29/18 A3015 RMK AO2 SLP210 T02890178 403390261
LGA,2013-07-17T05:51:00Z,82.94,64.04,52.93,0.00,0,0,30.15,1020.80,10,M,BKN,M,M,M,25000.00,M,M,M,M,KLGA 170551Z 00000KT 10SM BKN250 28/18 A3015 RMK AO2 SLP208 T02830178 10317 20283 58005
LGA,2013-07-17T06:51:00Z,82.94,64.04,52.93,0.00,0,0,30.14,1020.70,10,M,SCT,SCT,M,M,7000.00,25000.00,M,M,M,KLGA 170651Z 00000KT 10SM SCT070 SCT250 28/18 A3014 RMK AO2 SLP207 T02830178
LGA,2013-07-17T07:51:00Z,80.96,66.02,60.49,60.00,3,0,30.14,1020.70,10,M,BKN,M,M,M,7000.00,M,M,M,M,KLGA 170751Z 06003KT 10SM BKN070 27/19 A3014 RMK AO2 SLP207 T02720189
LGA,2013-07-17T08:51:00Z,80.06,66.92,64.26,0.00,0,0,30.15,1020.90,10,M,SCT,SCT,M,M,7000.00,25000.00,M,M,M,KLGA 170851Z 00000KT 10SM SCT070 SCT250 27/19 A3015 RMK AO2 SLP209 T02670194 53002
LGA,2013-07-17T09:51:00Z,78.98,66.92,66.58,0.00,0,0,30.16,1021.40,10,M,SCT,SCT,M,M,7000.00,25000.00,M,M,M,KLGA 170951Z 00000KT 10SM SCT070 SCT250 26/19 A3016 RMK AO2 SLP214 T02610194
LGA,2013-07-17T10:51:00Z,80.96,68,64.77,20.00,4,0,30.17,1021.80,10,M,FEW,SCT,M,M,7000.00,25000.00,M,M,M,KLGA 171051Z 02004KT 10SM FEW070 SCT250 27/20 A3017 RMK AO2 SLP218 T02720200
LGA,2013-07-17T11:51:00Z,84.02,68,58.65,0.00,0,0,30.18,1021.90,10,M,FEW,M,M,M,25000.00,M,M,M,M,KLGA 171151Z 00000KT 10SM FEW250 29/20 A3018 RMK AO2 SLP219 T02890200 10289 20256 51010
LGA,2013-07-17T12:51:00Z,86,68,55.04,40.00,3,0,30.18,1022.10,10,M,CLR,M,M,M,M,M,M,M,M,KLGA 171251Z 04003KT 10SM CLR 30/20 A3018 RMK AO2 SLP221 T03000200
LGA,2013-07-17T13:51:00Z,87.98,68,51.68,60.00,5,0,30.18,1022.00,10,M,CLR,M,M,M,M,M,M,M,M,KLGA 171351Z 06005KT 10SM CLR 31/20 A3018 RMK AO2 SLP220 T03110200
LGA,2013-07-17T14:51:00Z,91.04,66.02,43.83,50.00,3,0,30.17,1021.70,10,M,FEW,M,M,M,6000.00,M,M,M,M,KLGA 171451Z 05003KT 10SM FEW060 33/19 A3017 RMK AO2 SLP217 T03280189 58002
LGA,2013-07-17T15:51:00Z,91.94,66.02,42.61,50.00,5,0,30.16,1021.40,10,M,FEW,M,M,M,6000.00,M,M,M,M,KLGA 171551Z 05005KT 10SM FEW060 33/19 A3016 RMK AO2 SLP214 T03330189 $
LGA,2013-07-17T16:51:00Z,93.92,66.02,40.07,60.00,6,0,30.15,1020.80,10,M,FEW,M,M,M,6500.00,M,M,M,M,KLGA 171651Z 06006KT 10SM FEW065 34/19 A3015 RMK AO2 SLP208 T03440189 $
LGA,2013-07-17T17:51:00Z,95,64.04,36.17,20.00,6,0,30.13,1020.20,10,14.00,FEW,M,M,M,7500.00,M,M,M,M,KLGA 171751Z 02006G14KT 10SM FEW075 35/18 A3013 RMK AO2 SLP202 T03500178 10361 20289 58015 $
LGA,2013-07-17T18:51:00Z,95,60.98,32.47,60.00,3,0,30.11,1019.60,10,M,FEW,M,M,M,8000.00,M,M,M,M,KLGA 171851Z 06003KT 10SM FEW080 35/16 A3011 RMK AO2 SLP196 T03500161 $
LGA,2013-07-17T19:51:00Z,93.92,64.94,38.59,M,5,0,30.09,1018.90,10,M,SCT,SCT,M,M,7000.00,9000.00,M,M,M,KLGA 171951Z VRB05KT 10SM SCT070 SCT090 34/18 A3009 RMK AO2 SLP189 T03440183 $
LGA,2013-07-17T20:51:00Z,93.02,66.02,41.2,160.00,7,0,30.08,1018.50,10,M,BKN,M,M,M,7500.00,M,M,M,M,KLGA 172051Z 16007KT 10SM BKN075 34/19 A3008 RMK AO2 SLP185 T03390189 56018 $
LGA,2013-07-17T21:51:00Z,91.04,64.04,40.9,170.00,13,0,30.07,1018.20,10,16.00,FEW,SCT,M,M,6500.00,8500.00,M,M,M,KLGA 172151Z 17013G16KT 10SM FEW065 SCT085 33/18 A3007 RMK AO2 SLP182 T03280178
LGA,2013-07-17T22:51:00Z,89.06,64.94,44.92,160.00,10,0,30.07,1018.30,10,M,SCT,M,M,M,7500.00,M,M,M,M,KLGA 172251Z 16010KT 10SM SCT075 32/18 A3007 RMK AO2 SLP183 T03170183
LGA,2013-07-17T23:51:00Z,87.08,66.02,49.66,180.00,10,0,30.07,1018.10,10,M,SCT,M,M,M,7000.00,M,M,M,M,KLGA 172351Z 18010KT 10SM SCT070 31/19 A3007 RMK AO2 SLP181 T03060189 10361 20306 56003
LGA,2013-07-18T00:51:00Z,87.08,66.02,49.66,170.00,10,0,30.06,1017.90,10,M,FEW,SCT,M,M,7000.00,25000.00,M,M,M,KLGA 180051Z 17010KT 10SM FEW070 SCT250 31/19 A3006 RMK AO2 SLP179 T03060189
LGA,2013-07-18T01:51:00Z,86,69.08,57.12,180.00,5,0,30.07,1018.30,10,M,FEW,SCT,M,M,7000.00,25000.00,M,M,M,KLGA 180151Z 18005KT 10SM FEW070 SCT250 30/21 A3007 RMK AO2 SLP183 T03000206
LGA,2013-07-18T02:51:00Z,87.08,68,53.18,220.00,8,0,30.07,1018.20,10,M,FEW,SCT,M,M,7500.00,25000.00,M,M,M,KLGA 180251Z 22008KT 10SM FEW075 SCT250 31/20 A3007 RMK AO2 SLP182 T03060200 53001
LGA,2013-07-18T03:51:00Z,86,68,55.04,220.00,7,0,30.06,1017.80,10,M,FEW,M,M,M,25000.00,M,M,M,M,KLGA 180351Z 22007KT 10SM FEW250 30/20 A3006 RMK AO2 SLP178 T03000200
LGA,2013-07-18T04:51:00Z,84.92,68,56.98,220.00,8,0,30.06,1017.80,10,M,CLR,M,M,M,M,M,M,M,M,KLGA 180451Z 22008KT 10SM CLR 29/20 A3006 RMK AO2 SLP178 T02940200 403610256
LGA,2013-07-18T05:51:00Z,84.92,68,56.98,220.00,6,0,30.05,1017.50,10,M,CLR,M,M,M,M,M,M,M,M,KLGA 180551Z 22006KT 10SM CLR 29/20 A3005 RMK AO2 SLP175 T02940200 10317 20294 56008
LGA,2013-07-18T06:51:00Z,84.02,69.08,60.87,0.00,0,0,30.03,1016.70,10,M,CLR,M,M,M,M,M,M,M,M,KLGA 180651Z 00000KT 10SM CLR 29/21 A3003 RMK AO2 SLP167 T02890206
LGA,2013-07-18T07:51:00Z,84.02,69.08,60.87,0.00,0,0,30.02,1016.50,10,M,FEW,M,M,M,10000.00,M,M,M,M,KLGA 180751Z 00000KT 10SM FEW100 29/21 A3002 RMK AO2 SLP165 T02890206
LGA,2013-07-18T08:51:00Z,84.92,68,56.98,0.00,0,0,30.02,1016.50,10,M,CLR,M,M,M,M,M,M,M,M,KLGA 180851Z 00000KT 10SM CLR 29/20 A3002 RMK AO2 SLP165 T02940200 56010
LGA,2013-07-18T09:51:00Z,84.92,68,56.98,270.00,5,0,30.02,1016.60,10,M,SCT,SCT,M,M,6500.00,10000.00,M,M,M,KLGA 180951Z 27005KT 10SM SCT065 SCT100 29/20 A3002 RMK AO2 SLP166 T02940200
LGA,2013-07-18T10:51:00Z,82.94,69.08,63.03,310.00,8,0,30.03,1016.90,10,M,FEW,M,M,M,25000.00,M,M,M,M,KLGA 181051Z 31008KT 10SM FEW250 28/21 A3003 RMK AO2 SLP169 T02830206
LGA,2013-07-18T11:51:00Z,84.02,69.98,62.77,300.00,8,0,30.04,1017.20,10,M,FEW,M,M,M,25000.00,M,M,M,M,KLGA 181151Z 30008KT 10SM FEW250 29/21 A3004 RMK AO2 SLP172 T02890211 10300 20283 53007
LGA,2013-07-18T12:51:00Z,86,69.98,58.91,330.00,6,0,30.04,1017.40,10,M,FEW,M,M,M,25000.00,M,M,M,M,KLGA 181251Z 33006KT 10SM FEW250 30/21 A3004 RMK AO2 SLP174 T03000211
LGA,2013-07-18T13:51:00Z,89.06,71.06,55.46,330.00,5,0,30.04,1017.20,10,M,FEW,M,M,M,25000.00,M,M,M,M,KLGA 181351Z 33005KT 10SM FEW250 32/22 A3004 RMK AO2 SLP172 T03170217
LGA,2013-07-18T14:51:00Z,91.94,69.08,47.36,330.00,9,0,30.03,1016.90,10,14.00,FEW,M,M,M,6500.00,M,M,M,M,KLGA 181451Z 33009G14KT 10SM FEW065 33/21 A3003 RMK AO2 SLP169 T03330206 58002
LGA,2013-07-18T15:51:00Z,93.92,68,42.91,330.00,8,0,30.03,1016.80,10,M,FEW,M,M,M,6500.00,M,M,M,M,KLGA 181551Z 33008KT 10SM FEW065 34/20 A3003 RMK AO2 SLP168 T03440200
LGA,2013-07-18T16:51:00Z,95,64.94,37.33,300.00,5,0,30.02,1016.40,10,M,FEW,M,M,M,6500.00,M,M,M,M,KLGA 181651Z 30005KT 10SM FEW065 35/18 A3002 RMK AO2 SLP164 T03500183
LGA,2013-07-18T17:51:00Z,96.98,64.94,35.12,350.00,5,0,30,1015.90,10,M,FEW,M,M,M,7000.00,M,M,M,M,KLGA 181751Z 35005KT 10SM FEW070 36/18 A3000 RMK AO2 SLP159 T03610183 10361 20289 58010
LGA,2013-07-18T18:51:00Z,96.08,66.02,37.49,310.00,6,0,29.98,1015.30,10,M,SCT,SCT,M,M,6500.00,25000.00,M,M,M,KLGA 181851Z 31006KT 10SM SCT065 SCT250 36/19 A2998 RMK AO2 SLP153 T03560189
LGA,2013-07-18T19:51:00Z,98.96,64.04,32.04,250.00,11,0,29.97,1014.90,10,16.00,SCT,SCT,M,M,7000.00,25000.00,M,M,M,KLGA 181951Z 25011G16KT 10SM SCT070 SCT250 37/18 A2997 RMK AO2 SLP149 T03720178
LGA,2013-07-18T20:51:00Z,96.08,64.94,36.11,310.00,10,0,29.95,1014.30,10,M,SCT,SCT,M,M,7000.00,25000.00,M,M,M,KLGA 182051Z 31010KT 10SM SCT070 SCT250 36/18 A2995 RMK AO2 SLP143 T03560183 56017
LGA,2013-07-18T21:51:00Z,96.08,64.04,34.99,300.00,5,0,29.94,1014.00,10,M,SCT,SCT,M,M,7000.00,25000.00,M,M,M,KLGA 182151Z 30005KT 10SM SCT070 SCT250 36/18 A2994 RMK AO2 SLP140 T03560178
LGA,2013-07-18T22:51:00Z,96.08,64.94,36.11,290.00,7,0,29.95,1014.30,10,M,SCT,SCT,M,M,7000.00,25000.00,M,M,M,KLGA 182251Z 29007KT 260V330 10SM SCT070 SCT250 36/18 A2995 RMK AO2 SLP143 T03560183
LGA,2013-07-18T23:51:00Z,93.02,66.02,41.2,330.00,3,0,29.96,1014.50,10,M,FEW,M,M,M,7000.00,M,M,M,M,KLGA 182351Z 33003KT 10SM FEW070 34/19 A2996 RMK AO2 SLP145 T03390189 10378 20333 53003
LGA,2013-07-19T00:51:00Z,95,66.02,38.75,250.00,8,0,29.96,1014.70,10,M,FEW,SCT,M,M,7000.00,25000.00,M,M,M,KLGA 190051Z 25008KT 10SM FEW070 SCT250 35/19 A2996 RMK AO2 SLP147 T03500189
LGA,2013-07-19T01:51:00Z,91.94,68,45.63,280.00,3,0,29.97,1014.70,10,M,FEW,SCT,M,M,7000.00,25000.00,M,M,M,KLGA 190151Z 28003KT 10SM FEW070 SCT250 33/20 A2997 RMK AO2 SLP147 T03330200
LGA,2013-07-19T02:51:00Z,93.02,69.08,45.79,250.00,5,0,29.96,1014.50,10,M,FEW,BKN,M,M,7000.00,25000.00,M,M,M,KLGA 190251Z 25005KT 10SM FEW070 BKN250 34/21 A2996 RMK AO2 SLP145 T03390206 50000
LGA,2013-07-19T03:51:00Z,93.02,69.08,45.79,210.00,9,0,29.94,1013.90,10,M,SCT,M,M,M,25000.00,M,M,M,M,KLGA 190351Z 21009KT 10SM SCT250 34/21 A2994 RMK AO2 SLP139 T03390206
LGA,2013-07-19T04:51:00Z,89.96,71.06,53.91,230.00,9,0,29.96,1014.50,10,M,SCT,M,M,M,25000.00,M,M,M,M,KLGA 190451Z 23009KT 10SM SCT250 32/22 A2996 RMK AO2 SLP145 T03220217 403780283
LGA,2013-07-19T05:51:00Z,87.98,71.96,59.16,210.00,7,0,29.95,1014.30,10,M,SCT,M,M,M,25000.00,M,M,M,M,KLGA 190551Z 21007KT 10SM SCT250 31/22 A2995 RMK AO2 SLP143 T03110222 10350 20311 56002
LGA,2013-07-19T06:51:00Z,87.08,73.04,63.14,230.00,7,0,29.95,1014.30,10,M,SCT,M,M,M,25000.00,M,M,M,M,KLGA 190651Z 23007KT 10SM SCT250 31/23 A2995 RMK AO2 SLP143 T03060228
LGA,2013-07-19T07:51:00Z,87.08,73.04,63.14,220.00,6,0,29.95,1014.10,10,M,FEW,SCT,M,M,20000.00,25000.00,M,M,M,KLGA 190751Z 22006KT 10SM FEW200 SCT250 31/23 A2995 RMK AO2 SLP141 T03060228
LGA,2013-07-19T08:51:00Z,87.08,71.06,59.05,240.00,5,0,29.94,1013.90,10,M,FEW,SCT,M,M,20000.00,25000.00,M,M,M,KLGA 190851Z 24005KT 10SM FEW200 SCT250 31/22 A2994 RMK AO2 SLP139 T03060217 58004
LGA,2013-07-19T09:51:00Z,86,71.06,61.12,210.00,8,0,29.94,1013.70,10,M,FEW,BKN,M,M,21000.00,26000.00,M,M,M,KLGA 190951Z 21008KT 10SM FEW210 BKN260 30/22 A2994 RMK AO2 SLP137 T03000217
LGA,2013-07-19T10:51:00Z,87.08,71.06,59.05,210.00,7,0,29.93,1013.60,10,M,SCT,M,M,M,25000.00,M,M,M,M,KLGA 191051Z 21007KT 10SM SCT250 31/22 A2993 RMK AO2 SLP136 T03060217
LGA,2013-07-19T11:51:00Z,87.08,73.04,63.14,210.00,7,0,29.95,1014.00,9,M,FEW,M,M,M,25000.00,M,M,M,M,KLGA 191151Z 21007KT 9SM FEW250 31/23 A2995 RMK AO2 SLP140 T03060228 10311 20300 53001
LGA,2013-07-19T12:51:00Z,89.96,71.96,55.58,220.00,7,0,29.94,1013.90,9,M,FEW,M,M,M,25000.00,M,M,M,M,KLGA 191251Z 22007KT 9SM FEW250 32/22 A2994 RMK AO2 SLP139 T03220222
LGA,2013-07-19T13:51:00Z,93.02,73.04,52.39,220.00,8,0,29.93,1013.70,9,M,CLR,M,M,M,M,M,M,M,M,KLGA 191351Z 22008KT 9SM CLR 34/23 A2993 RMK AO2 SLP137 T03390228
LGA,2013-07-19T14:51:00Z,95,73.04,49.27,230.00,9,0,29.92,1013.30,9,M,FEW,M,M,M,4400.00,M,M,M,M,KLGA 191451Z 23009KT 9SM FEW044 35/23 A2992 RMK AO2 SLP133 T03500228 58007
LGA,2013-07-19T15:51:00Z,95,71.96,47.51,220.00,9,0,29.91,1012.80,9,M,SCT,M,M,M,4500.00,M,M,M,M,KLGA 191551Z 22009KT 9SM SCT045TCU 35/22 A2991 RMK AO2 SLP128 TCU OHD AND E-S T03500222
LGA,2013-07-19T16:51:00Z,96.08,69.98,42.96,230.00,15,0,29.89,1012.10,10,22.00,BKN,M,M,M,5000.00,M,M,M,M,KLGA 191651Z 23015G22KT 10SM BKN050TCU 36/21 A2989 RMK AO2 SLP121 TCU OHD AND ALQDS T03560211
LGA,2013-07-19T17:51:00Z,98.06,69.08,39.22,240.00,14,0,29.87,1011.30,10,25.00,SCT,M,M,M,5500.00,M,M,M,M,KLGA 191751Z 24014G25KT 10SM SCT055TCU 37/21 A2987 RMK AO2 SLP113 TCU E-S-SW T03670206 10367 20306 58020
LGA,2013-07-19T18:51:00Z,98.06,69.98,40.44,220.00,12,0,29.85,1010.60,10,19.00,SCT,M,M,M,6000.00,M,M,M,M,KLGA 191851Z 22012G19KT 10SM SCT060 37/21 A2985 RMK AO2 SLP106 T03670211
LGA,2013-07-19T19:51:00Z,98.96,69.08,38.16,240.00,14,0,29.82,1009.90,10,22.00,SCT,M,M,M,6500.00,M,M,M,M,KLGA 191951Z 24014G22KT 10SM SCT065 37/21 A2982 RMK AO2 SLP099 T03720206
LGA,2013-07-19T20:51:00Z,98.96,69.08,38.16,230.00,13,0,29.8,1009.10,10,20.00,SCT,M,M,M,7500.00,M,M,M,M,KLGA 192051Z 23013G20KT 10SM SCT075 37/21 A2980 RMK AO2 PK WND 21026/2005 SLP091 T03720206 58022
LGA,2013-07-19T21:51:00Z,96.98,69.98,41.8,230.00,16,0,29.78,1008.50,10,23.00,SCT,SCT,M,M,7500.00,25000.00,M,M,M,KLGA 192151Z 23016G23KT 10SM SCT075 SCT250 36/21 A2978 RMK AO2 SLP085 T03610211
LGA,2013-07-19T22:51:00Z,95,71.96,47.51,230.00,13,0,29.79,1008.70,10,22.00,FEW,SCT,M,M,5500.00,25000.00,M,M,M,KLGA 192251Z 23013G22KT 10SM FEW055 SCT250 35/22 A2979 RMK AO2 PK WND 21027/2202 SLP087 T03500222
LGA,2013-07-19T23:51:00Z,93.92,71.96,49.12,230.00,10,0,29.79,1008.90,9,M,SCT,SCT,M,M,5500.00,25000.00,M,M,M,KLGA 192351Z 23010KT 9SM SCT055 SCT250 34/22 A2979 RMK AO2 SLP089 T03440222 10378 20344 55002
LGA,2013-07-20T00:51:00Z,93.02,73.04,52.39,230.00,11,0,29.82,1009.80,10,M,FEW,SCT,M,M,5500.00,25000.00,M,M,M,KLGA 200051Z 23011KT 10SM FEW055 SCT250 34/23 A2982 RMK AO2 SLP098 T03390228
LGA,2013-07-20T01:51:00Z,91.04,73.04,55.72,230.00,12,0,29.83,1010.10,10,19.00,FEW,SCT,M,M,5500.00,25000.00,M,M,M,KLGA 200151Z 23012G19KT 10SM FEW055 SCT250 33/23 A2983 RMK AO2 SLP101 T03280228
LGA,2013-07-20T02:51:00Z,89.96,71.96,55.58,240.00,10,0,29.81,1009.30,10,19.00,FEW,SCT,M,M,5000.00,25000.00,M,M,M,KLGA 200251Z 24010G19KT 10SM FEW050 SCT250 32/22 A2981 RMK AO2 SLP093 T03220222 50004
LGA,2013-07-20T03:51:00Z,89.06,73.04,59.3,220.00,12,0,29.79,1008.90,9,17.00,CLR,M,M,M,M,M,M,M,M,KLGA 200351Z 22012G17KT 9SM CLR 32/23 A2979 RMK AO2 SLP089 T03170228
LGA,2013-07-20T04:51:00Z,87.98,73.04,61.36,230.00,9,0,29.8,1009.20,9,M,BKN,M,M,M,25000.00,M,M,M,M,KLGA 200451Z 23009KT 9SM BKN250 31/23 A2980 RMK AO2 SLP092 T03110228 403780300
LGA,2013-07-20T05:51:00Z,87.98,73.04,61.36,240.00,11,0,29.8,1009.10,8,M,FEW,BKN,M,M,17000.00,25000.00,M,M,M,KLGA 200551Z 24011KT 8SM FEW170 BKN250 31/23 A2980 RMK AO2 SLP091 T03110228 10344 20306 56003
LGA,2013-07-20T06:51:00Z,87.08,71.06,59.05,260.00,12,0,29.79,1008.70,9,20.00,FEW,BKN,M,M,17000.00,25000.00,M,M,M,KLGA 200651Z 26012G20KT 9SM FEW170 BKN250 31/22 A2979 RMK AO2 SLP087 T03060217
LGA,2013-07-20T07:51:00Z,86,69.08,57.12,230.00,8,0,29.78,1008.30,10,M,FEW,BKN,M,M,17000.00,25000.00,M,M,M,KLGA 200751Z 23008KT 10SM FEW170 BKN250 30/21 A2978 RMK AO2 SLP083 T03000206
LGA,2013-07-20T08:51:00Z,84.02,68,58.65,220.00,10,0,29.77,1008.10,10,M,CLR,M,M,M,M,M,M,M,M,KLGA 200851Z 22010KT 10SM CLR 29/20 A2977 RMK AO2 SLP081 T02890200 56010
LGA,2013-07-20T09:51:00Z,82.94,68,60.74,220.00,8,0,29.78,1008.20,10,M,SCT,BKN,M,M,17000.00,25000.00,M,M,M,KLGA 200951Z 22008KT 10SM SCT170 BKN250 28/20 A2978 RMK AO2 SLP082 T02830200
LGA,2013-07-20T10:51:00Z,82.94,68,60.74,240.00,9,0,29.8,1009.00,10,M,BKN,BKN,M,M,15000.00,25000.00,M,M,M,KLGA 201051Z 24009KT 10SM BKN150 BKN250 28/20 A2980 RMK AO2 SLP090 T02830200
LGA,2013-07-20T11:51:00Z,84.02,66.92,56.51,250.00,7,0,29.8,1009.20,10,M,BKN,BKN,M,M,15000.00,25000.00,M,M,M,KLGA 201151Z 25007KT 10SM BKN150 BKN250 29/19 A2980 RMK AO2 SLP092 T02890194 10311 20283 53012
LGA,2013-07-20T12:51:00Z,84.92,68,56.98,230.00,8,0,29.79,1008.90,10,M,BKN,BKN,M,M,15000.00,25000.00,M,M,M,KLGA 201251Z 23008KT 10SM BKN150 BKN250 29/20 A2979 RMK AO2 SLP089 T02940200
LGA,2013-07-20T13:51:00Z,86,68,55.04,250.00,12,0,29.79,1008.90,10,19.00,BKN,BKN,M,M,15000.00,25000.00,M,M,M,KLGA 201351Z 25012G19KT 10SM BKN150 BKN250 30/20 A2979 RMK AO2 SLP089 T03000200
LGA,2013-07-20T14:51:00Z,87.98,68,51.68,240.00,13,0,29.79,1008.70,10,M,SCT,BKN,M,M,15000.00,25000.00,M,M,M,KLGA 201451Z 24013KT 10SM SCT150 BKN250 31/20 A2979 RMK AO2 SLP087 T03110200 56006
LGA,2013-07-20T15:51:00Z,89.96,68,48.55,210.00,11,0,29.76,1007.80,10,M,SCT,BKN,M,M,15000.00,25000.00,M,M,M,KLGA 201551Z 21011KT 10SM SCT150 BKN250 32/20 A2976 RMK AO2 SLP078 T03220200
LGA,2013-07-20T16:51:00Z,91.94,68,45.63,240.00,15,0,29.75,1007.30,10,21.00,SCT,BKN,M,M,15000.00,25000.00,M,M,M,KLGA 201651Z 24015G21KT 10SM SCT150 BKN250 33/20 A2975 RMK AO2 SLP073 T03330200
LGA,2013-07-20T17:51:00Z,93.02,69.08,45.79,240.00,17,0,29.74,1006.90,10,M,SCT,BKN,M,M,15000.00,25000.00,M,M,M,KLGA 201751Z 24017KT 10SM SCT150 BKN250 34/21 A2974 RMK AO2 SLP069 T03390206 10344 20289 56018
LGA,2013-07-20T18:51:00Z,93.92,66.92,41.34,250.00,13,0,29.73,1006.80,10,21.00,SCT,BKN,BKN,M,4500.00,15000.00,25000.00,M,M,KLGA 201851Z 25013G21KT 10SM SCT045 BKN150 BKN250 34/19 A2973 RMK AO2 SLP068 T03440194
LGA,2013-07-20T19:51:00Z,93.92,66.92,41.34,270.00,14,0,29.72,1006.50,10,23.00,SCT,BKN,OVC,M,5000.00,15000.00,25000.00,M,M,KLGA 201951Z 27014G23KT 10SM SCT050 BKN150 OVC250 34/19 A2972 RMK AO2 SLP065 T03440194
LGA,2013-07-20T20:51:00Z,93.92,66.92,41.34,270.00,17,0,29.72,1006.30,10,23.00,SCT,BKN,BKN,M,5000.00,15000.00,25000.00,M,M,KLGA 202051Z 27017G23KT 10SM SCT050 BKN150 BKN250 34/19 A2972 RMK AO2 PK WND 26026/2037 SLP063 T03440194 58006
LGA,2013-07-20T21:51:00Z,93.02,66.02,41.2,260.00,13,0,29.72,1006.50,10,23.00,SCT,SCT,BKN,M,6500.00,18000.00,25000.00,M,M,KLGA 202151Z 26013G23KT 10SM SCT065 SCT180 BKN250 34/19 A2972 RMK AO2 PK WND 28026/2052 SLP065 TCU DSNT E T03390189
LGA,2013-07-20T22:51:00Z,91.04,64.04,40.9,280.00,9,0,29.75,1007.30,10,15.00,SCT,SCT,BKN,BKN,5500.00,7000.00,10000.00,17000.00,M,KLGA 202251Z 28009G15KT 10SM SCT055CB SCT070 BKN100 BKN170 BKN250 33/18 A2975 RMK AO2 SLP073 CB SW MOV E TCU E T03280178
LGA,2013-07-20T23:51:00Z,87.98,66.02,48.26,220.00,10,0,29.77,1008.20,10,16.00,FEW,SCT,BKN,BKN,5500.00,10000.00,17000.00,25000.00,M,KLGA 202351Z 22010G16KT 10SM FEW055CB SCT100 BKN170 BKN250 31/19 A2977 RMK AO2 PRESRR SLP082 CB S MOV E T03110189 10350 20306 53019
LGA,2013-07-21T00:51:00Z,84.92,68,56.98,210.00,10,0,29.78,1008.60,10,M,SCT,SCT,BKN,BKN,8000.00,10000.00,17000.00,25000.00,M,KLGA 210051Z 21010KT 10SM SCT080 SCT100 BKN170 BKN250 29/20 A2978 RMK AO2 SLP086 FRQ LTGIC DSNT S-SW CB DSNT S-SW MOV E T02940200
LGA,2013-07-21T01:51:00Z,82.94,69.08,63.03,210.00,8,0,29.8,1009.10,10,15.00,FEW,BKN,BKN,M,5000.00,9000.00,25000.00,M,-RA,KLGA 210151Z 21008G15KT 10SM -RA FEW050 BKN090 BKN250 28/21 A2980 RMK AO2 RAB40 SLP091 P0000 T02830206
LGA,2013-07-21T02:51:00Z,82.94,69.08,63.03,220.00,5,0,29.81,1009.30,10,M,FEW,BKN,BKN,M,5000.00,10000.00,25000.00,M,M,KLGA 210251Z 22005KT 10SM FEW050 BKN100 BKN250 28/21 A2981 RMK AO2 RAE0157 SLP093 P0000 60000 T02830206 51011
LGA,2013-07-21T03:51:00Z,84.02,66.92,56.51,360.00,3,0,29.82,1009.90,10,M,SCT,BKN,BKN,M,7000.00,11000.00,25000.00,M,M,KLGA 210351Z 36003KT 10SM SCT070 BKN110 BKN250 29/19 A2982 RMK AO2 SLP099 T02890194
LGA,2013-07-21T04:51:00Z,82.94,66.92,58.51,320.00,5,0,29.83,1010.10,10,M,SCT,BKN,BKN,BKN,5500.00,8000.00,11000.00,25000.00,M,KLGA 210451Z 32005KT 10SM SCT055 BKN080 BKN110 BKN250 28/19 A2983 RMK AO2 SLP101 T02830194 403500278
LGA,2013-07-21T05:51:00Z,82.04,69.08,64.9,0.00,0,0,29.84,1010.50,10,M,SCT,BKN,BKN,M,9000.00,14000.00,25000.00,M,M,KLGA 210551Z 00000KT 10SM SCT090 BKN140 BKN250 28/21 A2984 RMK AO2 SLP105 60000 T02780206 10322 20267 51012
LGA,2013-07-21T06:51:00Z,80.06,69.08,69.23,60.00,4,0,29.84,1010.30,10,M,SCT,BKN,BKN,BKN,7000.00,10000.00,14000.00,25000.00,M,KLGA 210651Z 06004KT 10SM SCT070 BKN100 BKN140 BKN250 27/21 A2984 RMK AO2 SLP103 T02670206
LGA,2013-07-21T07:51:00Z,80.96,68,64.77,50.00,3,0,29.83,1010.20,10,M,FEW,BKN,BKN,M,7000.00,14000.00,25000.00,M,M,KLGA 210751Z 05003KT 10SM FEW070 BKN140 BKN250 27/20 A2983 RMK AO2 SLP102 T02720200
LGA,2013-07-21T08:51:00Z,78.98,69.98,73.97,50.00,5,0,29.85,1010.80,10,M,FEW,BKN,BKN,M,7000.00,15000.00,25000.00,M,M,KLGA 210851Z 05005KT 10SM FEW070 BKN150 BKN250 26/21 A2985 RMK AO2 SLP108 T02610211 53003
LGA,2013-07-21T09:51:00Z,77,69.98,78.96,40.00,5,0,29.88,1011.60,10,M,FEW,BKN,BKN,M,7000.00,15000.00,25000.00,M,M,KLGA 210951Z 04005KT 10SM FEW070 BKN150 BKN250 25/21 A2988 RMK AO2 SLP116 T02500211
LGA,2013-07-21T10:51:00Z,78.08,62.96,59.74,40.00,9,0,29.88,1011.80,10,M,FEW,SCT,SCT,BKN,3500.00,6500.00,7500.00,15000.00,M,KLGA 211051Z 04009KT 10SM FEW035TCU SCT065 SCT075 BKN150 BKN250 26/17 A2988 RMK AO2 SLP118 TCU W-N T02560172
LGA,2013-07-21T11:51:00Z,78.98,60.08,52.37,50.00,10,0,29.9,1012.50,10,M,FEW,SCT,SCT,BKN,4400.00,6000.00,9000.00,13000.00,M,KLGA 211151Z 05010KT 10SM FEW044TCU SCT060 SCT090 BKN130 BKN160 BKN250 26/16 A2990 RMK AO2 SLP125 TCU NW T02610156 10278 20250 51017
LGA,2013-07-21T12:51:00Z,78.98,60.98,54.08,40.00,9,0,29.92,1013.00,10,M,FEW,SCT,SCT,BKN,4000.00,6500.00,9500.00,14000.00,M,KLGA 211251Z 04009KT 10SM FEW040TCU SCT065 SCT095 BKN140 BKN160 BKN250 26/16 A2992 RMK AO2 SLP130 TCU E-SE AND NW-N T02610161
LGA,2013-07-21T13:51:00Z,78.08,60.98,55.7,50.00,11,0,29.93,1013.40,10,M,FEW,SCT,BKN,BKN,4200.00,6000.00,8500.00,15000.00,M,KLGA 211351Z 05011KT 10SM FEW042TCU SCT060 BKN085 BKN150 BKN190 BKN250 26/16 A2993 RMK AO2 SLP134 TCU NW-N T02560161
LGA,2013-07-21T14:51:00Z,80.96,60.08,49.09,60.00,10,0,29.93,1013.50,10,M,FEW,SCT,SCT,BKN,4400.00,6500.00,8500.00,15000.00,M,KLGA 211451Z 06010KT 10SM FEW044 SCT065 SCT085 BKN150 BKN200 BKN250 27/16 A2993 RMK AO2 SLP135 T02720156 51010
LGA,2013-07-21T15:51:00Z,84.02,59,42.77,50.00,11,0,29.93,1013.50,10,M,FEW,SCT,SCT,SCT,4500.00,5500.00,9000.00,14000.00,M,KLGA 211551Z 05011KT 10SM FEW045 SCT055 SCT090 SCT140 BKN190 BKN250 29/15 A2993 RMK AO2 SLP135 T02890150
LGA,2013-07-21T16:51:00Z,82.04,57.92,43.87,40.00,11,0,29.94,1013.90,10,M,SCT,SCT,BKN,BKN,4700.00,6000.00,8000.00,19000.00,M,KLGA 211651Z 04011KT 10SM SCT047TCU SCT060 BKN080 BKN190 BKN250 28/14 A2994 RMK AO2 SLP139 TCU N T02780144
LGA,2013-07-21T17:51:00Z,84.92,59,41.55,50.00,10,0,29.93,1013.60,10,22.00,FEW,SCT,SCT,BKN,4700.00,6000.00,8000.00,21000.00,M,KLGA 211751Z 05010G22KT 10SM FEW047TCU SCT060 SCT080 BKN210 BKN250 29/15 A2993 RMK AO2 SLP136 TCU N-E T02940150 10294 20256 50001
LGA,2013-07-21T18:51:00Z,84.92,59,41.55,50.00,10,0,29.94,1013.70,10,M,SCT,SCT,SCT,BKN,4900.00,8000.00,15000.00,25000.00,M,KLGA 211851Z 05010KT 10SM SCT049 SCT080 SCT150 BKN250 29/15 A2994 RMK AO2 SLP137 T02940150
LGA,2013-07-21T19:51:00Z,86,57.02,37.38,50.00,8,0,29.93,1013.40,10,19.00,SCT,OVC,M,M,15000.00,25000.00,M,M,M,KLGA 211951Z 05008G19KT 10SM SCT150 OVC250 30/14 A2993 RMK AO2 SLP134 T03000139
LGA,2013-07-21T20:51:00Z,84.92,57.92,39.97,50.00,8,0,29.92,1013.10,10,M,FEW,SCT,BKN,M,5000.00,15000.00,25000.00,M,M,KLGA 212051Z 05008KT 10SM FEW050 SCT150 BKN250 29/14 A2992 RMK AO2 SLP131 T02940144 58004
LGA,2013-07-21T21:51:00Z,82.94,59,44.29,50.00,10,0,29.91,1012.80,10,M,SCT,BKN,BKN,M,5000.00,15000.00,25000.00,M,M,KLGA 212151Z 05010KT 10SM SCT050 BKN150 BKN250 28/15 A2991 RMK AO2 SLP128 T02830150
LGA,2013-07-21T22:51:00Z,82.04,62.06,50.84,50.00,7,0,29.92,1013.00,10,M,FEW,BKN,BKN,M,5000.00,15000.00,25000.00,M,M,KLGA 212251Z 05007KT 10SM FEW050 BKN150 BKN250 28/17 A2992 RMK AO2 SLP130 T02780167
LGA,2013-07-21T23:51:00Z,80.06,66.02,62.29,60.00,5,0,29.92,1013.10,10,M,FEW,SCT,BKN,M,6000.00,15000.00,25000.00,M,M,KLGA 212351Z 06005KT 10SM FEW060 SCT150 BKN250 27/19 A2992 RMK AO2 SLP131 T02670189 10306 20267 55000
LGA,2013-07-22T00:51:00Z,80.06,66.02,62.29,170.00,8,0,29.94,1013.70,10,M,SCT,BKN,OVC,M,10000.00,15000.00,25000.00,M,M,KLGA 220051Z 17008KT 10SM SCT100 BKN150 OVC250 27/19 A2994 RMK AO2 SLP137 T02670189
LGA,2013-07-22T01:51:00Z,78.98,66.92,66.58,150.00,5,0,29.96,1014.40,10,M,SCT,OVC,M,M,10000.00,25000.00,M,M,M,KLGA 220151Z 15005KT 10SM SCT100 OVC250 26/19 A2996 RMK AO2 SLP144 T02610194
LGA,2013-07-22T02:51:00Z,78.08,66.92,68.59,130.00,5,0,29.95,1014.30,10,M,SCT,BKN,M,M,11000.00,25000.00,M,M,M,KLGA 220251Z 13005KT 10SM SCT110 BKN250 26/19 A2995 RMK AO2 SLP143 T02560194 50013
LGA,2013-07-22T03:51:00Z,78.08,66.92,68.59,90.00,4,0,29.94,1013.90,10,M,FEW,BKN,BKN,M,10000.00,15000.00,25000.00,M,M,KLGA 220351Z 09004KT 10SM FEW100 BKN150 BKN250 26/19 A2994 RMK AO2 SLP139 T02560194
LGA,2013-07-22T04:51:00Z,75.92,69.08,79.37,80.00,5,0,29.95,1014.20,10,M,SCT,BKN,BKN,M,11000.00,15000.00,25000.00,M,M,KLGA 220451Z 08005KT 10SM SCT110 BKN150 BKN250 24/21 A2995 RMK AO2 SLP142 T02440206 403060244
LGA,2013-07-22T05:51:00Z,75.02,69.98,84.34,40.00,5,0,29.95,1014.00,10,M,BKN,BKN,BKN,M,11000.00,15000.00,25000.00,M,M,KLGA 220551Z 04005KT 10SM BKN110 BKN150 BKN250 24/21 A2995 RMK AO2 SLP140 T02390211 10278 20239 56003
LGA,2013-07-22T06:51:00Z,75.02,69.98,84.34,40.00,5,0,29.93,1013.40,10,M,FEW,BKN,BKN,M,10000.00,15000.00,25000.00,M,M,KLGA 220651Z 04005KT 10SM FEW100 BKN150 BKN250 24/21 A2993 RMK AO2 SLP134 T02390211
LGA,2013-07-22T07:51:00Z,75.92,69.98,81.85,60.00,6,0,29.93,1013.50,10,M,FEW,BKN,BKN,M,10000.00,15000.00,25000.00,M,M,KLGA 220751Z 06006KT 10SM FEW100 BKN150 BKN250 24/21 A2993 RMK AO2 SLP135 T02440211
LGA,2013-07-22T08:51:00Z,75.02,69.98,84.34,80.00,5,0,29.93,1013.60,10,M,FEW,SCT,BKN,OVC,3000.00,10000.00,15000.00,25000.00,M,KLGA 220851Z 08005KT 10SM FEW030 SCT100 BKN150 OVC250 24/21 A2993 RMK AO2 SLP136 T02390211 55005
LGA,2013-07-22T09:43:00Z,75.2,69.8,83.32,50.00,6,0,29.94,M,10,M,BKN,OVC,M,M,1100.00,12000.00,M,M,M,KLGA 220943Z 05006KT 10SM BKN011 OVC120 24/21 A2994 RMK AO2
LGA,2013-07-22T09:51:00Z,75.02,69.98,84.34,50.00,5,0,29.94,1013.80,10,M,OVC,M,M,M,1100.00,M,M,M,M,KLGA 220951Z 05005KT 10SM OVC011 24/21 A2994 RMK AO2 SLP138 T02390211
LGA,2013-07-22T10:51:00Z,75.02,69.98,84.34,40.00,9,0,29.94,1013.90,10,M,OVC,M,M,M,1300.00,M,M,M,M,KLGA 221051Z 04009KT 10SM OVC013 24/21 A2994 RMK AO2 RAB25E47 SLP139 P0000 T02390211
LGA,2013-07-22T11:34:00Z,75.2,71.6,88.59,50.00,9,0,29.94,M,9,M,BKN,BKN,OVC,M,700.00,1200.00,8000.00,M,M,KLGA 221134Z 05009KT 9SM BKN007 BKN012 OVC080 24/22 A2994 RMK AO2
LGA,2013-07-22T11:51:00Z,75.02,69.98,84.34,50.00,9,0,29.94,1013.90,8,M,BKN,BKN,OVC,M,600.00,1300.00,8000.00,M,M,KLGA 221151Z 05009KT 8SM BKN006 BKN013 OVC080 24/21 A2994 RMK AO2 SLP139 60000 T02390211 10244 20239 50003
LGA,2013-07-22T12:40:00Z,75.2,69.8,83.32,40.00,12,0,29.95,M,8,M,SCT,OVC,M,M,600.00,1000.00,M,M,M,KLGA 221240Z 04012KT 8SM SCT006 OVC010 24/21 A2995 RMK AO2
LGA,2013-07-22T12:51:00Z,75.02,69.98,84.34,40.00,11,0,29.95,1014.20,8,M,FEW,OVC,M,M,600.00,1000.00,M,M,M,KLGA 221251Z 04011KT 8SM FEW006 OVC010 24/21 A2995 RMK AO2 SLP142 T02390211
LGA,2013-07-22T13:04:00Z,75.2,69.8,83.32,40.00,10,0,29.95,M,7,M,BKN,OVC,M,M,800.00,1200.00,M,M,M,KLGA 221304Z 04010KT 7SM BKN008 OVC012 24/21 A2995
LGA,2013-07-22T13:31:00Z,75.2,69.8,83.32,50.00,12,0,29.95,M,7,M,SCT,BKN,BKN,M,800.00,1500.00,13000.00,M,M,KLGA 221331Z 05012KT 7SM SCT008 BKN015 BKN130 24/21 A2995 RMK AO2
LGA,2013-07-22T13:51:00Z,78.08,71.06,79.05,40.00,11,0,29.95,1014.20,8,M,FEW,BKN,BKN,M,700.00,2000.00,13000.00,M,M,KLGA 221351Z 04011KT 8SM FEW007 BKN020 BKN130 26/22 A2995 RMK AO2 SLP142 T02560217
LGA,2013-07-22T14:27:00Z,78.8,71.6,78.62,50.00,13,0,29.95,M,7,M,FEW,SCT,SCT,BKN,1600.00,2400.00,13000.00,25000.00,M,KLGA 221427Z 05013KT 7SM FEW016 SCT024 SCT130 BKN250 26/22 A2995 RMK AO2
LGA,2013-07-22T14:48:00Z,78.8,71.6,78.62,40.00,14,0,29.95,M,7,M,FEW,SCT,BKN,M,500.00,2200.00,25000.00,M,M,KLGA 221448Z 04014KT 7SM FEW005 SCT022 BKN250 26/22 A2995
LGA,2013-07-22T14:51:00Z,77,71.06,81.92,40.00,14,0,29.95,1014.10,6,M,SCT,SCT,BKN,M,500.00,2200.00,25000.00,M,HZ,KLGA 221451Z 04014KT 6SM HZ SCT005 SCT022 BKN250 25/22 A2995 RMK AO2 SLP141 T02500217 50002
LGA,2013-07-22T15:51:00Z,78.98,71.06,76.74,50.00,14,0,29.94,1013.90,7,M,FEW,SCT,BKN,M,500.00,2800.00,25000.00,M,M,KLGA 221551Z 05014KT 7SM FEW005 SCT028CB BKN250 26/22 A2994 RMK AO2 SLP139 CB SE-S MOV E T02610217
LGA,2013-07-22T16:31:00Z,75.2,71.6,88.59,50.00,10,0,29.94,M,2.5,M,SCT,BKN,OVC,M,1900.00,2400.00,5000.00,M,-RA BR,KLGA 221631Z 05010KT 2 1/2SM -RA BR SCT019 BKN024CB OVC050 24/22 A2994 RMK AO2 SFC VIS 4 RAB21 CB SE-SW-W MOV E P0000
LGA,2013-07-22T16:49:00Z,75.2,71.6,88.59,60.00,11,0.02,29.94,M,2,M,FEW,BKN,OVC,M,700.00,1300.00,1900.00,M,+RA BR,KLGA 221649Z 06011KT 2SM R04/5000VP6000FT +RA BR FEW007 BKN013 OVC019 24/22 A2994 RMK AO2 RAB21 P0002
LGA,2013-07-22T16:51:00Z,75.02,71.96,90.22,70.00,11,0.04,29.94,1013.70,2,M,FEW,BKN,OVC,M,700.00,1300.00,1900.00,M,+RA BR,KLGA 221651Z 07011KT 2SM R04/5000VP6000FT +RA BR FEW007 BKN013 OVC019 24/22 A2994 RMK AO2 SFC VIS 2 1/2 RAB21 SLP137 P0004 T02390222
LGA,2013-07-22T17:16:00Z,75.2,71.6,88.59,40.00,11,0.04,29.93,M,4,M,FEW,SCT,BKN,BKN,700.00,2100.00,3200.00,25000.00,-RA BR,KLGA 221716Z 04011KT 4SM -RA BR FEW007 SCT021 BKN032 BKN250 24/22 A2993 RMK AO2 VIS N-E 2 1/2 P0004
LGA,2013-07-22T17:51:00Z,78.08,71.96,81.5,50.00,10,0.04,29.91,1012.70,10,17.00,FEW,SCT,BKN,BKN,900.00,3000.00,15000.00,25000.00,M,KLGA 221751Z 05010G17KT 10SM FEW009 SCT030TCU BKN150 BKN250 26/22 A2991 RMK AO2 RAE24 SLP127 TCU SE-SW P0004 60008 T02560222 10272 20239 58014
LGA,2013-07-22T18:51:00Z,78.98,73.04,82.06,40.00,12,0,29.89,1012.20,6,M,SCT,BKN,BKN,BKN,3000.00,6500.00,15000.00,25000.00,-RA,KLGA 221851Z 04012KT 6SM -RA SCT030 BKN065 BKN150 BKN250 26/23 A2989 RMK AO2 RAB36 SLP122 P0000 T02610228
LGA,2013-07-22T19:51:00Z,78.98,71.96,79.12,50.00,11,0,29.86,1011.30,8,M,SCT,BKN,BKN,BKN,3000.00,7000.00,15000.00,25000.00,M,KLGA 221951Z 05011KT 8SM SCT030 BKN070 BKN150 BKN250 26/22 A2986 RMK AO2 RAE1855 SLP113 P0000 T02610222
LGA,2013-07-22T20:51:00Z,77,71.96,84.46,50.00,12,0,29.86,1011.10,8,M,FEW,SCT,BKN,M,2800.00,5000.00,7000.00,M,M,KLGA 222051Z 05012KT 8SM FEW028 SCT050 BKN070 25/22 A2986 RMK AO2 SLP111 60000 T02500222 56016
LGA,2013-07-22T21:51:00Z,77,71.96,84.46,40.00,8,0,29.85,1010.60,7,M,FEW,SCT,BKN,OVC,3000.00,5000.00,7500.00,13000.00,M,KLGA 222151Z 04008KT 7SM FEW030 SCT050 BKN075 OVC130 25/22 A2985 RMK AO2 SLP106 T02500222
LGA,2013-07-22T21:58:00Z,78.8,71.6,78.62,40.00,7,0,29.84,M,8,M,SCT,BKN,OVC,M,2000.00,8000.00,13000.00,M,M,KLGA 222158Z 04007KT 8SM SCT020 BKN080 OVC130 26/22 A2984 RMK AO2
LGA,2013-07-22T22:51:00Z,80.06,73.04,79.2,130.00,8,0,29.84,1010.50,10,M,SCT,BKN,OVC,M,2000.00,8000.00,13000.00,M,M,KLGA 222251Z 13008KT 10SM SCT020 BKN080 OVC130 27/23 A2984 RMK AO2 SLP105 T02670228
LGA,2013-07-22T23:12:00Z,80.6,73.4,78.76,120.00,8,0,29.84,M,10,M,BKN,BKN,BKN,M,1300.00,1800.00,5000.00,M,-RA,KLGA 222312Z 12008KT 10SM -RA BKN013 BKN018 BKN050 27/23 A2984
LGA,2013-07-22T23:51:00Z,78.98,71.96,79.12,140.00,10,0,29.84,1010.50,10,M,BKN,OVC,M,M,1300.00,3900.00,M,M,M,KLGA 222351Z 14010KT 10SM BKN013 OVC039 26/22 A2984 RMK AO2 RAB08E26 SLP105 P0000 60000 T02610222 10278 20244 56006
LGA,2013-07-23T00:51:00Z,78.08,73.04,84.53,140.00,6,0,29.83,1010.10,10,M,BKN,OVC,M,M,1100.00,1400.00,M,M,M,KLGA 230051Z 14006KT 10SM BKN011 OVC014 26/23 A2983 RMK AO2 SLP101 T02560228
LGA,2013-07-23T01:51:00Z,77,73.04,87.6,160.00,7,0.01,29.83,1010.00,9,M,BKN,OVC,M,M,1100.00,1600.00,M,M,-RA,KLGA 230151Z 16007KT 9SM -RA BKN011 OVC016 25/23 A2983 RMK AO2 RAB08 SLP100 P0001 T02500228
LGA,2013-07-23T02:44:00Z,77,73.4,88.67,130.00,7,0,29.82,M,8,M,BKN,BKN,BKN,M,900.00,4700.00,6000.00,M,-RA,KLGA 230244Z 13007KT 8SM -RA BKN009 BKN047 BKN060 25/23 A2982
LGA,2013-07-23T02:51:00Z,77,73.04,87.6,130.00,5,0.04,29.82,1009.70,7,M,BKN,OVC,M,M,900.00,5000.00,M,M,-RA,KLGA 230251Z 13005KT 7SM -RA BKN009 OVC050 25/23 A2982 RMK AO2 SLP097 P0004 60005 T02500228 56008
LGA,2013-07-23T03:36:00Z,77,73.4,88.67,120.00,7,0,29.81,M,9,M,SCT,BKN,OVC,M,700.00,1700.00,2400.00,M,-RA,KLGA 230336Z 12007KT 9SM -RA SCT007 BKN017 OVC024 25/23 A2981 RMK AO2 RAE11B32 P0000
LGA,2013-07-23T03:51:00Z,77,73.04,87.6,100.00,7,0,29.8,1009.10,9,M,SCT,BKN,OVC,M,700.00,1700.00,2400.00,M,-RA,KLGA 230351Z 10007KT 9SM -RA SCT007 BKN017 OVC024 25/23 A2980 RMK AO2 RAE11B32 SLP091 P0000 T02500228
LGA,2013-07-23T04:06:00Z,75.2,73.4,94.14,80.00,6,0,29.8,M,9,M,BKN,OVC,M,M,900.00,1700.00,M,M,M,KLGA 230406Z 08006KT 9SM BKN009 OVC017 24/23 A2980 RMK AO2 RAE0357 P0000
LGA,2013-07-23T04:33:00Z,75.2,73.4,94.14,120.00,10,0.03,29.78,M,2,M,OVC,M,M,M,900.00,M,M,M,+RA BR,KLGA 230433Z 12010KT 2SM R04/3000VP6000FT +RA BR OVC009 24/23 A2978 RMK AO2 RAE0357B18 P0003
LGA,2013-07-23T04:41:00Z,75.2,73.4,94.14,140.00,7,0.14,29.78,M,4,M,BKN,OVC,M,M,900.00,1300.00,M,M,-RA BR,KLGA 230441Z 14007KT 4SM -RA BR BKN009 OVC013 24/23 A2978 RMK AO2 VIS 2 1/2 R22 SW RAE0357B18 P0014
LGA,2013-07-23T04:51:00Z,75.92,71.96,87.55,150.00,8,0.14,29.78,1008.40,10,M,BKN,OVC,M,M,900.00,1300.00,M,M,-RA,KLGA 230451Z 15008KT 10SM -RA BKN009 OVC013 24/22 A2978 RMK AO2 RAE0357B18 SLP084 P0014 T02440222 402780239
LGA,2013-07-23T05:19:00Z,75.2,71.6,88.59,130.00,6,0,29.77,M,10,M,SCT,OVC,M,M,900.00,1300.00,M,M,M,KLGA 230519Z 13006KT 10SM SCT009 OVC013 24/22 A2977 RMK AO2 RAE02 P0000
LGA,2013-07-23T05:44:00Z,75.2,71.6,88.59,150.00,5,0,29.76,M,10,M,OVC,M,M,M,900.00,M,M,M,M,KLGA 230544Z 15005KT 10SM OVC009 24/22 A2976 RMK AO2 RAE02 P0000
LGA,2013-07-23T05:51:00Z,75.02,71.96,90.22,150.00,5,0,29.75,1007.50,10,M,OVC,M,M,M,900.00,M,M,M,-RA,KLGA 230551Z 15005KT 10SM -RA OVC009 24/22 A2975 RMK AO2 RAE02B48 SLP075 P0000 60019 T02390222 10261 20239 58023
LGA,2013-07-23T06:20:00Z,75.2,71.6,88.59,130.00,5,0,29.74,M,10,M,OVC,M,M,M,700.00,M,M,M,M,KLGA 230620Z 13005KT 10SM OVC007 24/22 A2974 RMK AO2 RAE0558 P0000
LGA,2013-07-23T06:40:00Z,75.2,73.4,94.14,140.00,4,0,29.73,M,10,M,OVC,M,M,M,900.00,M,M,M,-RA,KLGA 230640Z 14004KT 10SM -RA OVC009 24/23 A2973 RMK AO2 RAE0558B27 P0000
LGA,2013-07-23T06:51:00Z,75.92,73.04,90.8,160.00,4,0,29.73,1006.70,8,M,OVC,M,M,M,900.00,M,M,M,-RA,KLGA 230651Z 16004KT 8SM -RA OVC009 24/23 A2973 RMK AO2 RAE0558B27 SLP067 P0000 T02440228
LGA,2013-07-23T07:51:00Z,77,73.94,90.29,180.00,6,0.08,29.71,1006.10,5,M,BKN,BKN,OVC,M,900.00,1700.00,5000.00,M,-RA BR,KLGA 230751Z 18006KT 5SM -RA BR BKN009 BKN017 OVC050 25/23 A2971 RMK AO2 SLP061 P0008 T02500233
LGA,2013-07-23T08:08:00Z,77,73.4,88.67,180.00,5,0,29.7,M,5,M,BKN,BKN,OVC,M,900.00,1700.00,5000.00,M,TSRA BR,KLGA 230808Z 18005KT 5SM TSRA BR BKN009 BKN017CB OVC050 25/23 A2970
LGA,2013-07-23T08:51:00Z,77,73.94,90.29,170.00,8,0.2,29.68,1005.10,4,M,BKN,BKN,OVC,M,900.00,1700.00,5000.00,M,TSRA BR,KLGA 230851Z 17008KT 4SM TSRA BR BKN009 BKN017CB OVC050 25/23 A2968 RMK AO2 TSB08 SLP051 OCNL LTGICCC OHD-E TS OHD-E MOV NE P0020 60028 T02500233 58024
LGA,2013-07-23T08:58:00Z,77,73.4,88.67,170.00,7,0,29.68,M,6,M,SCT,SCT,OVC,M,900.00,1400.00,11000.00,M,TSRA BR,KLGA 230858Z 17007KT 6SM TSRA BR SCT009 SCT014CB OVC110 25/23 A2968
LGA,2013-07-23T09:12:00Z,77,73.4,88.67,170.00,12,0,29.68,M,8,16.00,BKN,BKN,OVC,M,900.00,2100.00,10000.00,M,-RA,KLGA 230912Z 17012G16KT 8SM -RA BKN009 BKN021 OVC100 25/23 A2968
LGA,2013-07-23T09:39:00Z,75.2,71.6,88.59,210.00,9,0.03,29.67,M,10,17.00,SCT,BKN,OVC,M,900.00,1600.00,10000.00,M,-RA,KLGA 230939Z 21009G17KT 10SM -RA SCT009 BKN016 OVC100 24/22 A2967 RMK AO2 TSE12 CIG 008 R22 SW P0003
LGA,2013-07-23T09:51:00Z,75.92,71.06,84.92,220.00,8,0.03,29.68,1004.90,10,M,SCT,BKN,OVC,M,900.00,1600.00,10000.00,M,M,KLGA 230951Z 22008KT 10SM SCT009 BKN016 OVC100 24/22 A2968 RMK AO2 TSE12RAE41 SLP049 P0003 T02440217
LGA,2013-07-23T10:17:00Z,75.2,69.8,83.32,210.00,8,0,29.67,M,10,M,FEW,SCT,BKN,BKN,900.00,1600.00,8000.00,25000.00,M,KLGA 231017Z 21008KT 10SM FEW009 SCT016 BKN080 BKN250 24/21 A2967 RMK AO2
LGA,2013-07-23T10:51:00Z,75.02,69.98,84.34,220.00,6,0,29.67,1004.60,10,M,FEW,SCT,SCT,BKN,1200.00,2400.00,8000.00,14000.00,M,KLGA 231051Z 22006KT 10SM FEW012 SCT024 SCT080 BKN140 BKN250 24/21 A2967 RMK AO2 SLP046 T02390211
LGA,2013-07-23T11:51:00Z,75.92,69.08,79.37,230.00,7,0,29.67,1004.70,10,M,FEW,SCT,SCT,BKN,700.00,1700.00,8500.00,14000.00,M,KLGA 231151Z 23007KT 10SM FEW007 SCT017 SCT085 BKN140 BKN250 24/21 A2967 RMK AO2 SLP047 60031 70058 T02440206 10250 20239 55004
LGA,2013-07-23T12:51:00Z,77,69.98,78.96,220.00,9,0,29.65,1004.00,10,M,BKN,BKN,BKN,M,1500.00,10000.00,25000.00,M,M,KLGA 231251Z 22009KT 10SM BKN015 BKN100 BKN250 25/21 A2965 RMK AO2 SLP040 T02500211
LGA,2013-07-23T13:51:00Z,77,69.08,76.57,250.00,7,0,29.64,1003.70,10,M,BKN,OVC,M,M,1700.00,10000.00,M,M,M,KLGA 231351Z 25007KT 10SM BKN017 OVC100 25/21 A2964 RMK AO2 SLP037 T02500206
LGA,2013-07-23T14:36:00Z,80.6,69.8,69.71,250.00,6,0,29.64,M,10,M,SCT,SCT,BKN,BKN,2100.00,2700.00,10000.00,25000.00,M,KLGA 231436Z 25006KT 10SM SCT021 SCT027 BKN100 BKN250 27/21 A2964 RMK AO2
LGA,2013-07-23T14:51:00Z,80.96,68,64.77,260.00,7,0,29.63,1003.50,10,M,FEW,SCT,SCT,BKN,2100.00,2700.00,14000.00,20000.00,M,KLGA 231451Z 26007KT 10SM FEW021 SCT027 SCT140 BKN200 27/20 A2963 RMK AO2 SLP035 T02720200 56012
LGA,2013-07-23T15:51:00Z,82.94,69.08,63.03,240.00,5,0,29.63,1003.50,10,M,SCT,BKN,BKN,M,2600.00,14000.00,20000.00,M,M,KLGA 231551Z 24005KT 10SM SCT026 BKN140 BKN200 28/21 A2963 RMK AO2 SLP035 T02830206
LGA,2013-07-23T16:51:00Z,84.92,69.08,59.14,250.00,8,0,29.62,1003.10,10,M,BKN,BKN,BKN,M,3200.00,15000.00,25000.00,M,M,KLGA 231651Z 25008KT 10SM BKN032 BKN150 BKN250 29/21 A2962 RMK AO2 SLP031 T02940206
LGA,2013-07-23T17:51:00Z,87.08,69.08,55.19,220.00,9,0,29.6,1002.40,10,M,SCT,BKN,BKN,M,3500.00,10000.00,25000.00,M,M,KLGA 231751Z 22009KT 10SM SCT035 BKN100 BKN250 31/21 A2960 RMK AO2 SLP024 T03060206 10306 20244 58011
LGA,2013-07-23T18:51:00Z,89.06,68,49.95,240.00,9,0,29.58,1001.80,10,16.00,SCT,BKN,BKN,BKN,3900.00,8000.00,15000.00,25000.00,M,KLGA 231851Z 24009G16KT 10SM SCT039TCU BKN080 BKN150 BKN250 32/20 A2958 RMK AO2 SLP018 TCU N T03170200
LGA,2013-07-23T19:51:00Z,87.98,64.94,46.48,230.00,8,0,29.58,1001.50,10,M,SCT,BKN,BKN,M,4000.00,8000.00,25000.00,M,M,KLGA 231951Z 23008KT 10SM SCT040 BKN080 BKN250 31/18 A2958 RMK AO2 SLP015 CB DSNT NW NOV E T03110183
LGA,2013-07-23T20:51:00Z,87.98,66.92,49.79,230.00,8,0,29.56,1000.90,10,18.00,BKN,BKN,BKN,M,4900.00,6500.00,25000.00,M,M,KLGA 232051Z 23008G18KT 10SM BKN049 BKN065 BKN250 31/19 A2956 RMK AO2 SLP009 T03110194 57015
LGA,2013-07-23T21:51:00Z,86,69.08,57.12,220.00,8,0,29.55,1000.70,10,16.00,SCT,BKN,BKN,BKN,3400.00,7500.00,9000.00,25000.00,M,KLGA 232151Z 22008G16KT 10SM SCT034CB BKN075 BKN090 BKN250 30/21 A2955 RMK AO2 RAB40E49 SLP007 CB E-S MOV E P0000 T03000206
LGA,2013-07-23T22:51:00Z,87.08,66.92,51.24,230.00,8,0,29.56,1000.90,10,M,FEW,SCT,BKN,BKN,3500.00,4600.00,10000.00,25000.00,M,KLGA 232251Z 23008KT 10SM FEW035 SCT046 BKN100 BKN250 31/19 A2956 RMK AO2 SLP009 T03060194
LGA,2013-07-23T23:51:00Z,84.92,66.92,54.9,250.00,12,0,29.57,1001.40,10,M,FEW,SCT,BKN,M,3500.00,7000.00,25000.00,M,M,KLGA 232351Z 25012KT 10SM FEW035TCU SCT070 BKN250 29/19 A2957 RMK AO2 SLP014 TCU NW-NE 60000 T02940194 10328 20294 53005
LGA,2013-07-24T00:51:00Z,80.06,69.08,69.23,340.00,7,0,29.59,1002.00,10,M,SCT,SCT,BKN,M,3900.00,7500.00,25000.00,M,M,KLGA 240051Z 34007KT 10SM SCT039 SCT075 BKN250 27/21 A2959 RMK AO2 RAB27E38 SLP020 OCNL LTGIC DSNT NE CB DSNT NE MOV E TCU DSNT E-SE P0000 T02670206
LGA,2013-07-24T01:51:00Z,80.06,69.08,69.23,350.00,4,0,29.61,1002.80,10,M,FEW,SCT,SCT,M,3900.00,9000.00,25000.00,M,M,KLGA 240151Z 35004KT 10SM FEW039 SCT090 SCT250 27/21 A2961 RMK AO2 SLP028 FRQ LTGIC DSNT E CB DSNT E MOV E T02670206
LGA,2013-07-24T02:51:00Z,80.96,66.92,62.4,330.00,7,0,29.62,1002.90,10,M,BKN,M,M,M,9000.00,M,M,M,M,KLGA 240251Z 33007KT 10SM BKN090 27/19 A2962 RMK AO2 SLP029 60000 T02720194 51015
LGA,2013-07-24T03:51:00Z,80.06,68,66.7,300.00,3,0,29.62,1002.90,10,M,FEW,M,M,M,2000.00,M,M,M,M,KLGA 240351Z 30003KT 10SM FEW020 27/20 A2962 RMK AO2 SLP029 T02670200
LGA,2013-07-24T04:51:00Z,80.06,68,66.7,300.00,8,0,29.62,1003.00,10,M,SCT,M,M,M,9000.00,M,M,M,M,KLGA 240451Z 30008KT 10SM SCT090 27/20 A2962 RMK AO2 SLP030 T02670200 403280239
LGA,2013-07-24T05:51:00Z,78.98,68,69.11,310.00,8,0,29.62,1002.80,10,M,SCT,SCT,M,M,4900.00,9000.00,M,M,M,KLGA 240551Z 31008KT 10SM SCT049 SCT090 26/20 A2962 RMK AO2 SLP028 60000 T02610200 10294 20261 58001
LGA,2013-07-24T06:51:00Z,78.98,66.92,66.58,270.00,3,0,29.62,1002.90,10,M,FEW,M,M,M,10000.00,M,M,M,M,KLGA 240651Z 27003KT 10SM FEW100 26/19 A2962 RMK AO2 SLP029 T02610194
LGA,2013-07-24T07:51:00Z,78.98,66.02,64.54,280.00,4,0,29.61,1002.70,10,M,FEW,SCT,M,M,10000.00,25000.00,M,M,M,KLGA 240751Z 28004KT 10SM FEW100 SCT250 26/19 A2961 RMK AO2 SLP027 T02610189
LGA,2013-07-24T08:51:00Z,78.98,66.02,64.54,0.00,0,0,29.61,1002.70,10,M,SCT,BKN,M,M,9000.00,25000.00,M,M,M,KLGA 240851Z 00000KT 10SM SCT090 BKN250 26/19 A2961 RMK AO2 SLP027 T02610189 58002
LGA,2013-07-24T09:51:00Z,77,68,73.78,330.00,6,0,29.63,1003.20,10,M,BKN,M,M,M,25000.00,M,M,M,M,KLGA 240951Z 33006KT 10SM BKN250 25/20 A2963 RMK AO2 SLP032 T02500200
LGA,2013-07-24T10:51:00Z,77,66.92,71.08,280.00,3,0,29.65,1003.90,10,M,FEW,BKN,M,M,11000.00,25000.00,M,M,M,KLGA 241051Z 28003KT 10SM FEW110 BKN250 25/19 A2965 RMK AO2 SLP039 T02500194
LGA,2013-07-24T11:51:00Z,77,66.02,68.9,310.00,12,0,29.67,1004.60,10,M,SCT,M,M,M,25000.00,M,M,M,M,KLGA 241151Z 31012KT 10SM SCT250 25/19 A2967 RMK AO2 SLP046 T02500189 10261 20244 53019
LGA,2013-07-24T12:51:00Z,78.08,64.94,64.03,320.00,15,0,29.69,1005.40,10,M,SCT,M,M,M,25000.00,M,M,M,M,KLGA 241251Z 32015KT 10SM SCT250 26/18 A2969 RMK AO2 SLP054 T02560183
LGA,2013-07-24T13:51:00Z,78.98,64.04,60.23,320.00,10,0,29.71,1006.00,10,M,FEW,BKN,M,M,14000.00,25000.00,M,M,M,KLGA 241351Z 32010KT 10SM FEW140 BKN250 26/18 A2971 RMK AO2 SLP060 T02610178
LGA,2013-07-24T14:51:00Z,82.04,62.96,52.47,350.00,8,0,29.72,1006.30,10,M,FEW,BKN,M,M,9000.00,25000.00,M,M,M,KLGA 241451Z 35008KT 10SM FEW090 BKN250 28/17 A2972 RMK AO2 SLP063 T02780172 51017
LGA,2013-07-24T15:51:00Z,80.96,64.94,58.25,320.00,15,0,29.73,1006.80,10,M,FEW,OVC,M,M,5000.00,25000.00,M,M,M,KLGA 241551Z 32015KT 10SM FEW050 OVC250 27/18 A2973 RMK AO2 SLP068 T02720183
LGA,2013-07-24T16:51:00Z,80.06,62.96,55.97,310.00,14,0,29.75,1007.30,10,M,FEW,BKN,M,M,3600.00,25000.00,M,M,M,KLGA 241651Z 31014KT 10SM FEW036 BKN250 27/17 A2975 RMK AO2 SLP073 T02670172
LGA,2013-07-24T17:51:00Z,80.06,62.06,54.23,310.00,8,0,29.75,1007.40,10,M,FEW,BKN,M,M,3800.00,25000.00,M,M,M,KLGA 241751Z 31008KT 10SM FEW038 BKN250 27/17 A2975 RMK AO2 SLP074 T02670167 10283 20250 51012
LGA,2013-07-24T18:51:00Z,82.04,62.06,50.84,320.00,6,0,29.77,1008.20,10,M,SCT,BKN,M,M,6500.00,25000.00,M,M,M,KLGA 241851Z 32006KT 10SM SCT065 BKN250 28/17 A2977 RMK AO2 SLP082 T02780167
LGA,2013-07-24T19:51:00Z,82.04,60.98,48.93,330.00,11,0,29.77,1008.10,10,M,BKN,BKN,M,M,4500.00,25000.00,M,M,M,KLGA 241951Z 33011KT 10SM BKN045 BKN250 28/16 A2977 RMK AO2 SLP081 T02780161
LGA,2013-07-24T20:51:00Z,80.96,60.08,49.09,300.00,9,0,29.77,1008.20,10,M,BKN,BKN,M,M,4500.00,25000.00,M,M,M,KLGA 242051Z 30009KT 10SM BKN045 BKN250 27/16 A2977 RMK AO2 SLP082 T02720156 51007
LGA,2013-07-24T21:51:00Z,80.06,57.92,46.79,330.00,8,0,29.78,1008.40,10,M,SCT,M,M,M,4900.00,M,M,M,M,KLGA 242151Z 33008KT 10SM SCT049 27/14 A2978 RMK AO2 SLP084 T02670144
LGA,2013-07-24T22:51:00Z,80.06,57.02,45.3,330.00,7,0,29.8,1009.10,10,M,SCT,BKN,BKN,M,5000.00,15000.00,25000.00,M,M,KLGA 242251Z 33007KT 10SM SCT050 BKN150 BKN250 27/14 A2980 RMK AO2 SLP091 T02670139
LGA,2013-07-24T23:51:00Z,78.08,57.02,48.35,320.00,10,0,29.83,1010.00,10,M,SCT,SCT,BKN,M,5000.00,15000.00,25000.00,M,M,KLGA 242351Z 32010KT 10SM SCT050 SCT150 BKN250 26/14 A2983 RMK AO2 SLP100 T02560139 10283 20256 53018
LGA,2013-07-25T00:51:00Z,77,55.04,46.64,330.00,11,0,29.85,1010.80,10,M,SCT,SCT,BKN,M,5000.00,15000.00,25000.00,M,M,KLGA 250051Z 33011KT 10SM SCT050 SCT150 BKN250 25/13 A2985 RMK AO2 SLP108 T02500128
LGA,2013-07-25T01:51:00Z,75.02,57.02,53.52,340.00,10,0,29.88,1011.90,10,M,FEW,SCT,BKN,M,3500.00,15000.00,25000.00,M,M,KLGA 250151Z 34010KT 10SM FEW035 SCT150 BKN250 24/14 A2988 RMK AO2 SLP119 T02390139
LGA,2013-07-25T02:51:00Z,71.96,53.96,53.08,360.00,13,0,29.91,1012.80,10,M,BKN,M,M,M,3700.00,M,M,M,M,KLGA 250251Z 36013KT 10SM BKN037 22/12 A2991 RMK AO2 SLP128 T02220122 53028
LGA,2013-07-25T03:51:00Z,69.98,53.06,54.94,360.00,13,0,29.93,1013.40,10,M,SCT,BKN,BKN,M,4400.00,15000.00,25000.00,M,M,KLGA 250351Z 36013KT 10SM SCT044 BKN150 BKN250 21/12 A2993 RMK AO2 SLP134 T02110117
LGA,2013-07-25T04:51:00Z,69.08,51.08,52.67,360.00,9,0,29.94,1013.80,10,M,BKN,BKN,OVC,M,4300.00,5000.00,15000.00,M,M,KLGA 250451Z 36009KT 10SM BKN043 BKN050 OVC150 21/11 A2994 RMK AO2 SLP138 T02060106 402830206
LGA,2013-07-25T05:51:00Z,68,51.08,54.66,10.00,9,0,29.94,1013.70,10,M,SCT,BKN,OVC,M,4300.00,5500.00,25000.00,M,M,KLGA 250551Z 01009KT 10SM SCT043 BKN055 OVC250 20/11 A2994 RMK AO2 SLP137 T02000106 10256 20194 50008
LGA,2013-07-25T06:51:00Z,66.92,51.08,56.73,20.00,11,0,29.94,1013.70,10,M,SCT,OVC,M,M,4300.00,7000.00,M,M,M,KLGA 250651Z 02011KT 10SM SCT043 OVC070 19/11 A2994 RMK AO2 SLP137 T01940106
LGA,2013-07-25T07:51:00Z,66.02,51.08,58.53,20.00,11,0,29.94,1013.70,10,M,SCT,OVC,M,M,4300.00,5000.00,M,M,M,KLGA 250751Z 02011KT 10SM SCT043 OVC050 19/11 A2994 RMK AO2 SLP137 T01890106
LGA,2013-07-25T08:51:00Z,66.92,51.98,58.65,30.00,9,0,29.95,1014.20,10,M,OVC,M,M,M,4500.00,M,M,M,M,KLGA 250851Z 03009KT 10SM OVC045 19/11 A2995 RMK AO2 SLP142 T01940111 53006
LGA,2013-07-25T09:51:00Z,64.94,51.08,60.77,30.00,13,0,29.96,1014.40,10,19.00,OVC,M,M,M,4700.00,M,M,M,M,KLGA 250951Z 03013G19KT 10SM OVC047 18/11 A2996 RMK AO2 SLP144 T01830106
LGA,2013-07-25T10:51:00Z,64.94,51.08,60.77,30.00,12,0,29.97,1014.80,10,18.00,OVC,M,M,M,3200.00,M,M,M,M,KLGA 251051Z 03012G18KT 10SM OVC032 18/11 A2997 RMK AO2 SLP148 T01830106
LGA,2013-07-25T11:51:00Z,64.94,51.08,60.77,20.00,12,0,30,1015.80,10,17.00,OVC,M,M,M,3400.00,M,M,M,M,KLGA 251151Z 02012G17KT 10SM OVC034 18/11 A3000 RMK AO2 SLP158 T01830106 10200 20178 53016
LGA,2013-07-25T12:51:00Z,66.02,51.08,58.53,40.00,10,0,30.01,1016.20,10,M,BKN,OVC,M,M,3200.00,4600.00,M,M,M,KLGA 251251Z 04010KT 10SM BKN032 OVC046 19/11 A3001 RMK AO2 SLP162 T01890106
LGA,2013-07-25T13:46:00Z,64.4,51.8,63.6,40.00,12,0,30.02,M,10,M,OVC,M,M,M,2800.00,M,M,M,M,KLGA 251346Z 04012KT 10SM OVC028 18/11 A3002
LGA,2013-07-25T13:51:00Z,66.92,51.08,56.73,40.00,10,0,30.02,1016.60,10,M,OVC,M,M,M,2800.00,M,M,M,M,KLGA 251351Z 04010KT 10SM OVC028 19/11 A3002 RMK AO2 SLP166 T01940106
LGA,2013-07-25T14:51:00Z,66.02,51.08,58.53,50.00,15,0,30.03,1016.70,10,18.00,OVC,M,M,M,2800.00,M,M,M,M,KLGA 251451Z 05015G18KT 10SM OVC028 19/11 A3003 RMK AO2 SLP167 T01890106 51005
LGA,2013-07-25T15:51:00Z,66.02,51.08,58.53,60.00,15,0,30.05,1017.60,10,M,OVC,M,M,M,2400.00,M,M,M,M,KLGA 251551Z 06015KT 10SM OVC024 19/11 A3005 RMK AO2 SLP176 T01890106
LGA,2013-07-25T16:51:00Z,66.92,51.98,58.65,30.00,13,0,30.04,1017.30,10,M,OVC,M,M,M,2400.00,M,M,M,M,KLGA 251651Z 03013KT 10SM OVC024 19/11 A3004 RMK AO2 SLP173 T01940111
LGA,2013-07-25T17:51:00Z,66.02,53.96,65.07,30.00,10,0,30.04,1017.30,10,M,OVC,M,M,M,2400.00,M,M,M,M,KLGA 251751Z 03010KT 10SM OVC024 19/12 A3004 RMK AO2 SLP173 T01890122 10200 20183 51006
LGA,2013-07-25T18:51:00Z,66.02,53.96,65.07,60.00,13,0,30.04,1017.20,10,M,OVC,M,M,M,2400.00,M,M,M,M,KLGA 251851Z 06013KT 10SM OVC024 19/12 A3004 RMK AO2 SLP172 T01890122
LGA,2013-07-25T19:51:00Z,64.94,55.04,70.28,40.00,11,0,30.05,1017.40,10,M,OVC,M,M,M,2400.00,M,M,M,M,KLGA 251951Z 04011KT 10SM OVC024 18/13 A3005 RMK AO2 SLP174 T01830128
LGA,2013-07-25T20:51:00Z,66.02,55.04,67.69,40.00,13,0,30.04,1017.10,10,M,FEW,OVC,M,M,2000.00,2600.00,M,M,M,KLGA 252051Z 04013KT 10SM FEW020 OVC026 19/13 A3004 RMK AO2 SLP171 T01890128 58002
LGA,2013-07-25T21:45:00Z,68,55.4,64.04,50.00,11,0,30.04,M,10,M,SCT,OVC,M,M,2600.00,4100.00,M,M,M,KLGA 252145Z 05011KT 10SM SCT026 OVC041 20/13 A3004 RMK AO2
LGA,2013-07-25T21:51:00Z,66.02,55.94,69.94,40.00,10,0,30.04,1017.10,10,M,SCT,OVC,M,M,2600.00,4100.00,M,M,M,KLGA 252151Z 04010KT 10SM SCT026 OVC041 19/13 A3004 RMK AO2 SLP171 T01890133
LGA,2013-07-25T22:51:00Z,66.92,55.94,67.79,50.00,14,0,30.04,1017.30,10,19.00,BKN,OVC,M,M,2400.00,6000.00,M,M,M,KLGA 252251Z 05014G19KT 10SM BKN024 OVC060 19/13 A3004 RMK AO2 SLP173 T01940133
LGA,2013-07-25T23:51:00Z,68,55.04,63.21,40.00,13,0,30.04,1017.30,10,M,OVC,M,M,M,2400.00,M,M,M,M,KLGA 252351Z 04013KT 10SM OVC024 20/13 A3004 RMK AO2 SLP173 T02000128 10211 20183 53002
LGA,2013-07-26T00:51:00Z,66.92,55.04,65.61,40.00,9,0,30.04,1017.10,10,M,OVC,M,M,M,2400.00,M,M,M,M,KLGA 260051Z 04009KT 10SM OVC024 19/13 A3004 RMK AO2 SLP171 T01940128
LGA,2013-07-26T01:51:00Z,66.92,55.94,67.79,40.00,12,0,30.04,1017.10,10,21.00,OVC,M,M,M,2600.00,M,M,M,M,KLGA 260151Z 04012G21KT 10SM OVC026 19/13 A3004 RMK AO2 SLP171 T01940133
LGA,2013-07-26T02:51:00Z,66.02,57.02,72.72,30.00,11,0.01,30.04,1017.10,10,M,BKN,OVC,M,M,2400.00,2800.00,M,M,-RA,KLGA 260251Z 03011KT 10SM -RA BKN024 OVC028 19/14 A3004 RMK AO2 RAB0157 SLP171 P0001 60001 T01890139 55002
LGA,2013-07-26T03:51:00Z,64.94,57.92,77.99,40.00,10,0.01,30.03,1017.00,10,M,BKN,OVC,M,M,2400.00,10000.00,M,M,-RA,KLGA 260351Z 04010KT 10SM -RA BKN024 OVC100 18/14 A3003 RMK AO2 SLP170 P0001 T01830144
LGA,2013-07-26T04:51:00Z,64.94,57.92,77.99,30.00,9,0,30.02,1016.50,10,17.00,BKN,BKN,BKN,M,2600.00,3600.00,5500.00,M,M,KLGA 260451Z 03009G17KT 10SM BKN026 BKN036 BKN055 18/14 A3002 RMK AO2 RAE08 SLP165 P0000 T01830144 402110178
LGA,2013-07-26T05:51:00Z,64.94,57.92,77.99,30.00,9,0,30.02,1016.40,10,M,OVC,M,M,M,2600.00,M,M,M,M,KLGA 260551Z 03009KT 10SM OVC026 18/14 A3002 RMK AO2 SLP164 60002 T01830144 10206 20183 56007
LGA,2013-07-26T06:51:00Z,64.94,57.92,77.99,20.00,11,0,30,1015.80,10,M,OVC,M,M,M,2000.00,M,M,M,M,KLGA 260651Z 02011KT 10SM OVC020 18/14 A3000 RMK AO2 SLP158 T01830144
LGA,2013-07-26T07:51:00Z,66.02,57.92,75.12,10.00,9,0,29.99,1015.70,10,M,OVC,M,M,M,2400.00,M,M,M,M,KLGA 260751Z 01009KT 10SM OVC024 19/14 A2999 RMK AO2 SLP157 T01890144
LGA,2013-07-26T08:51:00Z,66.92,57.92,72.81,10.00,6,0,29.99,1015.50,10,M,OVC,M,M,M,2400.00,M,M,M,M,KLGA 260851Z 01006KT 10SM OVC024 19/14 A2999 RMK AO2 SLP155 T01940144 56009
LGA,2013-07-26T09:51:00Z,66.92,57.02,70.49,350.00,9,0,30,1015.70,10,M,OVC,M,M,M,2400.00,M,M,M,M,KLGA 260951Z 35009KT 10SM OVC024 19/14 A3000 RMK AO2 SLP157 T01940139
LGA,2013-07-26T10:51:00Z,68,57.02,67.91,10.00,9,0,30,1016.00,10,M,OVC,M,M,M,2800.00,M,M,M,M,KLGA 261051Z 01009KT 10SM OVC028 20/14 A3000 RMK AO2 SLP160 T02000139
LGA,2013-07-26T11:51:00Z,68,57.02,67.91,10.00,8,0,30.01,1016.20,10,M,OVC,M,M,M,2900.00,M,M,M,M,KLGA 261151Z 01008KT 10SM OVC029 20/14 A3001 RMK AO2 SLP162 70002 T02000139 10200 20183 53007
LGA,2013-07-26T12:01:00Z,68,57.2,68.35,10.00,10,0,30.01,M,10,M,BKN,BKN,M,M,3100.00,14000.00,M,M,M,KLGA 261201Z 01010KT 10SM BKN031 BKN140 20/14 A3001 RMK AO2
LGA,2013-07-26T12:51:00Z,69.08,57.02,65.44,20.00,7,0,30.02,1016.60,10,M,FEW,BKN,OVC,M,2600.00,3700.00,14000.00,M,M,KLGA 261251Z 02007KT 10SM FEW026 BKN037 OVC140 21/14 A3002 RMK AO2 SLP166 T02060139
LGA,2013-07-26T13:51:00Z,71.06,57.92,63.18,20.00,8,0,30.02,1016.60,10,M,FEW,BKN,M,M,3400.00,4800.00,M,M,M,KLGA 261351Z 02008KT 10SM FEW034 BKN048 22/14 A3002 RMK AO2 SLP166 T02170144
LGA,2013-07-26T14:51:00Z,73.04,57.92,59.08,330.00,10,0,30.03,1016.70,10,M,FEW,BKN,BKN,M,3500.00,5000.00,18000.00,M,M,KLGA 261451Z 33010KT 10SM FEW035 BKN050 BKN180 23/14 A3003 RMK AO2 SLP167 T02280144 51005
LGA,2013-07-26T15:51:00Z,77,57.02,50.11,360.00,7,0,30.03,1016.80,10,M,FEW,BKN,M,M,3700.00,5500.00,M,M,M,KLGA 261551Z 36007KT 330V030 10SM FEW037 BKN055 25/14 A3003 RMK AO2 SLP168 T02500139
LGA,2013-07-26T16:51:00Z,78.08,57.02,48.35,330.00,7,0,30.02,1016.50,10,M,FEW,BKN,M,M,4200.00,6500.00,M,M,M,KLGA 261651Z 33007KT 10SM FEW042 BKN065 26/14 A3002 RMK AO2 SLP165 T02560139
LGA,2013-07-26T17:51:00Z,80.06,57.02,45.3,10.00,3,0,30.01,1016.20,10,M,FEW,SCT,SCT,M,4400.00,6500.00,18000.00,M,M,KLGA 261751Z 01003KT 10SM FEW044 SCT065 SCT180 27/14 A3001 RMK AO2 SLP162 T02670139 10267 20200 58005
LGA,2013-07-26T18:51:00Z,80.06,57.02,45.3,80.00,9,0,30,1015.90,10,M,FEW,SCT,SCT,M,4500.00,7000.00,18000.00,M,M,KLGA 261851Z 08009KT 10SM FEW045 SCT070 SCT180 27/14 A3000 RMK AO2 SLP159 T02670139
LGA,2013-07-26T19:51:00Z,80.96,59,47.23,50.00,10,0,30,1015.70,10,M,SCT,M,M,M,5500.00,M,M,M,M,KLGA 261951Z 05010KT 10SM SCT055 27/15 A3000 RMK AO2 SLP157 T02720150
LGA,2013-07-26T20:51:00Z,80.96,57.92,45.44,40.00,7,0,29.99,1015.50,10,M,BKN,M,M,M,5500.00,M,M,M,M,KLGA 262051Z 04007KT 10SM BKN055 27/14 A2999 RMK AO2 SLP155 T02720144 56007
LGA,2013-07-26T21:51:00Z,80.96,57.02,43.99,50.00,7,0,29.99,1015.50,10,M,BKN,M,M,M,6000.00,M,M,M,M,KLGA 262151Z 05007KT 10SM BKN060 27/14 A2999 RMK AO2 SLP155 T02720139
LGA,2013-07-26T22:51:00Z,82.04,60.98,48.93,150.00,8,0,29.99,1015.60,10,M,BKN,BKN,M,M,6000.00,7500.00,M,M,M,KLGA 262251Z 15008KT 10SM BKN060 BKN075 28/16 A2999 RMK AO2 SLP156 T02780161
LGA,2013-07-26T23:51:00Z,80.96,59,47.23,180.00,7,0,30,1015.70,10,15.00,SCT,BKN,M,M,6000.00,7000.00,M,M,M,KLGA 262351Z 18007G15KT 10SM SCT060 BKN070 27/15 A3000 RMK AO2 SLP157 T02720150 10289 20261 53002
LGA,2013-07-27T00:51:00Z,77,62.96,61.91,170.00,6,0,30,1016.00,10,M,FEW,SCT,M,M,6000.00,25000.00,M,M,M,KLGA 270051Z 17006KT 10SM FEW060 SCT250 25/17 A3000 RMK AO2 SLP160 T02500172
LGA,2013-07-27T01:51:00Z,75.92,64.04,66.65,190.00,8,0,30.02,1016.70,10,M,FEW,SCT,M,M,6000.00,25000.00,M,M,M,KLGA 270151Z 19008KT 10SM FEW060 SCT250 24/18 A3002 RMK AO2 SLP167 T02440178
LGA,2013-07-27T02:51:00Z,75.92,64.04,66.65,200.00,10,0,30.03,1017.00,10,M,FEW,M,M,M,25000.00,M,M,M,M,KLGA 270251Z 20010KT 10SM FEW250 24/18 A3003 RMK AO2 SLP170 T02440178 53013
LGA,2013-07-27T03:51:00Z,75.02,62.96,66.13,210.00,9,0,30.04,1017.20,10,M,SCT,M,M,M,25000.00,M,M,M,M,KLGA 270351Z 21009KT 10SM SCT250 24/17 A3004 RMK AO2 SLP172 T02390172
LGA,2013-07-27T04:51:00Z,73.94,62.96,68.57,200.00,8,0,30.04,1017.30,10,M,FEW,M,M,M,25000.00,M,M,M,M,KLGA 270451Z 20008KT 10SM FEW250 23/17 A3004 RMK AO2 SLP173 T02330172 402890183
LGA,2013-07-27T05:51:00Z,73.04,62.96,70.68,200.00,7,0,30.04,1017.20,10,M,FEW,M,M,M,25000.00,M,M,M,M,KLGA 270551Z 20007KT 10SM FEW250 23/17 A3004 RMK AO2 SLP172 T02280172 10272 20228 50002
LGA,2013-07-27T06:51:00Z,71.96,62.96,73.3,210.00,7,0,30.04,1017.10,10,M,FEW,M,M,M,25000.00,M,M,M,M,KLGA 270651Z 21007KT 10SM FEW250 22/17 A3004 RMK AO2 SLP171 T02220172
LGA,2013-07-27T07:51:00Z,71.06,62.96,75.57,220.00,8,0,30.03,1016.80,10,M,FEW,M,M,M,25000.00,M,M,M,M,KLGA 270751Z 22008KT 10SM FEW250 22/17 A3003 RMK AO2 SLP168 T02170172
LGA,2013-07-27T08:51:00Z,71.06,62.96,75.57,220.00,7,0,30.03,1016.90,10,M,FEW,M,M,M,25000.00,M,M,M,M,KLGA 270851Z 22007KT 10SM FEW250 22/17 A3003 RMK AO2 SLP169 T02170172 55003
LGA,2013-07-27T09:51:00Z,71.06,62.96,75.57,220.00,5,0,30.04,1017.30,10,M,FEW,M,M,M,25000.00,M,M,M,M,KLGA 270951Z 22005KT 10SM FEW250 22/17 A3004 RMK AO2 SLP173 T02170172
LGA,2013-07-27T10:51:00Z,71.96,62.96,73.3,230.00,5,0,30.04,1017.10,10,M,FEW,M,M,M,25000.00,M,M,M,M,KLGA 271051Z 23005KT 10SM FEW250 22/17 A3004 RMK AO2 SLP171 T02220172
LGA,2013-07-27T11:51:00Z,73.94,64.04,71.22,210.00,3,0,30.04,1017.30,10,M,SCT,M,M,M,25000.00,M,M,M,M,KLGA 271151Z 21003KT 10SM SCT250 23/18 A3004 RMK AO2 SLP173 T02330178 10233 20217 51004
LGA,2013-07-27T12:51:00Z,75.92,62.06,62.17,230.00,6,0,30.04,1017.40,10,M,SCT,M,M,M,25000.00,M,M,M,M,KLGA 271251Z 23006KT 10SM SCT250 24/17 A3004 RMK AO2 SLP174 T02440167
LGA,2013-07-27T13:51:00Z,77,59,53.8,190.00,7,0,30.05,1017.60,10,M,FEW,BKN,M,M,5000.00,25000.00,M,M,M,KLGA 271351Z 19007KT 10SM FEW050 BKN250 25/15 A3005 RMK AO2 SLP176 T02500150
LGA,2013-07-27T14:51:00Z,80.06,55.94,43.56,210.00,4,0,30.05,1017.50,10,M,CLR,M,M,M,M,M,M,M,M,KLGA 271451Z 21004KT 10SM CLR 27/13 A3005 RMK AO2 SLP175 T02670133 50002
LGA,2013-07-27T15:51:00Z,82.04,55.94,40.84,200.00,8,0,30.05,1017.60,10,14.00,SCT,BKN,BKN,M,4000.00,6000.00,25000.00,M,M,KLGA 271551Z 20008G14KT 10SM SCT040 BKN060 BKN250 28/13 A3005 RMK AO2 SLP176 T02780133
LGA,2013-07-27T16:51:00Z,82.94,59,44.29,160.00,11,0,30.04,1017.10,10,18.00,SCT,BKN,M,M,4500.00,25000.00,M,M,M,KLGA 271651Z 16011G18KT 10SM SCT045 BKN250 28/15 A3004 RMK AO2 SLP171 T02830150
LGA,2013-07-27T17:51:00Z,82.04,59,45.6,180.00,11,0,30.03,1016.70,10,17.00,SCT,BKN,M,M,6000.00,25000.00,M,M,M,KLGA 271751Z 18011G17KT 10SM SCT060 BKN250 28/15 A3003 RMK AO2 SLP167 T02780150 10289 20233 58007
LGA,2013-07-27T18:51:00Z,82.04,55.94,40.84,150.00,13,0,30.01,1016.30,10,M,FEW,BKN,M,M,5000.00,26000.00,M,M,M,KLGA 271851Z 15013KT 10SM FEW050 BKN260 28/13 A3001 RMK AO2 SLP163 T02780133
LGA,2013-07-27T19:51:00Z,82.04,57.02,42.47,180.00,11,0,30,1015.90,10,17.00,FEW,BKN,M,M,5000.00,26000.00,M,M,M,KLGA 271951Z 18011G17KT 10SM FEW050 BKN260 28/14 A3000 RMK AO2 SLP159 T02780139
LGA,2013-07-27T20:51:00Z,82.04,55.04,39.53,150.00,16,0,29.98,1015.30,10,M,FEW,BKN,M,M,5000.00,26000.00,M,M,M,KLGA 272051Z 15016KT 10SM FEW050 BKN260 28/13 A2998 RMK AO2 SLP153 T02780128 58015
LGA,2013-07-27T21:51:00Z,78.98,57.02,46.93,170.00,14,0,29.98,1015.00,10,M,FEW,SCT,M,M,20000.00,26000.00,M,M,M,KLGA 272151Z 17014KT 10SM FEW200 SCT260 26/14 A2998 RMK AO2 SLP150 T02610139
LGA,2013-07-27T22:51:00Z,78.08,57.92,49.94,180.00,13,0,29.97,1014.90,10,M,FEW,SCT,M,M,20000.00,26000.00,M,M,M,KLGA 272251Z 18013KT 10SM FEW200 SCT260 26/14 A2997 RMK AO2 SLP149 T02560144
LGA,2013-07-27T23:51:00Z,75.92,60.98,59.84,160.00,11,0,29.99,1015.40,10,19.00,FEW,SCT,BKN,M,1000.00,20000.00,26000.00,M,M,KLGA 272351Z 16011G19KT 10SM FEW010 SCT200 BKN260 24/16 A2999 RMK AO2 SLP154 T02440161 10289 20244 53001
LGA,2013-07-28T00:51:00Z,73.94,64.04,71.22,170.00,12,0,29.99,1015.50,10,M,FEW,SCT,BKN,M,1000.00,20000.00,26000.00,M,M,KLGA 280051Z 17012KT 10SM FEW010 SCT200 BKN260 23/18 A2999 RMK AO2 SLP155 T02330178
LGA,2013-07-28T01:51:00Z,73.04,66.02,78.65,180.00,7,0,30,1015.90,10,M,FEW,SCT,M,M,1400.00,25000.00,M,M,M,KLGA 280151Z 18007KT 10SM FEW014 SCT250 23/19 A3000 RMK AO2 SLP159 FEW V SCT T02280189
LGA,2013-07-28T02:51:00Z,73.04,66.02,78.65,180.00,6,0,29.99,1015.40,10,M,FEW,SCT,M,M,1400.00,25000.00,M,M,M,KLGA 280251Z 18006KT 10SM FEW014 SCT250 23/19 A2999 RMK AO2 SLP154 T02280189 50000
LGA,2013-07-28T03:51:00Z,71.96,66.02,81.57,160.00,4,0,29.96,1014.60,10,M,FEW,SCT,M,M,1400.00,25000.00,M,M,M,KLGA 280351Z 16004KT 10SM FEW014 SCT250 22/19 A2996 RMK AO2 SLP146 T02220189
LGA,2013-07-28T04:51:00Z,71.96,66.02,81.57,150.00,6,0,29.96,1014.50,10,M,BKN,M,M,M,25000.00,M,M,M,M,KLGA 280451Z 15006KT 10SM BKN250 22/19 A2996 RMK AO2 SLP145 T02220189 402890217
LGA,2013-07-28T05:51:00Z,71.96,66.02,81.57,160.00,4,0,29.96,1014.40,10,M,FEW,BKN,M,M,1400.00,25000.00,M,M,M,KLGA 280551Z 16004KT 10SM FEW014 BKN250 22/19 A2996 RMK AO2 SLP144 T02220189 10244 20222 56010
LGA,2013-07-28T06:51:00Z,71.96,66.02,81.57,200.00,4,0,29.95,1014.20,10,M,FEW,BKN,M,M,1400.00,25000.00,M,M,M,KLGA 280651Z 20004KT 10SM FEW014 BKN250 22/19 A2995 RMK AO2 SLP142 T02220189
LGA,2013-07-28T07:51:00Z,71.96,66.02,81.57,160.00,5,0,29.95,1014.00,10,M,CLR,M,M,M,M,M,M,M,M,KLGA 280751Z 16005KT 10SM CLR 22/19 A2995 RMK AO2 SLP140 T02220189
LGA,2013-07-28T08:51:00Z,71.06,66.02,84.1,160.00,7,0,29.96,1014.50,10,M,CLR,M,M,M,M,M,M,M,M,KLGA 280851Z 16007KT 10SM CLR 22/19 A2996 RMK AO2 SLP145 T02170189 53001
LGA,2013-07-28T09:51:00Z,71.96,66.02,81.57,180.00,4,0,29.95,1014.30,10,M,SCT,SCT,M,M,13000.00,25000.00,M,M,M,KLGA 280951Z 18004KT 10SM SCT130 SCT250 22/19 A2995 RMK AO2 SLP143 T02220189
LGA,2013-07-28T10:51:00Z,71.96,66.02,81.57,210.00,6,0,29.98,1015.10,10,M,FEW,SCT,BKN,M,1000.00,13000.00,25000.00,M,M,KLGA 281051Z 21006KT 10SM FEW010 SCT130 BKN250 22/19 A2998 RMK AO2 SLP151 T02220189
LGA,2013-07-28T11:51:00Z,73.04,64.94,75.75,190.00,4,0,29.98,1015.20,10,M,FEW,SCT,BKN,M,1000.00,12000.00,25000.00,M,M,KLGA 281151Z 19004KT 10SM FEW010 SCT120 BKN250 23/18 A2998 RMK AO2 SLP152 T02280183 10228 20217 53007
LGA,2013-07-28T12:51:00Z,75.02,64.04,68.69,180.00,8,0,29.98,1015.20,10,M,BKN,BKN,M,M,4800.00,25000.00,M,M,M,KLGA 281251Z 18008KT 10SM BKN048 BKN250 24/18 A2998 RMK AO2 SLP152 T02390178
LGA,2013-07-28T13:51:00Z,75.02,64.04,68.69,170.00,7,0,29.97,1014.70,10,M,FEW,BKN,OVC,M,900.00,4500.00,25000.00,M,M,KLGA 281351Z 17007KT 10SM FEW009 BKN045 OVC250 24/18 A2997 RMK AO2 SLP147 T02390178
LGA,2013-07-28T14:51:00Z,77,62.06,59.98,170.00,9,0,29.96,1014.60,10,M,BKN,BKN,M,M,3900.00,5000.00,M,M,M,KLGA 281451Z 17009KT 10SM BKN039 BKN050 25/17 A2996 RMK AO2 SLP146 T02500167 58006
LGA,2013-07-28T15:51:00Z,78.08,62.96,59.74,150.00,8,0,29.96,1014.30,10,M,BKN,OVC,M,M,3500.00,13000.00,M,M,M,KLGA 281551Z 15008KT 10SM BKN035 OVC130 26/17 A2996 RMK AO2 SLP143 T02560172
LGA,2013-07-28T16:51:00Z,77,62.06,59.98,160.00,10,0,29.97,1014.80,10,M,BKN,BKN,OVC,M,3100.00,4800.00,7000.00,M,-RA,KLGA 281651Z 16010KT 10SM -RA BKN031 BKN048 OVC070 25/17 A2997 RMK AO2 RAB38 SLP148 P0000 T02500167
LGA,2013-07-28T17:51:00Z,75.92,64.04,66.65,160.00,11,0,29.97,1014.70,10,M,FEW,OVC,M,M,4300.00,10000.00,M,M,-RA,KLGA 281751Z 16011KT 10SM -RA FEW043 OVC100 24/18 A2997 RMK AO2 SLP147 P0000 60000 T02440178 10261 20228 53001
LGA,2013-07-28T18:51:00Z,77,64.04,64.3,150.00,13,0,29.94,1013.70,10,18.00,FEW,BKN,BKN,BKN,3700.00,4600.00,8000.00,13000.00,-RA,KLGA 281851Z 15013G18KT 10SM -RA FEW037 BKN046 BKN080 BKN130 25/18 A2994 RMK AO2 SLP137 P0000 T02500178
LGA,2013-07-28T19:51:00Z,80.96,64.04,56.45,M,6,0,29.93,1013.50,10,17.00,FEW,SCT,BKN,BKN,3600.00,5000.00,8000.00,13000.00,M,KLGA 281951Z VRB06G17KT 10SM FEW036 SCT050 BKN080 BKN130 BKN160 27/18 A2993 RMK AO2 RAE00 SLP135 P0000 T02720178
LGA,2013-07-28T20:51:00Z,80.06,62.96,55.97,160.00,12,0,29.92,1013.30,10,M,FEW,SCT,BKN,BKN,2100.00,3600.00,8000.00,14000.00,M,KLGA 282051Z 16012KT 10SM FEW021 SCT036 BKN080 BKN140 BKN250 27/17 A2992 RMK AO2 SLP133 60000 T02670172 56015
LGA,2013-07-28T21:51:00Z,78.98,66.02,64.54,170.00,9,0,29.95,1014.20,10,14.00,FEW,SCT,BKN,BKN,2000.00,4300.00,8500.00,13000.00,M,KLGA 282151Z 17009G14KT 10SM FEW020 SCT043 BKN085 BKN130 BKN160 BKN250 26/19 A2995 RMK AO2 SLP142 ACSL OHD-N-NE T02610189
LGA,2013-07-28T22:36:00Z,77,69.8,78.48,190.00,8,0,29.96,M,8,M,BKN,BKN,BKN,BKN,1700.00,4200.00,9000.00,16000.00,-RA,KLGA 282236Z 19008KT 8SM -RA BKN017 BKN042 BKN090 BKN160 25/21 A2996 RMK AO2 RAB17 P0000
LGA,2013-07-28T22:51:00Z,75.92,69.08,79.37,170.00,8,0,29.97,1014.80,8,M,BKN,BKN,BKN,BKN,1700.00,2300.00,4200.00,16000.00,-RA,KLGA 282251Z 17008KT 8SM -RA BKN017 BKN023 BKN042 BKN160 24/21 A2997 RMK AO2 RAB17 SLP148 P0000 T02440206
LGA,2013-07-28T23:09:00Z,75.2,69.8,83.32,160.00,6,0,29.96,M,8,M,FEW,SCT,BKN,BKN,1100.00,1700.00,4500.00,13000.00,-RA,KLGA 282309Z 16006KT 8SM -RA FEW011 SCT017 BKN045 BKN130 24/21 A2996 RMK AO2 P0000
LGA,2013-07-28T23:51:00Z,75.02,69.08,81.79,170.00,9,0.01,29.97,1015.00,8,M,FEW,SCT,BKN,BKN,1300.00,1900.00,3700.00,16000.00,-RA,KLGA 282351Z 17009KT 8SM -RA FEW013 SCT019 BKN037 BKN160 24/21 A2997 RMK AO2 SLP150 P0001 60001 T02390206 10278 20239 51017 $
LGA,2013-07-29T00:51:00Z,73.94,69.08,84.8,190.00,5,0.03,29.95,1014.20,8,M,FEW,SCT,SCT,BKN,1100.00,1400.00,3500.00,16000.00,-RA,KLGA 290051Z 19005KT 8SM -RA FEW011 SCT014 SCT035 BKN160 23/21 A2995 RMK AO2 SLP142 P0003 T02330206
LGA,2013-07-29T01:51:00Z,73.94,69.08,84.8,180.00,7,0,29.97,1015.00,8,M,FEW,SCT,BKN,BKN,1100.00,1300.00,3500.00,14000.00,M,KLGA 290151Z 18007KT 8SM FEW011 SCT013 BKN035 BKN140 23/21 A2997 RMK AO2 RAE28 SLP150 P0000 T02330206
LGA,2013-07-29T02:26:00Z,73.4,69.8,88.51,180.00,8,0,29.98,M,8,M,FEW,BKN,BKN,BKN,900.00,1100.00,3000.00,14000.00,M,KLGA 290226Z 18008KT 8SM FEW009 BKN011 BKN030 BKN140 23/21 A2998 RMK AO2
LGA,2013-07-29T02:51:00Z,73.94,69.08,84.8,210.00,8,0,29.99,1015.50,8,M,FEW,BKN,BKN,BKN,900.00,1100.00,3000.00,14000.00,-RA,KLGA 290251Z 21008KT 8SM -RA FEW009 BKN011 BKN030 BKN140 23/21 A2999 RMK AO2 RAB42 SLP155 P0000 60003 T02330206 53005
LGA,2013-07-29T03:51:00Z,73.04,69.98,90.14,190.00,4,0.08,29.96,1014.40,7,M,FEW,BKN,BKN,OVC,900.00,1100.00,3800.00,13000.00,-RA,KLGA 290351Z 19004KT 7SM -RA FEW009 BKN011 BKN038 OVC130 23/21 A2996 RMK AO2 SLP144 P0008 T02280211
LGA,2013-07-29T04:01:00Z,73.4,69.8,88.51,0.00,0,0,29.96,M,8,M,FEW,SCT,BKN,BKN,900.00,1100.00,3800.00,13000.00,-RA,KLGA 290401Z 00000KT 8SM -RA FEW009 SCT011 BKN038 BKN130 23/21 A2996 RMK AO2 P0000
LGA,2013-07-29T04:49:00Z,73.4,69.8,88.51,230.00,5,0.01,29.96,M,10,M,FEW,SCT,BKN,BKN,700.00,1100.00,3800.00,13000.00,M,KLGA 290449Z 23005KT 10SM FEW007 SCT011 BKN038 BKN130 23/21 A2996 RMK AO2 RAE40 P0001 402780217
LGA,2013-07-29T04:51:00Z,73.04,69.08,87.41,220.00,4,0.01,29.96,1014.50,10,M,FEW,SCT,BKN,BKN,700.00,1100.00,3800.00,13000.00,M,KLGA 290451Z 22004KT 10SM FEW007 SCT011 BKN038 BKN130 23/21 A2996 RMK AO2 RAE40 SLP145 P0001 T02280206 402780217
LGA,2013-07-29T05:51:00Z,71.96,68,87.35,230.00,3,0,29.96,1014.50,10,M,FEW,SCT,BKN,M,700.00,1600.00,11000.00,M,M,KLGA 290551Z 23003KT 10SM FEW007 SCT016 BKN110 22/20 A2996 RMK AO2 RAB0454E10 SLP145 P0000 60012 T02220200 10239 20222 56009
LGA,2013-07-29T06:51:00Z,73.04,66.92,81.14,0.00,0,0,29.96,1014.40,10,M,FEW,BKN,BKN,M,700.00,1800.00,22000.00,M,M,KLGA 290651Z 00000KT 10SM FEW007 BKN018 BKN220 23/19 A2996 RMK AO2 RAB16E33 SLP144 P0000 T02280194
LGA,2013-07-29T07:51:00Z,73.04,66.02,78.65,310.00,4,0,29.97,1015.00,10,M,FEW,BKN,BKN,BKN,700.00,2100.00,7000.00,13000.00,M,KLGA 290751Z 31004KT 10SM FEW007 BKN021 BKN070 BKN130 23/19 A2997 RMK AO2 SLP150 T02280189
LGA,2013-07-29T07:59:00Z,73.4,66.2,78.19,290.00,4,0,29.98,M,10,M,SCT,BKN,OVC,M,2100.00,5000.00,7000.00,M,M,KLGA 290759Z 29004KT 10SM SCT021 BKN050 OVC070 23/19 A2998 RMK AO2
LGA,2013-07-29T08:51:00Z,71.96,66.92,84.16,90.00,3,0,29.96,1014.60,10,M,FEW,SCT,SCT,M,2000.00,10000.00,25000.00,M,M,KLGA 290851Z 09003KT 10SM FEW020 SCT100 SCT250 22/19 A2996 RMK AO2 SLP146 60000 T02220194 50001
LGA,2013-07-29T09:51:00Z,71.06,68,90.06,0.00,0,0,29.97,1014.70,10,M,FEW,SCT,BKN,M,2000.00,10000.00,25000.00,M,M,KLGA 290951Z 00000KT 10SM FEW020 SCT100 BKN250 22/20 A2997 RMK AO2 SLP147 T02170200
LGA,2013-07-29T10:51:00Z,71.96,66.92,84.16,90.00,4,0,29.98,1015.10,10,M,FEW,SCT,M,M,13000.00,25000.00,M,M,M,KLGA 291051Z 09004KT 10SM FEW130 SCT250 22/19 A2998 RMK AO2 SLP151 T02220194
LGA,2013-07-29T11:51:00Z,73.94,68,81.71,320.00,3,0,30,1015.90,10,M,FEW,BKN,BKN,BKN,1400.00,2300.00,13000.00,25000.00,M,KLGA 291151Z 32003KT 10SM FEW014 BKN023 BKN130 BKN250 23/20 A3000 RMK AO2 SLP159 60000 70013 T02330200 10233 20217 53014
LGA,2013-07-29T12:51:00Z,75.02,64.94,70.88,360.00,4,0,30.02,1016.50,10,M,FEW,SCT,BKN,M,1500.00,2300.00,4200.00,M,M,KLGA 291251Z 36004KT 10SM FEW015 SCT023 BKN042 24/18 A3002 RMK AO2 SLP165 T02390183
LGA,2013-07-29T13:51:00Z,78.08,62.96,59.74,60.00,4,0,30.02,1016.50,10,M,FEW,SCT,M,M,3100.00,25000.00,M,M,M,KLGA 291351Z 06004KT 10SM FEW031 SCT250 26/17 A3002 RMK AO2 SLP165 T02560172
LGA,2013-07-29T14:51:00Z,78.98,62.06,56.18,110.00,4,0,30.02,1016.60,10,M,FEW,M,M,M,3600.00,M,M,M,M,KLGA 291451Z 11004KT 10SM FEW036 26/17 A3002 RMK AO2 SLP166 T02610167 51007
LGA,2013-07-29T15:51:00Z,82.04,62.06,50.84,50.00,4,0,30.02,1016.40,10,M,FEW,M,M,M,3800.00,M,M,M,M,KLGA 291551Z 05004KT 10SM FEW038 28/17 A3002 RMK AO2 SLP164 T02780167
LGA,2013-07-29T16:51:00Z,82.94,60.98,47.52,0.00,0,0,30,1016.00,10,M,FEW,M,M,M,3800.00,M,M,M,M,KLGA 291651Z 00000KT 10SM FEW038 28/16 A3000 RMK AO2 SLP160 T02830161 $
LGA,2013-07-29T17:51:00Z,86,55.94,35.95,210.00,9,0,30,1015.80,10,15.00,FEW,M,M,M,5000.00,M,M,M,M,KLGA 291751Z 21009G15KT 10SM FEW050 30/13 A3000 RMK AO2 SLP158 T03000133 10306 20228 57008 $
LGA,2013-07-29T18:51:00Z,87.08,57.92,37.31,240.00,7,0,30,1015.80,10,M,CLR,M,M,M,M,M,M,M,M,KLGA 291851Z 24007KT 200V270 10SM CLR 31/14 A3000 RMK AO2 SLP158 T03060144 $
LGA,2013-07-29T19:51:00Z,84.92,57.92,39.97,230.00,12,0,30,1015.70,10,17.00,FEW,SCT,SCT,M,6000.00,10000.00,25000.00,M,M,KLGA 291951Z 23012G17KT 10SM FEW060 SCT100 SCT250 29/14 A3000 RMK AO2 SLP157 T02940144 $
LGA,2013-07-29T20:51:00Z,84.92,55.04,36.02,230.00,9,0,30,1015.80,10,17.00,SCT,SCT,SCT,M,6000.00,10000.00,25000.00,M,M,KLGA 292051Z 23009G17KT 10SM SCT060 SCT100 SCT250 29/13 A3000 RMK AO2 SLP158 T02940128 55000 $
LGA,2013-07-29T21:51:00Z,84.02,51.98,33.14,260.00,17,0,30,1016.00,10,21.00,SCT,SCT,M,M,6000.00,25000.00,M,M,M,KLGA 292151Z 26017G21KT 10SM SCT060 SCT250 29/11 A3000 RMK AO2 SLP160 T02890111 $
LGA,2013-07-29T22:51:00Z,82.94,42.98,24.46,270.00,11,0,30.02,1016.40,10,20.00,SCT,SCT,M,M,6000.00,25000.00,M,M,M,KLGA 292251Z 27011G20KT 10SM SCT060 SCT250 28/06 A3002 RMK AO2 SLP164 T02830061 $
LGA,2013-07-29T23:51:00Z,80.96,48.92,32.67,270.00,9,0,30.04,1017.00,10,M,FEW,M,M,M,6000.00,M,M,M,M,KLGA 292351Z 27009KT 10SM FEW060 27/09 A3004 RMK AO2 SLP170 T02720094 10317 20272 53013 $
LGA,2013-07-30T00:51:00Z,80.06,50,35.03,270.00,10,0,30.05,1017.70,10,M,CLR,M,M,M,M,M,M,M,M,KLGA 300051Z 27010KT 10SM CLR 27/10 A3005 RMK AO2 SLP177 T02670100 $
LGA,2013-07-30T01:51:00Z,78.08,51.98,40.23,290.00,11,0,30.07,1018.30,10,M,CLR,M,M,M,M,M,M,M,M,KLGA 300151Z 29011KT 10SM CLR 26/11 A3007 RMK AO2 SLP183 T02560111 $
LGA,2013-07-30T02:51:00Z,77,51.98,41.69,300.00,15,0,30.08,1018.60,10,M,CLR,M,M,M,M,M,M,M,M,KLGA 300251Z 30015KT 10SM CLR 25/11 A3008 RMK AO2 SLP186 T02500111 51016 $
LGA,2013-07-30T03:51:00Z,75.02,53.06,46.34,300.00,10,0,30.09,1019.00,10,M,CLR,M,M,M,M,M,M,M,M,KLGA 300351Z 30010KT 10SM CLR 24/12 A3009 RMK AO2 SLP190 T02390117 $
LGA,2013-07-30T04:51:00Z,73.94,53.06,48.04,300.00,8,0,30.1,1019.20,10,M,CLR,M,M,M,M,M,M,M,M,KLGA 300451Z 30008KT 10SM CLR 23/12 A3010 RMK AO2 SLP192 T02330117 403170217 $
LGA,2013-07-30T05:51:00Z,73.04,53.06,49.52,310.00,12,0,30.1,1019.20,10,M,CLR,M,M,M,M,M,M,M,M,KLGA 300551Z 31012KT 10SM CLR 23/12 A3010 RMK AO2 SLP192 T02280117 10272 20228 51006 $
LGA,2013-07-30T06:51:00Z,71.96,55.04,55.22,310.00,9,0,30.1,1019.10,10,M,CLR,M,M,M,M,M,M,M,M,KLGA 300651Z 31009KT 10SM CLR 22/13 A3010 RMK AO2 SLP191 T02220128 $
LGA,2013-07-30T07:51:00Z,71.06,53.96,54.73,330.00,5,0,30.1,1019.20,10,M,CLR,M,M,M,M,M,M,M,M,KLGA 300751Z 33005KT 10SM CLR 22/12 A3010 RMK AO2 SLP192 T02170122 $
LGA,2013-07-30T08:51:00Z,69.98,55.04,59.06,320.00,4,0,30.12,1019.90,10,M,CLR,M,M,M,M,M,M,M,M,KLGA 300851Z 32004KT 10SM CLR 21/13 A3012 RMK AO2 SLP199 T02110128 53007 $
LGA,2013-07-30T09:51:00Z,69.98,53.96,56.78,320.00,5,0,30.13,1020.30,10,M,FEW,M,M,M,8000.00,M,M,M,M,KLGA 300951Z 32005KT 10SM FEW080 21/12 A3013 RMK AO2 SLP203 T02110122 $
LGA,2013-07-30T10:51:00Z,71.06,55.04,56.93,310.00,5,0,30.14,1020.80,10,M,FEW,M,M,M,25000.00,M,M,M,M,KLGA 301051Z 31005KT 10SM FEW250 22/13 A3014 RMK AO2 SLP208 T02170128 $
LGA,2013-07-30T11:51:00Z,71.06,53.96,54.73,330.00,7,0,30.16,1021.10,10,M,FEW,M,M,M,25000.00,M,M,M,M,KLGA 301151Z 33007KT 10SM FEW250 22/12 A3016 RMK AO2 SLP211 T02170122 10228 20211 53012 $
LGA,2013-07-30T12:51:00Z,71.96,53.96,53.08,300.00,6,0,30.17,1021.50,10,M,FEW,M,M,M,25000.00,M,M,M,M,KLGA 301251Z 30006KT 10SM FEW250 22/12 A3017 RMK AO2 SLP215 T02220122
LGA,2013-07-30T13:51:00Z,73.94,53.06,48.04,320.00,12,0,30.16,1021.30,10,M,FEW,M,M,M,25000.00,M,M,M,M,KLGA 301351Z 32012KT 10SM FEW250 23/12 A3016 RMK AO2 SLP213 T02330117
LGA,2013-07-30T14:51:00Z,75.92,53.96,46.47,330.00,10,0,30.16,1021.10,10,M,FEW,M,M,M,5500.00,M,M,M,M,KLGA 301451Z 33010KT 10SM FEW055 24/12 A3016 RMK AO2 SLP211 T02440122 58000
LGA,2013-07-30T15:51:00Z,78.08,53.06,41.86,300.00,10,0,30.15,1020.80,10,14.00,FEW,SCT,M,M,5000.00,25000.00,M,M,M,KLGA 301551Z 30010G14KT 10SM FEW050 SCT250 26/12 A3015 RMK AO2 SLP208 T02560117
LGA,2013-07-30T16:51:00Z,78.98,51.98,39.05,300.00,9,0,30.13,1020.40,10,17.00,SCT,SCT,M,M,5000.00,25000.00,M,M,M,KLGA 301651Z 30009G17KT 10SM SCT050 SCT250 26/11 A3013 RMK AO2 SLP204 T02610111
LGA,2013-07-30T17:51:00Z,78.98,53.96,42,320.00,11,0,30.12,1020.00,10,16.00,BKN,BKN,M,M,5500.00,25000.00,M,M,M,KLGA 301751Z 32011G16KT 10SM BKN055 BKN250 26/12 A3012 RMK AO2 SLP200 T02610122 10267 20217 57012
LGA,2013-07-30T18:51:00Z,78.98,51.08,37.78,310.00,6,0,30.11,1019.60,10,M,BKN,BKN,M,M,6500.00,25000.00,M,M,M,KLGA 301851Z 31006KT 10SM BKN065 BKN250 26/11 A3011 RMK AO2 SLP196 T02610106
LGA,2013-07-30T19:51:00Z,80.96,53.06,38.08,330.00,8,0,30.1,1019.30,10,M,BKN,BKN,M,M,6500.00,25000.00,M,M,M,KLGA 301951Z 33008KT 10SM BKN065 BKN250 27/12 A3010 RMK AO2 SLP193 T02720117
LGA,2013-07-30T20:51:00Z,80.96,51.08,35.4,310.00,10,0,30.09,1019.00,10,16.00,BKN,BKN,M,M,6500.00,25000.00,M,M,M,KLGA 302051Z 31010G16KT 10SM BKN065 BKN250 27/11 A3009 RMK AO2 SLP190 T02720106 56009
LGA,2013-07-30T21:51:00Z,80.96,53.96,39.36,290.00,9,0,30.1,1019.10,10,M,SCT,SCT,M,M,7500.00,25000.00,M,M,M,KLGA 302151Z 29009KT 10SM SCT075 SCT250 27/12 A3010 RMK AO2 SLP191 T02720122
LGA,2013-07-30T22:51:00Z,78.98,53.06,40.64,320.00,9,0,30.11,1019.50,10,M,SCT,BKN,M,M,7500.00,25000.00,M,M,M,KLGA 302251Z 32009KT 10SM SCT075 BKN250 26/12 A3011 RMK AO2 SLP195 T02610117
LGA,2013-07-30T23:51:00Z,78.08,55.04,45,320.00,7,0,30.12,1019.90,10,M,FEW,BKN,M,M,7000.00,25000.00,M,M,M,KLGA 302351Z 32007KT 10SM FEW070 BKN250 26/13 A3012 RMK AO2 SLP199 T02560128 10278 20256 53009
LGA,2013-07-31T00:51:00Z,77,55.04,46.64,320.00,9,0,30.11,1019.70,10,M,FEW,SCT,M,M,7000.00,25000.00,M,M,M,KLGA 310051Z 32009KT 10SM FEW070 SCT250 25/13 A3011 RMK AO2 SLP197 T02500128
LGA,2013-07-31T01:51:00Z,75.92,55.94,49.95,330.00,5,0,30.12,1020.10,10,M,FEW,SCT,M,M,7000.00,25000.00,M,M,M,KLGA 310151Z 33005KT 10SM FEW070 SCT250 24/13 A3012 RMK AO2 SLP201 T02440133
LGA,2013-07-31T02:51:00Z,75.92,55.94,49.95,330.00,7,0,30.13,1020.20,10,M,FEW,M,M,M,7000.00,M,M,M,M,KLGA 310251Z 33007KT 10SM FEW070 24/13 A3013 RMK AO2 SLP202 T02440133 53003
LGA,2013-07-31T03:51:00Z,75.02,55.94,51.47,330.00,6,0,30.13,1020.20,10,M,CLR,M,M,M,M,M,M,M,M,KLGA 310351Z 33006KT 10SM CLR 24/13 A3013 RMK AO2 SLP202 T02390133
LGA,2013-07-31T04:51:00Z,73.94,55.94,53.37,320.00,7,0,30.13,1020.10,10,M,CLR,M,M,M,M,M,M,M,M,KLGA 310451Z 32007KT 10SM CLR 23/13 A3013 RMK AO2 SLP201 T02330133 402780211
LGA,2013-07-31T05:51:00Z,73.04,55.94,55.01,300.00,7,0,30.12,1020.00,10,M,CLR,M,M,M,M,M,M,M,M,KLGA 310551Z 30007KT 10SM CLR 23/13 A3012 RMK AO2 SLP200 T02280133 10256 20228 58002
LGA,2013-07-31T07:51:00Z,71.06,57.02,61.16,320.00,6,0,30.13,1020.20,10,M,FEW,M,M,M,25000.00,M,M,M,M,KLGA 310751Z 32006KT 10SM FEW250 22/14 A3013 RMK AO2 SLP202 T02170139
LGA,2013-07-31T08:51:00Z,71.06,55.94,58.82,310.00,5,0,30.13,1020.10,10,M,BKN,M,M,M,25000.00,M,M,M,M,KLGA 310851Z 31005KT 10SM BKN250 22/13 A3013 RMK AO2 SLP201 T02170133 50001
LGA,2013-07-31T09:51:00Z,71.06,55.04,56.93,340.00,4,0,30.14,1020.60,10,M,BKN,M,M,M,25000.00,M,M,M,M,KLGA 310951Z 34004KT 10SM BKN250 22/13 A3014 RMK AO2 SLP206 T02170128
LGA,2013-07-31T10:51:00Z,71.06,55.04,56.93,0.00,0,0,30.15,1021.00,10,M,BKN,M,M,M,25000.00,M,M,M,M,KLGA 311051Z 00000KT 10SM BKN250 22/13 A3015 RMK AO2 SLP210 T02170128
LGA,2013-07-31T11:51:00Z,73.04,55.94,55.01,300.00,5,0,30.16,1021.20,10,M,BKN,M,M,M,25000.00,M,M,M,M,KLGA 311151Z 30005KT 10SM BKN250 23/13 A3016 RMK AO2 SLP212 T02280133 10228 20217 51010
LGA,2013-07-31T12:51:00Z,73.94,55.04,51.65,300.00,3,0,30.15,1021.00,10,M,BKN,M,M,M,25000.00,M,M,M,M,KLGA 311251Z 30003KT 10SM BKN250 23/13 A3015 RMK AO2 SLP210 T02330128
LGA,2013-07-31T13:51:00Z,75.02,55.04,49.81,40.00,4,0,30.15,1020.80,10,M,FEW,BKN,M,M,5000.00,25000.00,M,M,M,KLGA 311351Z 04004KT 10SM FEW050 BKN250 24/13 A3015 RMK AO2 SLP208 T02390128
LGA,2013-07-31T14:51:00Z,78.08,55.04,45,30.00,6,0,30.14,1020.70,10,M,FEW,BKN,M,M,5500.00,25000.00,M,M,M,KLGA 311451Z 03006KT 10SM FEW055 BKN250 26/13 A3014 RMK AO2 SLP207 T02560128 56004
LGA,2013-07-31T15:51:00Z,78.98,53.96,42,M,3,0,30.13,1020.20,10,M,FEW,BKN,M,M,5500.00,25000.00,M,M,M,KLGA 311551Z VRB03KT 10SM FEW055 BKN250 26/12 A3013 RMK AO2 SLP202 T02610122
LGA,2013-07-31T16:51:00Z,80.96,55.04,40.94,320.00,3,0,30.11,1019.70,10,M,SCT,BKN,M,M,5500.00,25000.00,M,M,M,KLGA 311651Z 32003KT 10SM SCT055 BKN250 27/13 A3011 RMK AO2 SLP197 T02720128
LGA,2013-07-31T17:51:00Z,82.04,53.96,38,300.00,6,0,30.1,1019.20,10,14.00,SCT,SCT,BKN,M,6000.00,8000.00,25000.00,M,M,KLGA 311751Z 30006G14KT 10SM SCT060 SCT080 BKN250 28/12 A3010 RMK AO2 SLP192 T02780122 10278 20228 56015
LGA,2013-07-31T18:51:00Z,80.96,55.04,40.94,170.00,10,0,30.09,1018.80,10,M,BKN,BKN,M,M,6000.00,25000.00,M,M,M,KLGA 311851Z 17010KT 10SM BKN060 BKN250 27/13 A3009 RMK AO2 SLP188 T02720128
LGA,2013-07-31T19:51:00Z,80.96,55.94,42.3,160.00,9,0,30.07,1018.30,10,M,SCT,BKN,M,M,6000.00,8000.00,M,M,M,KLGA 311951Z 16009KT 10SM SCT060 BKN080 27/13 A3007 RMK AO2 SLP183 T02720133
LGA,2013-07-31T20:51:00Z,80.96,57.02,43.99,160.00,9,0,30.06,1017.90,10,M,FEW,M,M,M,5500.00,M,M,M,M,KLGA 312051Z 16009KT 120V180 10SM FEW055 27/14 A3006 RMK AO2 SLP179 T02720139 56013
LGA,2013-07-31T21:51:00Z,78.98,57.02,46.93,170.00,11,0,30.05,1017.70,10,M,FEW,SCT,BKN,M,5500.00,10000.00,25000.00,M,M,KLGA 312151Z 17011KT 10SM FEW055 SCT100 BKN250 26/14 A3005 RMK AO2 SLP177 T02610139
LGA,2013-07-31T22:51:00Z,78.08,57.02,48.35,180.00,11,0,30.05,1017.50,10,M,FEW,SCT,BKN,M,5500.00,10000.00,25000.00,M,M,KLGA 312251Z 18011KT 10SM FEW055 SCT100 BKN250 26/14 A3005 RMK AO2 SLP175 T02560139
LGA,2013-07-31T23:51:00Z,77,57.02,50.11,180.00,9,0,30.04,1017.30,10,M,FEW,SCT,BKN,M,6000.00,10000.00,25000.00,M,M,KLGA 312351Z 18009KT 10SM FEW060 SCT100 BKN250 25/14 A3004 RMK AO2 SLP173 T02500139 56007
